{
"type": "FeatureCollection",
"name": "Kecamatan Paiton",
"crs": { "type": "name", "properties": { "name": "urn:ogc:def:crs:OGC:1.3:CRS84" } },
"features": [
{ "type": "Feature", "properties": { "GID_0": "IDN", "NAME_0": "Indonesia", "GID_1": "IDN.11_1", "NAME_1": "Jawa Timur", "NL_NAME_1": null, "GID_2": "IDN.11.30_1", "NAME_2": "Probolinggo", "NL_NAME_2": null, "GID_3": "IDN.11.30.15_1", "NAME_3": "Paiton", "VARNAME_3": null, "NL_NAME_3": null, "TYPE_3": "Kecamatan", "ENGTYPE_3": "Sub-district", "CC_3": "3513130", "HASC_3": null }, "geometry": { "type": "MultiPolygon", "coordinates": [ [ [ [ 113.51509094, -7.75055027 ], [ 113.51511383, -7.75075197 ], [ 113.51522064, -7.75075006 ], [ 113.51524353, -7.75087976 ], [ 113.51534271, -7.75102997 ], [ 113.51548767, -7.75112009 ], [ 113.5160675, -7.75100994 ], [ 113.51629639, -7.75096989 ], [ 113.51667023, -7.75108004 ], [ 113.51686096, -7.75119019 ], [ 113.51714325, -7.7514801 ], [ 113.51725769, -7.75165987 ], [ 113.51730347, -7.7518301 ], [ 113.51725769, -7.75194979 ], [ 113.51705933, -7.75212002 ], [ 113.51661682, -7.75228977 ], [ 113.51629639, -7.75242996 ], [ 113.51609802, -7.75257015 ], [ 113.51596832, -7.75272989 ], [ 113.51596832, -7.75299501 ], [ 113.51596832, -7.7530899 ], [ 113.51596832, -7.75318003 ], [ 113.51590729, -7.75422001 ], [ 113.51580811, -7.75473022 ], [ 113.51570129, -7.75512981 ], [ 113.51557159, -7.7553401 ], [ 113.51537323, -7.75554991 ], [ 113.51490021, -7.75583982 ], [ 113.51473236, -7.75592995 ], [ 113.51457977, -7.75602007 ], [ 113.51450348, -7.75610018 ], [ 113.51409912, -7.75685978 ], [ 113.51368713, -7.75755978 ], [ 113.51348114, -7.75788021 ], [ 113.51331329, -7.75811005 ], [ 113.51322174, -7.75835991 ], [ 113.51319122, -7.75875998 ], [ 113.51316071, -7.75901985 ], [ 113.51306915, -7.7592802 ], [ 113.51290894, -7.75950003 ], [ 113.51260376, -7.75972986 ], [ 113.5121994, -7.75991011 ], [ 113.51206207, -7.7599802 ], [ 113.51197052, -7.76011992 ], [ 113.51190186, -7.76032925 ], [ 113.5118866, -7.76058006 ], [ 113.51212311, -7.7610302 ], [ 113.51217651, -7.7611599 ], [ 113.51217651, -7.7613802 ], [ 113.51213074, -7.76153994 ], [ 113.51203918, -7.76164007 ], [ 113.51194763, -7.76165009 ], [ 113.51155853, -7.76159 ], [ 113.51133728, -7.76161003 ], [ 113.51112366, -7.76170015 ], [ 113.51097107, -7.76181984 ], [ 113.510849, -7.76203012 ], [ 113.51078796, -7.76230001 ], [ 113.51083374, -7.76246977 ], [ 113.51065063, -7.76245022 ], [ 113.51058197, -7.76242018 ], [ 113.51007843, -7.76234007 ], [ 113.50935364, -7.76214981 ], [ 113.50845337, -7.76220798 ], [ 113.50811768, -7.76222992 ], [ 113.50788879, -7.76224279 ], [ 113.50759125, -7.76225996 ], [ 113.50685883, -7.76245022 ], [ 113.50640869, -7.76336002 ], [ 113.50569153, -7.7643199 ], [ 113.50554657, -7.76450014 ], [ 113.50554657, -7.76434994 ], [ 113.50530243, -7.76411009 ], [ 113.50463104, -7.76368999 ], [ 113.50434113, -7.76350927 ], [ 113.50376892, -7.76315022 ], [ 113.50359344, -7.76292992 ], [ 113.50334167, -7.76247978 ], [ 113.50306702, -7.76179981 ], [ 113.50288391, -7.7613492 ], [ 113.50279236, -7.76162195 ], [ 113.50249481, -7.76199198 ], [ 113.50228882, -7.76213217 ], [ 113.50208282, -7.7623682 ], [ 113.50164795, -7.76251364 ], [ 113.50121307, -7.76269436 ], [ 113.50094604, -7.76281691 ], [ 113.50047302, -7.76295137 ], [ 113.50035095, -7.76312637 ], [ 113.49992371, -7.76352406 ], [ 113.49942017, -7.76373291 ], [ 113.49894714, -7.76388979 ], [ 113.49849701, -7.76413584 ], [ 113.49820709, -7.76420832 ], [ 113.49810791, -7.7642417 ], [ 113.49794006, -7.76423883 ], [ 113.49720001, -7.76423454 ], [ 113.49599457, -7.76437044 ], [ 113.49534607, -7.76449442 ], [ 113.49501801, -7.76446009 ], [ 113.49491119, -7.76430988 ], [ 113.49430847, -7.76349306 ], [ 113.49424744, -7.76341009 ], [ 113.494133, -7.76313019 ], [ 113.494133, -7.76293993 ], [ 113.4941864, -7.76262999 ], [ 113.49434662, -7.76240015 ], [ 113.49442291, -7.76222992 ], [ 113.49442291, -7.76204014 ], [ 113.49433899, -7.76172018 ], [ 113.49420166, -7.76141977 ], [ 113.49404144, -7.76121998 ], [ 113.49375916, -7.7610302 ], [ 113.49315643, -7.76071978 ], [ 113.49292755, -7.76062012 ], [ 113.49275208, -7.76053095 ], [ 113.49217987, -7.76025009 ], [ 113.49211884, -7.76020002 ], [ 113.49185181, -7.76003981 ], [ 113.49149323, -7.75996017 ], [ 113.4911499, -7.75996017 ], [ 113.49066162, -7.75994015 ], [ 113.49054718, -7.75987005 ], [ 113.49050903, -7.75976992 ], [ 113.49056244, -7.75958014 ], [ 113.49056244, -7.75938988 ], [ 113.49050903, -7.75930023 ], [ 113.49046326, -7.75923157 ], [ 113.49034119, -7.75906992 ], [ 113.49022675, -7.75874996 ], [ 113.4899826, -7.75878668 ], [ 113.48993683, -7.75867319 ], [ 113.48976898, -7.75835133 ], [ 113.48973846, -7.75812435 ], [ 113.48984528, -7.75796843 ], [ 113.48966217, -7.75800371 ], [ 113.48939514, -7.7581048 ], [ 113.48920441, -7.75816393 ], [ 113.48903656, -7.75823164 ], [ 113.48873901, -7.75824165 ], [ 113.48852539, -7.75828409 ], [ 113.48817444, -7.75836086 ], [ 113.48801422, -7.75839472 ], [ 113.48778534, -7.7585454 ], [ 113.48755646, -7.75855494 ], [ 113.48723602, -7.75860691 ], [ 113.48709106, -7.75861597 ], [ 113.48701477, -7.75865793 ], [ 113.48671722, -7.75878382 ], [ 113.48643494, -7.75881863 ], [ 113.48603821, -7.7588625 ], [ 113.48537445, -7.75883913 ], [ 113.48511505, -7.75882769 ], [ 113.48491669, -7.7588191 ], [ 113.48466492, -7.75885391 ], [ 113.48430634, -7.75879812 ], [ 113.48387146, -7.7588253 ], [ 113.48361969, -7.75885153 ], [ 113.48311615, -7.75893736 ], [ 113.48284149, -7.75903034 ], [ 113.48234558, -7.75909519 ], [ 113.48191833, -7.7590971 ], [ 113.48191071, -7.75847721 ], [ 113.48191071, -7.75808239 ], [ 113.48192596, -7.75780153 ], [ 113.48191833, -7.75749683 ], [ 113.48190308, -7.75719213 ], [ 113.48190308, -7.75701237 ], [ 113.48188019, -7.75683355 ], [ 113.4818573, -7.75627756 ], [ 113.48188782, -7.75618792 ], [ 113.48197174, -7.75612736 ], [ 113.48223877, -7.75611401 ], [ 113.48232269, -7.75611353 ], [ 113.48259735, -7.75611639 ], [ 113.48291016, -7.7561655 ], [ 113.48318481, -7.75614262 ], [ 113.48350525, -7.75614786 ], [ 113.48373413, -7.75616074 ], [ 113.48394012, -7.75610924 ], [ 113.48404694, -7.75599384 ], [ 113.48410797, -7.75592899 ], [ 113.48413849, -7.75569105 ], [ 113.48414612, -7.75549126 ], [ 113.48412323, -7.75523329 ], [ 113.48410797, -7.75508976 ], [ 113.48397827, -7.7549901 ], [ 113.48383331, -7.75492811 ], [ 113.48365021, -7.75486279 ], [ 113.48347473, -7.75482798 ], [ 113.48318481, -7.75483704 ], [ 113.4829483, -7.75482416 ], [ 113.48262787, -7.75480127 ], [ 113.48245239, -7.75476933 ], [ 113.48245239, -7.75453997 ], [ 113.48245239, -7.75430298 ], [ 113.48246002, -7.75413084 ], [ 113.48249054, -7.75349951 ], [ 113.48274231, -7.75349522 ], [ 113.48288727, -7.75363731 ], [ 113.48288727, -7.75418711 ], [ 113.4828949, -7.75433779 ], [ 113.4832077, -7.7543664 ], [ 113.48327637, -7.75430536 ], [ 113.48327637, -7.75397396 ], [ 113.48329163, -7.7536726 ], [ 113.48332977, -7.75336361 ], [ 113.48330688, -7.7530551 ], [ 113.4832077, -7.75286722 ], [ 113.48301697, -7.75280809 ], [ 113.48300934, -7.75268793 ], [ 113.48300934, -7.7525897 ], [ 113.48306274, -7.75253677 ], [ 113.48326874, -7.75249004 ], [ 113.48339081, -7.75242186 ], [ 113.48342133, -7.75234652 ], [ 113.48342133, -7.75225592 ], [ 113.48342133, -7.75213575 ], [ 113.48337555, -7.75203037 ], [ 113.48326874, -7.75199318 ], [ 113.48310089, -7.75193405 ], [ 113.48295593, -7.75188208 ], [ 113.4828949, -7.75183725 ], [ 113.48286438, -7.75168705 ], [ 113.48287201, -7.7515521 ], [ 113.4828186, -7.75145245 ], [ 113.48279572, -7.75135279 ], [ 113.48287201, -7.75125742 ], [ 113.48284912, -7.75108433 ], [ 113.48287964, -7.75100899 ], [ 113.48259735, -7.75100517 ], [ 113.48259735, -7.75033998 ], [ 113.48259735, -7.75019789 ], [ 113.48258972, -7.75 ], [ 113.48258972, -7.74989986 ], [ 113.48253632, -7.7498498 ], [ 113.48242188, -7.7498498 ], [ 113.481987, -7.74982023 ], [ 113.48164368, -7.74981022 ], [ 113.48143768, -7.74976015 ], [ 113.48136139, -7.74971008 ], [ 113.48127747, -7.74944019 ], [ 113.48124695, -7.74870014 ], [ 113.48124695, -7.74830008 ], [ 113.48126984, -7.74806499 ], [ 113.48065186, -7.7480402 ], [ 113.48023987, -7.74800014 ], [ 113.48001862, -7.74794006 ], [ 113.47985077, -7.74793005 ], [ 113.47927094, -7.74789 ], [ 113.47904205, -7.74785995 ], [ 113.47911072, -7.74763536 ], [ 113.47926331, -7.74715233 ], [ 113.47933197, -7.74693012 ], [ 113.47904968, -7.74683857 ], [ 113.4786911, -7.74669695 ], [ 113.47866058, -7.74572992 ], [ 113.47856903, -7.74566698 ], [ 113.47852325, -7.74559021 ], [ 113.47846222, -7.74550009 ], [ 113.47827148, -7.74524021 ], [ 113.47779846, -7.74474001 ], [ 113.47731018, -7.74427986 ], [ 113.47724152, -7.7441926 ], [ 113.47711945, -7.74404001 ], [ 113.47693634, -7.74389982 ], [ 113.47668457, -7.7439208 ], [ 113.47644806, -7.74393988 ], [ 113.47595215, -7.74398994 ], [ 113.47560883, -7.7439189 ], [ 113.47514343, -7.74382019 ], [ 113.47504425, -7.74380398 ], [ 113.47489929, -7.74378014 ], [ 113.47467041, -7.74381018 ], [ 113.4743576, -7.74389982 ], [ 113.47413635, -7.74388981 ], [ 113.47403717, -7.7438302 ], [ 113.47386169, -7.74350977 ], [ 113.47380066, -7.74336004 ], [ 113.47370148, -7.74338007 ], [ 113.47344208, -7.74349022 ], [ 113.47290039, -7.74358988 ], [ 113.4720993, -7.74366999 ], [ 113.47183228, -7.74363995 ], [ 113.47168732, -7.74356985 ], [ 113.47154999, -7.74350023 ], [ 113.47134399, -7.74336958 ], [ 113.47078705, -7.74329996 ], [ 113.47026825, -7.74324989 ], [ 113.46839142, -7.74304008 ], [ 113.46823883, -7.74302006 ], [ 113.46806335, -7.74299002 ], [ 113.46778107, -7.74281979 ], [ 113.46768188, -7.74221992 ], [ 113.46762085, -7.74186993 ], [ 113.46682739, -7.73980999 ], [ 113.46656799, -7.73906994 ], [ 113.46640015, -7.73845005 ], [ 113.46627045, -7.73776007 ], [ 113.46624756, -7.73744011 ], [ 113.46631622, -7.73715019 ], [ 113.46633148, -7.73705006 ], [ 113.46614838, -7.73687983 ], [ 113.46602631, -7.73671722 ], [ 113.46601868, -7.73662567 ], [ 113.46601105, -7.73646832 ], [ 113.46601868, -7.7362895 ], [ 113.46607971, -7.73613167 ], [ 113.46605682, -7.73599577 ], [ 113.46594238, -7.73587036 ], [ 113.46585846, -7.73573446 ], [ 113.46572113, -7.73546219 ], [ 113.4657135, -7.73530483 ], [ 113.46570587, -7.73514748 ], [ 113.46569824, -7.73504257 ], [ 113.4656601, -7.73486471 ], [ 113.46562195, -7.73469687 ], [ 113.4655838, -7.73451853 ], [ 113.46546173, -7.7341733 ], [ 113.46539307, -7.73423338 ], [ 113.46529388, -7.73432112 ], [ 113.46507263, -7.73446941 ], [ 113.46489716, -7.7346034 ], [ 113.46482086, -7.73463011 ], [ 113.46473694, -7.73467016 ], [ 113.4624176, -7.73638344 ], [ 113.46138, -7.73714781 ], [ 113.46117401, -7.73665333 ], [ 113.46109009, -7.73602819 ], [ 113.46096039, -7.73599768 ], [ 113.46092987, -7.735888 ], [ 113.46105957, -7.73585606 ], [ 113.46102142, -7.73571539 ], [ 113.46100616, -7.73555899 ], [ 113.46113586, -7.73555851 ], [ 113.46127319, -7.73572969 ], [ 113.46135712, -7.73572922 ], [ 113.46207428, -7.73574066 ], [ 113.46237183, -7.73573875 ], [ 113.46232605, -7.73536348 ], [ 113.46198273, -7.7353344 ], [ 113.4618988, -7.73525667 ], [ 113.46173096, -7.73525763 ], [ 113.46144104, -7.73502445 ], [ 113.46114349, -7.73479128 ], [ 113.46090698, -7.73471451 ], [ 113.46070862, -7.734622 ], [ 113.46047211, -7.73462343 ], [ 113.46029663, -7.73454618 ], [ 113.46022034, -7.73438978 ], [ 113.46022797, -7.73404551 ], [ 113.46024323, -7.73356056 ], [ 113.46016693, -7.73351383 ], [ 113.46021271, -7.73321629 ], [ 113.46030426, -7.73323154 ], [ 113.46047974, -7.73327732 ], [ 113.460495, -7.73313665 ], [ 113.46031952, -7.73305941 ], [ 113.4602356, -7.73277807 ], [ 113.46014404, -7.73276281 ], [ 113.45981598, -7.73267603 ], [ 113.45995331, -7.73207998 ], [ 113.45993042, -7.73190641 ], [ 113.45987701, -7.73137999 ], [ 113.45968628, -7.73054981 ], [ 113.45967102, -7.7297802 ], [ 113.45964813, -7.72881794 ], [ 113.45964813, -7.72866964 ], [ 113.4596405, -7.72842979 ], [ 113.45992279, -7.72744989 ], [ 113.46002197, -7.72716379 ], [ 113.46038055, -7.7262001 ], [ 113.46121979, -7.72623014 ], [ 113.46131897, -7.72599983 ], [ 113.46134186, -7.72584009 ], [ 113.46124268, -7.72578001 ], [ 113.46111298, -7.72573996 ], [ 113.46112061, -7.72559023 ], [ 113.46125031, -7.72510004 ], [ 113.46130371, -7.72454023 ], [ 113.46131134, -7.72432995 ], [ 113.46141052, -7.72412014 ], [ 113.46147919, -7.72392988 ], [ 113.46153259, -7.72343016 ], [ 113.46114349, -7.72047997 ], [ 113.4613266, -7.72031021 ], [ 113.46253204, -7.71934986 ], [ 113.462883, -7.71905994 ], [ 113.46315765, -7.7188201 ], [ 113.46391296, -7.71844006 ], [ 113.4642868, -7.71828985 ], [ 113.46435547, -7.71825886 ], [ 113.46492767, -7.71798992 ], [ 113.46521759, -7.71774006 ], [ 113.46547699, -7.71758986 ], [ 113.46587372, -7.71741009 ], [ 113.46664429, -7.71681023 ], [ 113.46695709, -7.7165699 ], [ 113.46788788, -7.71587992 ], [ 113.46833801, -7.71553993 ], [ 113.46884155, -7.71512985 ], [ 113.46910858, -7.71484995 ], [ 113.46970367, -7.71415997 ], [ 113.46994019, -7.71386003 ], [ 113.47019958, -7.71350002 ], [ 113.47091675, -7.71206999 ], [ 113.47103119, -7.71186018 ], [ 113.47122955, -7.71125984 ], [ 113.47135162, -7.7108202 ], [ 113.47164154, -7.7102499 ], [ 113.47176361, -7.71009016 ], [ 113.47215271, -7.70994997 ], [ 113.47255707, -7.70980978 ], [ 113.47268677, -7.70973015 ], [ 113.47223663, -7.7091198 ], [ 113.47145844, -7.70787001 ], [ 113.47122955, -7.70760012 ], [ 113.47110748, -7.70746994 ], [ 113.47100067, -7.70721006 ], [ 113.47094727, -7.7069602 ], [ 113.47097778, -7.70672989 ], [ 113.47104645, -7.70659018 ], [ 113.47118378, -7.70648003 ], [ 113.47242737, -7.70617008 ], [ 113.47315979, -7.7059598 ], [ 113.47395325, -7.70569992 ], [ 113.47458649, -7.70553017 ], [ 113.47532654, -7.70527983 ], [ 113.47619629, -7.70492983 ], [ 113.47740173, -7.70423985 ], [ 113.47795868, -7.70376778 ], [ 113.4787674, -7.70308018 ], [ 113.47953796, -7.70239019 ], [ 113.47976685, -7.70218992 ], [ 113.47982788, -7.70211983 ], [ 113.48021698, -7.70170021 ], [ 113.48049927, -7.70137978 ], [ 113.48081207, -7.70115995 ], [ 113.48175812, -7.70049 ], [ 113.48274994, -7.69997978 ], [ 113.48325348, -7.69979 ], [ 113.48336792, -7.69973373 ], [ 113.48365784, -7.69959021 ], [ 113.48416901, -7.69931984 ], [ 113.48430634, -7.69915009 ], [ 113.48477936, -7.69852018 ], [ 113.48499298, -7.69844007 ], [ 113.4853363, -7.69836998 ], [ 113.48589325, -7.69822979 ], [ 113.48628235, -7.69817019 ], [ 113.48654938, -7.69810009 ], [ 113.48679352, -7.69793987 ], [ 113.48703003, -7.69794989 ], [ 113.48735809, -7.69790983 ], [ 113.48761749, -7.69781017 ], [ 113.48795319, -7.69771004 ], [ 113.4885788, -7.69770002 ], [ 113.48890686, -7.69774008 ], [ 113.48931885, -7.69780016 ], [ 113.49076843, -7.69792986 ], [ 113.49092865, -7.69789982 ], [ 113.49099731, -7.69780016 ], [ 113.49111176, -7.69770002 ], [ 113.49131012, -7.69770002 ], [ 113.49202728, -7.69779015 ], [ 113.49267578, -7.69784832 ], [ 113.49423981, -7.69798994 ], [ 113.4952774, -7.69797993 ], [ 113.49617004, -7.69797993 ], [ 113.49729156, -7.69806004 ], [ 113.49886322, -7.69825983 ], [ 113.49907684, -7.69821978 ], [ 113.49938965, -7.69828987 ], [ 113.5, -7.69840002 ], [ 113.50015259, -7.69843006 ], [ 113.50057983, -7.69847012 ], [ 113.50076294, -7.69843006 ], [ 113.50093079, -7.69839001 ], [ 113.50112915, -7.6984601 ], [ 113.50167847, -7.69875002 ], [ 113.50211334, -7.69896984 ], [ 113.50270844, -7.69921017 ], [ 113.50370026, -7.69954014 ], [ 113.50441742, -7.69969988 ], [ 113.50476837, -7.69977999 ], [ 113.50574493, -7.7000823 ], [ 113.50611877, -7.70020008 ], [ 113.50640869, -7.70031023 ], [ 113.50694275, -7.70049 ], [ 113.50776672, -7.70065022 ], [ 113.50792694, -7.7006402 ], [ 113.50858307, -7.70056009 ], [ 113.50898743, -7.70060015 ], [ 113.50930023, -7.70068979 ], [ 113.50971222, -7.70085669 ], [ 113.50981903, -7.70090008 ], [ 113.5105896, -7.70129013 ], [ 113.51093292, -7.70147991 ], [ 113.51141357, -7.70174265 ], [ 113.51158905, -7.70183992 ], [ 113.51220703, -7.70214987 ], [ 113.51267242, -7.70236015 ], [ 113.51291656, -7.70240736 ], [ 113.51307678, -7.70243979 ], [ 113.51320648, -7.70239019 ], [ 113.51338959, -7.70233011 ], [ 113.51413727, -7.70227003 ], [ 113.51429749, -7.70213985 ], [ 113.51438904, -7.70208979 ], [ 113.51447296, -7.70214987 ], [ 113.5147171, -7.70241022 ], [ 113.51506805, -7.70275021 ], [ 113.51548004, -7.70320988 ], [ 113.51587677, -7.70367002 ], [ 113.51598358, -7.70374012 ], [ 113.51611328, -7.70381021 ], [ 113.51624298, -7.70387983 ], [ 113.51637268, -7.70390987 ], [ 113.51757813, -7.70422983 ], [ 113.51805878, -7.70417976 ], [ 113.51818085, -7.70411015 ], [ 113.51835632, -7.70401001 ], [ 113.51850891, -7.70402002 ], [ 113.51873779, -7.70409012 ], [ 113.51907349, -7.70429993 ], [ 113.52004242, -7.70501614 ], [ 113.52015686, -7.70510006 ], [ 113.52088928, -7.70563984 ], [ 113.52120209, -7.70584011 ], [ 113.52317047, -7.70685005 ], [ 113.52344513, -7.70701361 ], [ 113.52413177, -7.70741987 ], [ 113.52423859, -7.70746279 ], [ 113.52471161, -7.70765018 ], [ 113.52478027, -7.70772982 ], [ 113.52532959, -7.70803833 ], [ 113.5256424, -7.70820999 ], [ 113.52741241, -7.7089901 ], [ 113.52792358, -7.70918989 ], [ 113.52913666, -7.70958996 ], [ 113.52973175, -7.70975018 ], [ 113.52983093, -7.70977974 ], [ 113.53038788, -7.70994997 ], [ 113.53089142, -7.71004009 ], [ 113.53125763, -7.7101202 ], [ 113.53159332, -7.71023989 ], [ 113.53193665, -7.71038008 ], [ 113.53222656, -7.71045017 ], [ 113.53262329, -7.71049976 ], [ 113.53309631, -7.71056986 ], [ 113.53412628, -7.71049023 ], [ 113.53494263, -7.7102499 ], [ 113.53502655, -7.71020985 ], [ 113.53565216, -7.70987988 ], [ 113.53582764, -7.70980978 ], [ 113.53621674, -7.70984983 ], [ 113.53675079, -7.70988989 ], [ 113.53695679, -7.70988989 ], [ 113.53710938, -7.70983982 ], [ 113.53766632, -7.70990944 ], [ 113.53801727, -7.70995998 ], [ 113.53822327, -7.70999002 ], [ 113.53839874, -7.71008015 ], [ 113.53884125, -7.71043015 ], [ 113.53949738, -7.71086979 ], [ 113.53973389, -7.71105528 ], [ 113.5398407, -7.71104145 ], [ 113.54007721, -7.71113014 ], [ 113.54042816, -7.71125984 ], [ 113.5404892, -7.7112999 ], [ 113.54247284, -7.71222019 ], [ 113.54312897, -7.71253014 ], [ 113.54354858, -7.71269989 ], [ 113.54389954, -7.71280003 ], [ 113.54421234, -7.71287012 ], [ 113.54432678, -7.71290016 ], [ 113.54468536, -7.71306086 ], [ 113.54486084, -7.71313 ], [ 113.54503632, -7.71320009 ], [ 113.54611206, -7.71346998 ], [ 113.54656219, -7.71354008 ], [ 113.54669952, -7.71353006 ], [ 113.54701996, -7.71336985 ], [ 113.54736328, -7.71327019 ], [ 113.54753113, -7.71323013 ], [ 113.54788208, -7.7132802 ], [ 113.54827118, -7.71337986 ], [ 113.5486908, -7.71346998 ], [ 113.54923248, -7.7136302 ], [ 113.54979706, -7.71367979 ], [ 113.55039215, -7.71365023 ], [ 113.55090332, -7.71353006 ], [ 113.55164337, -7.71320009 ], [ 113.55185699, -7.71308994 ], [ 113.55198669, -7.71295023 ], [ 113.55209351, -7.71276999 ], [ 113.55210876, -7.71199989 ], [ 113.55213165, -7.71178007 ], [ 113.55223083, -7.71166992 ], [ 113.55229187, -7.71184015 ], [ 113.55259705, -7.71223021 ], [ 113.55271912, -7.71239996 ], [ 113.55304718, -7.71269989 ], [ 113.55330658, -7.71286011 ], [ 113.5533905, -7.71289015 ], [ 113.55361176, -7.71283007 ], [ 113.55381775, -7.71276999 ], [ 113.5539093, -7.7125802 ], [ 113.55397034, -7.71247005 ], [ 113.55413818, -7.71235991 ], [ 113.55573273, -7.7125001 ], [ 113.5559082, -7.71255016 ], [ 113.5560379, -7.71290016 ], [ 113.55615234, -7.71301985 ], [ 113.55666351, -7.71324015 ], [ 113.55753326, -7.71346998 ], [ 113.5577774, -7.71350002 ], [ 113.5581665, -7.71354008 ], [ 113.55860901, -7.71365976 ], [ 113.55934143, -7.71386003 ], [ 113.56006622, -7.71389008 ], [ 113.56038666, -7.71387005 ], [ 113.56185913, -7.71413994 ], [ 113.56221008, -7.71421003 ], [ 113.56263733, -7.71424007 ], [ 113.56298065, -7.71416998 ], [ 113.56419373, -7.71397018 ], [ 113.56485748, -7.71365023 ], [ 113.56524658, -7.71346998 ], [ 113.56556702, -7.71327019 ], [ 113.56601715, -7.71311998 ], [ 113.56678009, -7.71298981 ], [ 113.56739044, -7.71281004 ], [ 113.56775665, -7.71268988 ], [ 113.56851959, -7.7126298 ], [ 113.56938171, -7.7125001 ], [ 113.56973267, -7.71247005 ], [ 113.57010651, -7.71239996 ], [ 113.57026672, -7.71233988 ], [ 113.57087708, -7.71213007 ], [ 113.57131195, -7.71195984 ], [ 113.57164764, -7.71181011 ], [ 113.57196808, -7.71164989 ], [ 113.5724411, -7.71126986 ], [ 113.57248688, -7.71118021 ], [ 113.57266235, -7.71100998 ], [ 113.57283783, -7.71090078 ], [ 113.57289886, -7.71085978 ], [ 113.57311249, -7.7108202 ], [ 113.57346344, -7.71071005 ], [ 113.57401276, -7.71050978 ], [ 113.57420349, -7.7105298 ], [ 113.57446289, -7.71061993 ], [ 113.57556915, -7.71111012 ], [ 113.57627869, -7.7112999 ], [ 113.57660675, -7.7112999 ], [ 113.57701111, -7.71125984 ], [ 113.5773468, -7.71114016 ], [ 113.57739258, -7.71101999 ], [ 113.57749939, -7.7108202 ], [ 113.57763672, -7.71070004 ], [ 113.57785797, -7.71050978 ], [ 113.57790375, -7.71038008 ], [ 113.57788849, -7.70994997 ], [ 113.57794189, -7.70958996 ], [ 113.57804108, -7.70930004 ], [ 113.57829285, -7.70878983 ], [ 113.57827759, -7.70863008 ], [ 113.57846832, -7.70826006 ], [ 113.57861328, -7.70824003 ], [ 113.5787735, -7.70814991 ], [ 113.57887268, -7.7081399 ], [ 113.5791626, -7.70811987 ], [ 113.5792923, -7.70809984 ], [ 113.57958984, -7.70824003 ], [ 113.5800705, -7.70848989 ], [ 113.58048248, -7.70863008 ], [ 113.58065033, -7.70865011 ], [ 113.58081818, -7.70869017 ], [ 113.58091736, -7.70873022 ], [ 113.58104706, -7.70877981 ], [ 113.58139801, -7.70892 ], [ 113.58187866, -7.70919991 ], [ 113.58206177, -7.70937014 ], [ 113.5821991, -7.70964003 ], [ 113.5824585, -7.71038008 ], [ 113.58291626, -7.71142006 ], [ 113.58309937, -7.71155024 ], [ 113.5834198, -7.71170998 ], [ 113.58360291, -7.71176004 ], [ 113.58390808, -7.71184015 ], [ 113.58453369, -7.71204996 ], [ 113.58558655, -7.71241999 ], [ 113.58583832, -7.71235991 ], [ 113.5864563, -7.71212006 ], [ 113.58683777, -7.71196985 ], [ 113.58714294, -7.71189022 ], [ 113.58737946, -7.71193981 ], [ 113.58786011, -7.71217012 ], [ 113.58808899, -7.71225023 ], [ 113.58827972, -7.71231985 ], [ 113.58846283, -7.71240997 ], [ 113.58866119, -7.71251011 ], [ 113.58878326, -7.71256018 ], [ 113.58911896, -7.71282005 ], [ 113.58952332, -7.71299982 ], [ 113.58984375, -7.71309996 ], [ 113.59172058, -7.71364021 ], [ 113.59195709, -7.71379995 ], [ 113.59233856, -7.71393013 ], [ 113.59266663, -7.71404982 ], [ 113.5931015, -7.71416998 ], [ 113.59349823, -7.71429014 ], [ 113.59391022, -7.71439981 ], [ 113.59442902, -7.71454 ], [ 113.59499359, -7.7147398 ], [ 113.59706116, -7.71539021 ], [ 113.59755707, -7.71514988 ], [ 113.59763336, -7.71516991 ], [ 113.59786224, -7.71528006 ], [ 113.59773254, -7.71555328 ], [ 113.597229, -7.71633053 ], [ 113.59683228, -7.71688032 ], [ 113.59664154, -7.71710777 ], [ 113.59651947, -7.71720409 ], [ 113.59630585, -7.71721697 ], [ 113.59597015, -7.71717167 ], [ 113.59558868, -7.71706676 ], [ 113.59529877, -7.71693754 ], [ 113.5949173, -7.71676111 ], [ 113.59430695, -7.71657419 ], [ 113.59391022, -7.71644592 ], [ 113.59361267, -7.71640015 ], [ 113.59329224, -7.71637821 ], [ 113.5929184, -7.71641636 ], [ 113.59222412, -7.71646166 ], [ 113.59150696, -7.71654415 ], [ 113.59091187, -7.71659422 ], [ 113.59070587, -7.71660328 ], [ 113.59064484, -7.71666622 ], [ 113.59061432, -7.71679878 ], [ 113.59061432, -7.7168951 ], [ 113.59060669, -7.71705341 ], [ 113.59052277, -7.71721792 ], [ 113.59049225, -7.71730423 ], [ 113.59049225, -7.71750975 ], [ 113.59049225, -7.7176528 ], [ 113.59049225, -7.71781445 ], [ 113.59043121, -7.71809959 ], [ 113.59031677, -7.7186408 ], [ 113.59030151, -7.71873713 ], [ 113.59033203, -7.71928692 ], [ 113.59033966, -7.71945524 ], [ 113.59038544, -7.71973896 ], [ 113.59041595, -7.71994686 ], [ 113.59043884, -7.72035503 ], [ 113.59043884, -7.72078609 ], [ 113.59044647, -7.72128725 ], [ 113.59046173, -7.72169209 ], [ 113.59051514, -7.72203875 ], [ 113.5905838, -7.72229147 ], [ 113.59059143, -7.72238207 ], [ 113.59050751, -7.72287416 ], [ 113.59049225, -7.72294903 ], [ 113.59046936, -7.7231493 ], [ 113.59046936, -7.72334003 ], [ 113.59047699, -7.72354984 ], [ 113.59054565, -7.72372627 ], [ 113.59034729, -7.7241888 ], [ 113.59004211, -7.72482347 ], [ 113.58965302, -7.72535467 ], [ 113.58929443, -7.72579002 ], [ 113.5888443, -7.72617292 ], [ 113.58827972, -7.7265296 ], [ 113.58768463, -7.72683144 ], [ 113.58699799, -7.72708654 ], [ 113.58625031, -7.72720718 ], [ 113.58541107, -7.72708702 ], [ 113.58451843, -7.72687483 ], [ 113.58358765, -7.72661448 ], [ 113.58290863, -7.72652483 ], [ 113.58188629, -7.72633076 ], [ 113.58091736, -7.72603464 ], [ 113.58049774, -7.72595263 ], [ 113.58008575, -7.72582674 ], [ 113.57966614, -7.72580719 ], [ 113.57930756, -7.72592306 ], [ 113.57901001, -7.72618628 ], [ 113.57867432, -7.72654581 ], [ 113.57844543, -7.72696924 ], [ 113.57830048, -7.72745228 ], [ 113.57830048, -7.72809744 ], [ 113.57832336, -7.72898054 ], [ 113.5783844, -7.73008108 ], [ 113.57842255, -7.73076248 ], [ 113.57850647, -7.73168039 ], [ 113.57845306, -7.73241615 ], [ 113.57823181, -7.73302126 ], [ 113.57785034, -7.73373365 ], [ 113.57752228, -7.73419285 ], [ 113.577034, -7.73467159 ], [ 113.57637787, -7.7352767 ], [ 113.57568359, -7.73582697 ], [ 113.57508087, -7.73643589 ], [ 113.57461548, -7.73699522 ], [ 113.57411957, -7.73759365 ], [ 113.57370758, -7.73823833 ], [ 113.57324982, -7.73887873 ], [ 113.57284546, -7.73991203 ], [ 113.57253265, -7.74140453 ], [ 113.57255554, -7.74206781 ], [ 113.5727005, -7.74263191 ], [ 113.57324219, -7.74438858 ], [ 113.57128906, -7.74439001 ], [ 113.57045746, -7.74428988 ], [ 113.56939697, -7.74412012 ], [ 113.56806183, -7.74403 ], [ 113.56671143, -7.74393988 ], [ 113.56658936, -7.74392986 ], [ 113.56606293, -7.7438798 ], [ 113.5650177, -7.74377012 ], [ 113.56336212, -7.74338007 ], [ 113.56256104, -7.74328995 ], [ 113.56188965, -7.74328995 ], [ 113.56075287, -7.74327993 ], [ 113.55976105, -7.74322987 ], [ 113.55893707, -7.74322987 ], [ 113.55883026, -7.74318981 ], [ 113.55808258, -7.74301004 ], [ 113.55738068, -7.74272013 ], [ 113.55709076, -7.74263 ], [ 113.55687714, -7.74260998 ], [ 113.55682373, -7.74268007 ], [ 113.556427, -7.74319983 ], [ 113.55628204, -7.74323988 ], [ 113.55612183, -7.74320984 ], [ 113.55555725, -7.74301004 ], [ 113.55522919, -7.74280977 ], [ 113.55480194, -7.74246979 ], [ 113.55477905, -7.74232006 ], [ 113.55474854, -7.74201012 ], [ 113.55461884, -7.74152994 ], [ 113.55445862, -7.74119997 ], [ 113.55431366, -7.74103022 ], [ 113.55404663, -7.74085999 ], [ 113.55365753, -7.74063015 ], [ 113.55362701, -7.74073982 ], [ 113.55339813, -7.7413702 ], [ 113.55328369, -7.74141979 ], [ 113.55313873, -7.74140978 ], [ 113.55278778, -7.74131012 ], [ 113.55230713, -7.74107981 ], [ 113.55217743, -7.7410202 ], [ 113.55193329, -7.74086857 ], [ 113.55183411, -7.74071121 ], [ 113.55175018, -7.74036217 ], [ 113.55171967, -7.73942661 ], [ 113.55162048, -7.73850441 ], [ 113.55151367, -7.73818064 ], [ 113.55131531, -7.73791981 ], [ 113.55104065, -7.73780918 ], [ 113.55092621, -7.73778486 ], [ 113.55084991, -7.73759794 ], [ 113.55079651, -7.73747349 ], [ 113.55065918, -7.73742437 ], [ 113.55058289, -7.73740005 ], [ 113.55040741, -7.73741341 ], [ 113.55032349, -7.73726416 ], [ 113.55023193, -7.73686552 ], [ 113.55012512, -7.7362051 ], [ 113.55007172, -7.73566914 ], [ 113.54997253, -7.73558235 ], [ 113.54968262, -7.73553419 ], [ 113.5484848, -7.73551607 ], [ 113.54811859, -7.73549366 ], [ 113.54794312, -7.73547363 ], [ 113.54747772, -7.73509979 ], [ 113.54737091, -7.73496008 ], [ 113.54733276, -7.73477983 ], [ 113.54736328, -7.73464012 ], [ 113.54750061, -7.73415995 ], [ 113.54740906, -7.73398018 ], [ 113.54727936, -7.73386002 ], [ 113.54694366, -7.7335701 ], [ 113.54679108, -7.7332902 ], [ 113.54649353, -7.73295021 ], [ 113.5460968, -7.73247004 ], [ 113.54605103, -7.73226023 ], [ 113.54608154, -7.73205996 ], [ 113.54615784, -7.73190022 ], [ 113.54625702, -7.7316699 ], [ 113.5462265, -7.73153019 ], [ 113.54614258, -7.7311101 ], [ 113.5461731, -7.73091984 ], [ 113.54608154, -7.73082018 ], [ 113.54592133, -7.73060989 ], [ 113.54589844, -7.7304101 ], [ 113.54592133, -7.73015022 ], [ 113.54602814, -7.73002005 ], [ 113.54627991, -7.72984982 ], [ 113.54647064, -7.72967005 ], [ 113.54621124, -7.72948885 ], [ 113.54627991, -7.72936964 ], [ 113.54639435, -7.72905397 ], [ 113.54632568, -7.72895479 ], [ 113.54602814, -7.72885752 ], [ 113.54573059, -7.7287097 ], [ 113.54550934, -7.72871113 ], [ 113.5453949, -7.72862911 ], [ 113.54535675, -7.72843027 ], [ 113.54532623, -7.72818184 ], [ 113.5451889, -7.72801685 ], [ 113.54510498, -7.72766924 ], [ 113.54510498, -7.72742081 ], [ 113.54520416, -7.72715473 ], [ 113.54537964, -7.72660685 ], [ 113.54547119, -7.72630215 ], [ 113.54547882, -7.72609234 ], [ 113.54545593, -7.72587872 ], [ 113.54549408, -7.72569466 ], [ 113.54573822, -7.72552729 ], [ 113.54581451, -7.7254324 ], [ 113.54587555, -7.72534323 ], [ 113.54579163, -7.72507 ], [ 113.54553223, -7.72490788 ], [ 113.5454483, -7.72470331 ], [ 113.54555511, -7.72442913 ], [ 113.54563141, -7.72418499 ], [ 113.54573059, -7.72408533 ], [ 113.54574585, -7.7239027 ], [ 113.54562378, -7.723773 ], [ 113.5454483, -7.7236228 ], [ 113.5454483, -7.72335768 ], [ 113.5453949, -7.72307587 ], [ 113.54549408, -7.72281027 ], [ 113.54562378, -7.7225771 ], [ 113.54562378, -7.72234535 ], [ 113.54573822, -7.72217894 ], [ 113.54566956, -7.72199678 ], [ 113.54572296, -7.72186136 ], [ 113.54535675, -7.72177982 ], [ 113.54517365, -7.72173977 ], [ 113.54506683, -7.7217598 ], [ 113.54499054, -7.72186995 ], [ 113.54496002, -7.72204018 ], [ 113.54508209, -7.72236013 ], [ 113.54512024, -7.72247982 ], [ 113.54506683, -7.72261 ], [ 113.5447998, -7.72283983 ], [ 113.54470825, -7.72293997 ], [ 113.54464722, -7.72313023 ], [ 113.54463196, -7.72326994 ], [ 113.54456329, -7.72335005 ], [ 113.54447937, -7.72337008 ], [ 113.54429626, -7.72318983 ], [ 113.5440979, -7.72292995 ], [ 113.54389954, -7.72278023 ], [ 113.54376984, -7.72287989 ], [ 113.54367065, -7.72355986 ], [ 113.54360962, -7.72377014 ], [ 113.54353333, -7.72388983 ], [ 113.54334259, -7.7239399 ], [ 113.54321289, -7.72394991 ], [ 113.54315186, -7.72400999 ], [ 113.54312897, -7.72428989 ], [ 113.54306793, -7.72445011 ], [ 113.54290771, -7.72463989 ], [ 113.54252625, -7.72469997 ], [ 113.54190826, -7.72497988 ], [ 113.54183197, -7.72503138 ], [ 113.54174042, -7.72521019 ], [ 113.54160309, -7.72539997 ], [ 113.54132843, -7.72559023 ], [ 113.54116821, -7.7256999 ], [ 113.541008, -7.72589016 ], [ 113.54096985, -7.72600985 ], [ 113.54100037, -7.72618008 ], [ 113.54109955, -7.72638988 ], [ 113.54113007, -7.7265501 ], [ 113.54109955, -7.72669983 ], [ 113.54103088, -7.72677994 ], [ 113.54048157, -7.72654009 ], [ 113.54035187, -7.72649002 ], [ 113.54026794, -7.72651005 ], [ 113.54017639, -7.7269001 ], [ 113.54031372, -7.72724009 ], [ 113.54038239, -7.72735023 ], [ 113.5404129, -7.72745466 ], [ 113.54045105, -7.7276001 ], [ 113.54045105, -7.72789001 ], [ 113.54045105, -7.72805023 ], [ 113.54044342, -7.72830009 ], [ 113.54042816, -7.72867012 ], [ 113.54046631, -7.72876978 ], [ 113.54068756, -7.72881985 ], [ 113.54116058, -7.72888994 ], [ 113.54134369, -7.72912979 ], [ 113.54141235, -7.72927999 ], [ 113.54125977, -7.72954988 ], [ 113.5411911, -7.72967005 ], [ 113.5411911, -7.72985983 ], [ 113.54123688, -7.72993088 ], [ 113.54152679, -7.73004007 ], [ 113.54167175, -7.73008013 ], [ 113.54174042, -7.73015022 ], [ 113.54158783, -7.73073006 ], [ 113.54154968, -7.73087788 ], [ 113.5417099, -7.7311902 ], [ 113.54192352, -7.73143005 ], [ 113.542099, -7.73157978 ], [ 113.54221344, -7.73216009 ], [ 113.5422287, -7.73272991 ], [ 113.54219818, -7.73315001 ], [ 113.54216766, -7.73340988 ], [ 113.54216766, -7.73368979 ], [ 113.54219818, -7.73399019 ], [ 113.54222107, -7.7342 ], [ 113.5422287, -7.73427963 ], [ 113.54227448, -7.73440695 ], [ 113.54251099, -7.73460245 ], [ 113.54257202, -7.73477125 ], [ 113.54272461, -7.73485231 ], [ 113.54293823, -7.73487806 ], [ 113.54310608, -7.73494291 ], [ 113.54322052, -7.73526955 ], [ 113.54335022, -7.7354598 ], [ 113.54345703, -7.7355628 ], [ 113.54353333, -7.73572636 ], [ 113.5435257, -7.73587513 ], [ 113.54351807, -7.73595047 ], [ 113.5430603, -7.73598576 ], [ 113.54263306, -7.73603773 ], [ 113.54265594, -7.73619556 ], [ 113.5424881, -7.73625565 ], [ 113.54146576, -7.73661757 ], [ 113.54150391, -7.73701048 ], [ 113.5401001, -7.7372756 ], [ 113.54016113, -7.73778057 ], [ 113.53980255, -7.73788977 ], [ 113.5395813, -7.73794794 ], [ 113.53935242, -7.73800755 ], [ 113.53846741, -7.73823977 ], [ 113.5381012, -7.73893976 ], [ 113.53671265, -7.73905373 ], [ 113.53609467, -7.73910379 ], [ 113.53517914, -7.73917866 ], [ 113.53504181, -7.7391901 ], [ 113.53489685, -7.73920012 ], [ 113.53437805, -7.73915005 ], [ 113.53334808, -7.73913002 ], [ 113.53230286, -7.73928022 ], [ 113.53218079, -7.73929024 ], [ 113.53208923, -7.73929977 ], [ 113.53151703, -7.73933983 ], [ 113.53119659, -7.7393117 ], [ 113.53105927, -7.73933744 ], [ 113.5308075, -7.73888826 ], [ 113.53053284, -7.73843288 ], [ 113.5302887, -7.73804092 ], [ 113.53015137, -7.7378583 ], [ 113.52868652, -7.73762989 ], [ 113.52842712, -7.73761988 ], [ 113.52822876, -7.73760557 ], [ 113.52786255, -7.73757982 ], [ 113.52687073, -7.7375102 ], [ 113.52588654, -7.73749018 ], [ 113.52580261, -7.73732758 ], [ 113.52574921, -7.73721981 ], [ 113.52563477, -7.7361412 ], [ 113.52558136, -7.73564005 ], [ 113.52557373, -7.73543882 ], [ 113.52548981, -7.73383999 ], [ 113.52586365, -7.73312998 ], [ 113.52612305, -7.73260546 ], [ 113.52620697, -7.73243999 ], [ 113.52642822, -7.73245001 ], [ 113.52658081, -7.73247004 ], [ 113.52648163, -7.73230982 ], [ 113.52632904, -7.73200989 ], [ 113.52622986, -7.73183012 ], [ 113.52617645, -7.73163986 ], [ 113.52616882, -7.73133993 ], [ 113.52616882, -7.73106003 ], [ 113.52613068, -7.73095942 ], [ 113.52600861, -7.73117018 ], [ 113.52516937, -7.73086977 ], [ 113.52465057, -7.73084021 ], [ 113.52429962, -7.73084021 ], [ 113.5241394, -7.73083019 ], [ 113.52385712, -7.73082018 ], [ 113.52360535, -7.73079681 ], [ 113.52342224, -7.73078012 ], [ 113.52271271, -7.73065996 ], [ 113.52262878, -7.73064995 ], [ 113.52252197, -7.7306509 ], [ 113.52224731, -7.73061991 ], [ 113.52223969, -7.73077011 ], [ 113.52207184, -7.73076105 ], [ 113.5218811, -7.73073816 ], [ 113.52165222, -7.73070955 ], [ 113.52137756, -7.73068142 ], [ 113.52105713, -7.73063564 ], [ 113.52075195, -7.73060179 ], [ 113.52056122, -7.73055983 ], [ 113.52053833, -7.73039007 ], [ 113.52053833, -7.73003006 ], [ 113.52056885, -7.72989988 ], [ 113.52062225, -7.72961998 ], [ 113.52063751, -7.72942019 ], [ 113.5206604, -7.72923994 ], [ 113.52063751, -7.7290802 ], [ 113.52059937, -7.72893429 ], [ 113.52047729, -7.72895765 ], [ 113.52045441, -7.72904253 ], [ 113.52044678, -7.72922134 ], [ 113.52041626, -7.729321 ], [ 113.5203476, -7.72944593 ], [ 113.52039337, -7.72954988 ], [ 113.52040863, -7.72963428 ], [ 113.52037811, -7.72972393 ], [ 113.52035522, -7.72982836 ], [ 113.52031708, -7.72992849 ], [ 113.52029419, -7.73000288 ], [ 113.52028656, -7.73019695 ], [ 113.52030182, -7.7303257 ], [ 113.52033234, -7.73045015 ], [ 113.52041626, -7.73051262 ], [ 113.52032471, -7.73054838 ], [ 113.51912689, -7.73020267 ], [ 113.51837921, -7.73001909 ], [ 113.51831818, -7.73010874 ], [ 113.51826477, -7.73035288 ], [ 113.51842499, -7.73047113 ], [ 113.51830292, -7.73070049 ], [ 113.51824951, -7.73083496 ], [ 113.51819611, -7.7311182 ], [ 113.51812744, -7.73120928 ], [ 113.518013, -7.73128939 ], [ 113.51790619, -7.73138046 ], [ 113.51782227, -7.73143768 ], [ 113.51776886, -7.73151159 ], [ 113.51768494, -7.73166513 ], [ 113.51761627, -7.73183537 ], [ 113.51753998, -7.73202276 ], [ 113.51745605, -7.73217058 ], [ 113.51702118, -7.73209572 ], [ 113.51695251, -7.73242712 ], [ 113.51690674, -7.73279476 ], [ 113.51686096, -7.7330575 ], [ 113.5168457, -7.73338318 ], [ 113.5167923, -7.73369837 ], [ 113.51673126, -7.734056 ], [ 113.51668549, -7.73432589 ], [ 113.51665497, -7.73465443 ], [ 113.51660919, -7.73505402 ], [ 113.51660156, -7.73548412 ], [ 113.51661682, -7.73589373 ], [ 113.51663208, -7.73641872 ], [ 113.51667786, -7.73700619 ], [ 113.51670074, -7.73731041 ], [ 113.51676178, -7.7376461 ], [ 113.51679993, -7.73785591 ], [ 113.51685333, -7.73814964 ], [ 113.51691437, -7.7384429 ], [ 113.51695251, -7.73857594 ], [ 113.51700592, -7.73873663 ], [ 113.51709747, -7.73906136 ], [ 113.51717377, -7.73917198 ], [ 113.51719666, -7.73931265 ], [ 113.51733398, -7.73956394 ], [ 113.51748657, -7.7398572 ], [ 113.51750183, -7.7399826 ], [ 113.51771545, -7.74035931 ], [ 113.51785278, -7.74065256 ], [ 113.51800537, -7.7409668 ], [ 113.51817322, -7.74131203 ], [ 113.51834869, -7.74161577 ], [ 113.51835632, -7.74174166 ], [ 113.51852417, -7.74196672 ], [ 113.51857758, -7.74204445 ], [ 113.51889801, -7.74244165 ], [ 113.51898956, -7.74256277 ], [ 113.51905823, -7.74280834 ], [ 113.51935577, -7.74333143 ], [ 113.51957703, -7.74371862 ], [ 113.51984406, -7.74427319 ], [ 113.51997375, -7.74451399 ], [ 113.5197525, -7.74457836 ], [ 113.51955414, -7.74457932 ], [ 113.51940918, -7.74449635 ], [ 113.51930237, -7.74447584 ], [ 113.51921844, -7.74453974 ], [ 113.51902771, -7.74456167 ], [ 113.51895142, -7.74453688 ], [ 113.51896667, -7.74471664 ], [ 113.51889801, -7.74479675 ], [ 113.5187912, -7.74487734 ], [ 113.51863861, -7.74502134 ], [ 113.51863861, -7.74517679 ], [ 113.51867676, -7.74528599 ], [ 113.5187149, -7.74535275 ], [ 113.5187149, -7.74544954 ], [ 113.51865387, -7.74555063 ], [ 113.51843262, -7.74567413 ], [ 113.51816559, -7.74575949 ], [ 113.51786041, -7.74582005 ], [ 113.5177536, -7.74586296 ], [ 113.51759338, -7.74589348 ], [ 113.51740265, -7.74583578 ], [ 113.51711273, -7.7457366 ], [ 113.51679993, -7.74554491 ], [ 113.51662445, -7.74541998 ], [ 113.51649475, -7.74534941 ], [ 113.51639557, -7.74534655 ], [ 113.51625061, -7.74534225 ], [ 113.51605225, -7.74554539 ], [ 113.51595306, -7.74589491 ], [ 113.51599884, -7.74630642 ], [ 113.5160675, -7.74672651 ], [ 113.51621246, -7.74702835 ], [ 113.51668549, -7.74767303 ], [ 113.51689148, -7.7479744 ], [ 113.51701355, -7.7481699 ], [ 113.51703644, -7.74837017 ], [ 113.51698303, -7.74861717 ], [ 113.51680756, -7.74889994 ], [ 113.51661682, -7.74908018 ], [ 113.5164566, -7.74917984 ], [ 113.51636505, -7.74920082 ], [ 113.51600647, -7.74919748 ], [ 113.51574707, -7.7492795 ], [ 113.51552582, -7.74942827 ], [ 113.51540375, -7.74955606 ], [ 113.51524353, -7.74975157 ], [ 113.51515961, -7.74995995 ], [ 113.51511383, -7.75019503 ], [ 113.51509094, -7.75038958 ], [ 113.51509094, -7.75055027 ] ] ] ] } }
]
}
