{
"type": "FeatureCollection",
"name": "Kecamatan Besuk",
"crs": { "type": "name", "properties": { "name": "urn:ogc:def:crs:OGC:1.3:CRS84" } },
"features": [
{ "type": "Feature", "properties": { "GID_0": "IDN", "NAME_0": "Indonesia", "GID_1": "IDN.11_1", "NAME_1": "Jawa Timur", "NL_NAME_1": null, "GID_2": "IDN.11.30_1", "NAME_2": "Probolinggo", "NL_NAME_2": null, "GID_3": "IDN.11.30.3_1", "NAME_3": "Besuk", "VARNAME_3": null, "NL_NAME_3": null, "TYPE_3": "Kecamatan", "ENGTYPE_3": "Sub-district", "CC_3": "3513140", "HASC_3": null }, "geometry": { "type": "MultiPolygon", "coordinates": [ [ [ [ 113.502388, -7.83154011 ], [ 113.50151062, -7.83231783 ], [ 113.50083923, -7.83291054 ], [ 113.5, -7.83365011 ], [ 113.49949646, -7.83400011 ], [ 113.49922943, -7.83422852 ], [ 113.49906158, -7.83437014 ], [ 113.49852753, -7.83468008 ], [ 113.49812317, -7.83486986 ], [ 113.49765015, -7.83491993 ], [ 113.49723053, -7.83486986 ], [ 113.49677277, -7.83482981 ], [ 113.49640656, -7.83481979 ], [ 113.49588776, -7.83483982 ], [ 113.4955368, -7.83487988 ], [ 113.49504089, -7.83497 ], [ 113.49453735, -7.83508873 ], [ 113.49432373, -7.83520985 ], [ 113.49404907, -7.83541012 ], [ 113.49388885, -7.83551979 ], [ 113.49372101, -7.83555984 ], [ 113.49334717, -7.83556986 ], [ 113.49306488, -7.83557463 ], [ 113.4927597, -7.83557987 ], [ 113.49230194, -7.83560991 ], [ 113.49205017, -7.83570004 ], [ 113.49176788, -7.83586979 ], [ 113.49143982, -7.83616018 ], [ 113.49102783, -7.83662987 ], [ 113.49056244, -7.83716297 ], [ 113.4903183, -7.83760977 ], [ 113.49018097, -7.83814001 ], [ 113.49002838, -7.83882999 ], [ 113.48989105, -7.83950996 ], [ 113.4897995, -7.84012985 ], [ 113.48977661, -7.8407402 ], [ 113.4897995, -7.84132004 ], [ 113.48985291, -7.84197998 ], [ 113.48996735, -7.84248018 ], [ 113.49008942, -7.84295988 ], [ 113.48990631, -7.84295988 ], [ 113.48983765, -7.84316015 ], [ 113.48980713, -7.84328985 ], [ 113.48977661, -7.84343004 ], [ 113.48925781, -7.84336996 ], [ 113.4889679, -7.8432498 ], [ 113.48895264, -7.84309006 ], [ 113.48889923, -7.84174013 ], [ 113.48877716, -7.84153986 ], [ 113.48858643, -7.84132004 ], [ 113.48842621, -7.8412199 ], [ 113.48802948, -7.84097004 ], [ 113.48782349, -7.84072018 ], [ 113.48757172, -7.84032011 ], [ 113.48751831, -7.84006023 ], [ 113.48753357, -7.83985996 ], [ 113.48758698, -7.83966017 ], [ 113.48770142, -7.83934021 ], [ 113.48774719, -7.83908987 ], [ 113.48851013, -7.83886003 ], [ 113.48834991, -7.83820009 ], [ 113.4883194, -7.8380599 ], [ 113.4881134, -7.83726978 ], [ 113.48806, -7.83695984 ], [ 113.48806, -7.83665991 ], [ 113.48806, -7.83605003 ], [ 113.48806763, -7.83588982 ], [ 113.48766327, -7.83584976 ], [ 113.48748016, -7.8358202 ], [ 113.48741913, -7.8357501 ], [ 113.48745728, -7.83548021 ], [ 113.4874115, -7.83533001 ], [ 113.48773193, -7.83497477 ], [ 113.48786163, -7.83482981 ], [ 113.48790741, -7.83471012 ], [ 113.4879837, -7.83438015 ], [ 113.48796844, -7.83390999 ], [ 113.48793793, -7.83368015 ], [ 113.48786926, -7.8334198 ], [ 113.48777771, -7.83292007 ], [ 113.4878006, -7.83280993 ], [ 113.48782349, -7.83261013 ], [ 113.48777008, -7.83240986 ], [ 113.48757172, -7.83201981 ], [ 113.48724365, -7.83159018 ], [ 113.48683929, -7.8312602 ], [ 113.48668671, -7.83119011 ], [ 113.48578644, -7.83071995 ], [ 113.48561096, -7.83059978 ], [ 113.48548126, -7.83041906 ], [ 113.48536682, -7.83016014 ], [ 113.48529816, -7.8298502 ], [ 113.48522186, -7.82928991 ], [ 113.48522186, -7.8289299 ], [ 113.48523712, -7.82882977 ], [ 113.48529816, -7.82865 ], [ 113.48545074, -7.82813978 ], [ 113.48542786, -7.82788992 ], [ 113.48535919, -7.82776022 ], [ 113.4852066, -7.82765007 ], [ 113.48490143, -7.82751989 ], [ 113.48461914, -7.82735014 ], [ 113.48458862, -7.82725 ], [ 113.48458862, -7.8270402 ], [ 113.48462677, -7.82686996 ], [ 113.48465729, -7.82655001 ], [ 113.48459625, -7.82620001 ], [ 113.48451996, -7.82605362 ], [ 113.48446655, -7.82597017 ], [ 113.48428345, -7.82552004 ], [ 113.48422241, -7.82524014 ], [ 113.48426056, -7.82497978 ], [ 113.48441315, -7.82471991 ], [ 113.48464203, -7.82442999 ], [ 113.48477173, -7.82432985 ], [ 113.48506927, -7.8242898 ], [ 113.48519135, -7.82419014 ], [ 113.48536682, -7.82392979 ], [ 113.4854126, -7.82372999 ], [ 113.48545837, -7.82336998 ], [ 113.4855423, -7.82322979 ], [ 113.48573303, -7.82290983 ], [ 113.48577118, -7.82263994 ], [ 113.48571777, -7.82235003 ], [ 113.48571014, -7.82217979 ], [ 113.4858017, -7.82201004 ], [ 113.48609924, -7.82149982 ], [ 113.48612213, -7.82140017 ], [ 113.48628998, -7.82134008 ], [ 113.48652649, -7.82123995 ], [ 113.48660278, -7.82120991 ], [ 113.48655701, -7.82110977 ], [ 113.48639679, -7.8207202 ], [ 113.4863205, -7.82024384 ], [ 113.48634338, -7.81982994 ], [ 113.48645782, -7.8194499 ], [ 113.4865036, -7.81933022 ], [ 113.48651886, -7.81920004 ], [ 113.48651886, -7.8190999 ], [ 113.48651123, -7.81886005 ], [ 113.4864502, -7.81850004 ], [ 113.48634338, -7.81830978 ], [ 113.48613739, -7.81806993 ], [ 113.48610687, -7.81798983 ], [ 113.48607635, -7.81792021 ], [ 113.48596191, -7.81788015 ], [ 113.48586273, -7.81785011 ], [ 113.485672, -7.81777 ], [ 113.48542023, -7.8176384 ], [ 113.48512268, -7.81742001 ], [ 113.48480988, -7.81720018 ], [ 113.48448944, -7.81699324 ], [ 113.48419952, -7.81688976 ], [ 113.4838562, -7.81676006 ], [ 113.48339081, -7.8166399 ], [ 113.48290253, -7.81655979 ], [ 113.48259735, -7.8165102 ], [ 113.4821167, -7.81648016 ], [ 113.48175049, -7.81647015 ], [ 113.48120117, -7.81645012 ], [ 113.48078156, -7.81643009 ], [ 113.4802475, -7.81639004 ], [ 113.4798584, -7.81632996 ], [ 113.47942352, -7.81620979 ], [ 113.4788208, -7.81609011 ], [ 113.47815704, -7.81594992 ], [ 113.47763824, -7.81583977 ], [ 113.47720337, -7.81576014 ], [ 113.47667694, -7.81573009 ], [ 113.47627258, -7.81570816 ], [ 113.47612, -7.81570005 ], [ 113.47599792, -7.81570005 ], [ 113.47579956, -7.81570005 ], [ 113.47525024, -7.81573009 ], [ 113.47476196, -7.81574011 ], [ 113.47425842, -7.81573009 ], [ 113.47373199, -7.81571007 ], [ 113.47344208, -7.81567001 ], [ 113.47322845, -7.81564999 ], [ 113.47284698, -7.81555986 ], [ 113.47260284, -7.81547022 ], [ 113.47223663, -7.81532001 ], [ 113.47184753, -7.81516981 ], [ 113.47142792, -7.81497002 ], [ 113.47064972, -7.81463003 ], [ 113.46990967, -7.81437016 ], [ 113.4692688, -7.81413984 ], [ 113.46881866, -7.81403017 ], [ 113.46833038, -7.81393003 ], [ 113.46762085, -7.81379986 ], [ 113.46710205, -7.8137002 ], [ 113.4667511, -7.81361008 ], [ 113.46587372, -7.81341982 ], [ 113.46484375, -7.81322002 ], [ 113.46411133, -7.81306982 ], [ 113.46340179, -7.81292009 ], [ 113.46296692, -7.81283998 ], [ 113.46260834, -7.81279993 ], [ 113.46205139, -7.81276989 ], [ 113.4615097, -7.81271982 ], [ 113.46095276, -7.81261015 ], [ 113.46024323, -7.81240988 ], [ 113.45963287, -7.81218004 ], [ 113.45881653, -7.81178999 ], [ 113.45825195, -7.81158018 ], [ 113.45765686, -7.81139994 ], [ 113.45722198, -7.81126022 ], [ 113.45677948, -7.81108999 ], [ 113.45555115, -7.80965996 ], [ 113.45522308, -7.80921984 ], [ 113.45539856, -7.80914021 ], [ 113.45540619, -7.80878019 ], [ 113.45545197, -7.80834007 ], [ 113.45545959, -7.80771017 ], [ 113.45549774, -7.80736017 ], [ 113.45559692, -7.80651999 ], [ 113.45565796, -7.80615997 ], [ 113.45571899, -7.80574989 ], [ 113.45584869, -7.80496979 ], [ 113.45586395, -7.80489349 ], [ 113.45597076, -7.80423021 ], [ 113.45603943, -7.80362988 ], [ 113.45610046, -7.8031702 ], [ 113.45610809, -7.80248022 ], [ 113.45606995, -7.80190992 ], [ 113.45606995, -7.80172014 ], [ 113.45599365, -7.80084991 ], [ 113.45599365, -7.80032015 ], [ 113.45593262, -7.800179 ], [ 113.45588684, -7.8000598 ], [ 113.45574951, -7.79976988 ], [ 113.45558167, -7.79961014 ], [ 113.45522308, -7.79931021 ], [ 113.45494843, -7.79892015 ], [ 113.45478058, -7.79869986 ], [ 113.45462799, -7.79855013 ], [ 113.45456696, -7.79847002 ], [ 113.45449829, -7.79837894 ], [ 113.45432281, -7.79817581 ], [ 113.45394897, -7.79775 ], [ 113.45378113, -7.79756021 ], [ 113.45374298, -7.79747009 ], [ 113.45355225, -7.7972002 ], [ 113.45339966, -7.79705 ], [ 113.45330811, -7.7969799 ], [ 113.45301056, -7.79682016 ], [ 113.45278931, -7.79664993 ], [ 113.45269012, -7.79654741 ], [ 113.45252991, -7.79638004 ], [ 113.45252991, -7.79622984 ], [ 113.45263672, -7.79530001 ], [ 113.45207214, -7.79507017 ], [ 113.45146942, -7.79476833 ], [ 113.45140076, -7.7947402 ], [ 113.44941711, -7.79378986 ], [ 113.4493103, -7.79361916 ], [ 113.4492569, -7.79354 ], [ 113.44904327, -7.79287004 ], [ 113.44892883, -7.7926302 ], [ 113.44888306, -7.79257011 ], [ 113.44864655, -7.79230022 ], [ 113.44802856, -7.79162216 ], [ 113.44779968, -7.79136992 ], [ 113.44774628, -7.79129982 ], [ 113.44772339, -7.79114008 ], [ 113.44773865, -7.79083014 ], [ 113.44776154, -7.79062366 ], [ 113.44780731, -7.79006004 ], [ 113.44789886, -7.78939009 ], [ 113.44792938, -7.78909731 ], [ 113.44796753, -7.7887001 ], [ 113.44802856, -7.78814983 ], [ 113.44808197, -7.78782988 ], [ 113.44809723, -7.78766012 ], [ 113.44818115, -7.78697014 ], [ 113.44824982, -7.78652 ], [ 113.44837952, -7.78591251 ], [ 113.44828033, -7.78556013 ], [ 113.44812775, -7.78523016 ], [ 113.44792938, -7.78480005 ], [ 113.44756317, -7.78431988 ], [ 113.44715118, -7.78389978 ], [ 113.44654083, -7.78357983 ], [ 113.44592285, -7.7834301 ], [ 113.44525909, -7.78328991 ], [ 113.44407654, -7.78322983 ], [ 113.44278717, -7.78316021 ], [ 113.44207001, -7.78304005 ], [ 113.44207001, -7.78277016 ], [ 113.44204712, -7.78221989 ], [ 113.44200897, -7.78120995 ], [ 113.4420166, -7.78086519 ], [ 113.4420166, -7.78076982 ], [ 113.44203186, -7.78044987 ], [ 113.44206238, -7.78018999 ], [ 113.44206238, -7.77986002 ], [ 113.44204712, -7.77956009 ], [ 113.44203186, -7.77930021 ], [ 113.44199371, -7.77895021 ], [ 113.44197845, -7.77851009 ], [ 113.44197083, -7.77815008 ], [ 113.44200134, -7.77775002 ], [ 113.44203949, -7.77741003 ], [ 113.44204712, -7.77710772 ], [ 113.44261932, -7.77688122 ], [ 113.44297791, -7.77539015 ], [ 113.44309998, -7.77510548 ], [ 113.44309235, -7.77498341 ], [ 113.44321442, -7.77426577 ], [ 113.44334412, -7.77362871 ], [ 113.44339752, -7.77326441 ], [ 113.44299316, -7.77306414 ], [ 113.44306183, -7.77236557 ], [ 113.44311523, -7.77205944 ], [ 113.44354248, -7.77211428 ], [ 113.44425201, -7.77203369 ], [ 113.44464874, -7.77203131 ], [ 113.4450531, -7.7719717 ], [ 113.44535065, -7.77190018 ], [ 113.44535065, -7.77169991 ], [ 113.44537354, -7.77162981 ], [ 113.44545746, -7.77163982 ], [ 113.44586182, -7.77169228 ], [ 113.44650269, -7.77180004 ], [ 113.44724274, -7.77189302 ], [ 113.44776917, -7.77195978 ], [ 113.4485321, -7.77207994 ], [ 113.44924164, -7.77220011 ], [ 113.45001984, -7.77231979 ], [ 113.45095825, -7.77244997 ], [ 113.45108795, -7.77270985 ], [ 113.45137024, -7.77328014 ], [ 113.45162201, -7.77373981 ], [ 113.45178223, -7.77404594 ], [ 113.45184326, -7.77416229 ], [ 113.45179749, -7.77462721 ], [ 113.45178986, -7.77605724 ], [ 113.45198059, -7.77607107 ], [ 113.45248413, -7.77610922 ], [ 113.45293427, -7.77616262 ], [ 113.45314026, -7.77621746 ], [ 113.45350647, -7.77642536 ], [ 113.45370483, -7.7764945 ], [ 113.45405579, -7.77657652 ], [ 113.45466614, -7.77655888 ], [ 113.45489502, -7.77655077 ], [ 113.4551239, -7.77654219 ], [ 113.45580292, -7.77648258 ], [ 113.45657349, -7.77642202 ], [ 113.45705414, -7.7764473 ], [ 113.45768738, -7.77658367 ], [ 113.45813751, -7.77656698 ], [ 113.45827484, -7.77655506 ], [ 113.45841217, -7.77654362 ], [ 113.45848846, -7.77653694 ], [ 113.45875549, -7.77660561 ], [ 113.45889282, -7.77674484 ], [ 113.45906067, -7.77684212 ], [ 113.45922089, -7.77684116 ], [ 113.4593277, -7.77699471 ], [ 113.45935822, -7.77713442 ], [ 113.45940399, -7.77738667 ], [ 113.45950317, -7.77751207 ], [ 113.46050262, -7.77781487 ], [ 113.46125031, -7.77796459 ], [ 113.46196747, -7.77815676 ], [ 113.46238708, -7.7782383 ], [ 113.46251678, -7.77823734 ], [ 113.46250916, -7.77792835 ], [ 113.46253967, -7.77767992 ], [ 113.46261597, -7.77777243 ], [ 113.46279144, -7.77787018 ], [ 113.46295929, -7.77795458 ], [ 113.46386719, -7.77841997 ], [ 113.46482849, -7.77887011 ], [ 113.46530151, -7.77907991 ], [ 113.4655304, -7.77916002 ], [ 113.46565247, -7.77921009 ], [ 113.46566772, -7.77942991 ], [ 113.46617889, -7.77938986 ], [ 113.46704102, -7.77968979 ], [ 113.46733093, -7.77996016 ], [ 113.46752167, -7.78008986 ], [ 113.46770477, -7.78014517 ], [ 113.46785736, -7.78078985 ], [ 113.4679184, -7.78108978 ], [ 113.46798706, -7.78138018 ], [ 113.46824646, -7.78209019 ], [ 113.46831512, -7.78215885 ], [ 113.46846008, -7.78231001 ], [ 113.46875763, -7.78241014 ], [ 113.46907806, -7.78243017 ], [ 113.46941376, -7.78239012 ], [ 113.46984863, -7.78236008 ], [ 113.47036743, -7.78228998 ], [ 113.4708786, -7.78218985 ], [ 113.47155762, -7.78196001 ], [ 113.47212219, -7.78171015 ], [ 113.47241211, -7.78148985 ], [ 113.4726181, -7.78126001 ], [ 113.47276306, -7.78103018 ], [ 113.4724884, -7.78080988 ], [ 113.47241974, -7.78065014 ], [ 113.47245789, -7.78047991 ], [ 113.47255707, -7.78032017 ], [ 113.47276306, -7.7799902 ], [ 113.47271729, -7.77988005 ], [ 113.47265625, -7.77972984 ], [ 113.47257233, -7.77955008 ], [ 113.47264862, -7.77937984 ], [ 113.47283173, -7.77903986 ], [ 113.47283173, -7.77886009 ], [ 113.47276306, -7.77862978 ], [ 113.47270203, -7.77839994 ], [ 113.47264099, -7.77820015 ], [ 113.47257233, -7.77817011 ], [ 113.47241211, -7.77823019 ], [ 113.47216797, -7.77826023 ], [ 113.47190857, -7.77822018 ], [ 113.47171783, -7.77811003 ], [ 113.47158051, -7.7779398 ], [ 113.47154999, -7.77778006 ], [ 113.47158051, -7.77752018 ], [ 113.47168732, -7.77719021 ], [ 113.47187042, -7.77687979 ], [ 113.47203064, -7.77658987 ], [ 113.47212219, -7.77628994 ], [ 113.472229, -7.77605009 ], [ 113.4723587, -7.77559996 ], [ 113.4723587, -7.77541018 ], [ 113.47228241, -7.77525997 ], [ 113.47206879, -7.77505016 ], [ 113.47186279, -7.77493 ], [ 113.47167969, -7.77488995 ], [ 113.47158813, -7.77496004 ], [ 113.47148132, -7.77513981 ], [ 113.47133636, -7.77549982 ], [ 113.47106934, -7.77616978 ], [ 113.47094727, -7.77629995 ], [ 113.47077942, -7.77637005 ], [ 113.47064972, -7.77632999 ], [ 113.47048187, -7.77619982 ], [ 113.47006989, -7.77574015 ], [ 113.46954346, -7.77511024 ], [ 113.46954346, -7.7750001 ], [ 113.46961975, -7.77493 ], [ 113.46974945, -7.77487993 ], [ 113.46994019, -7.77479982 ], [ 113.46997833, -7.77467012 ], [ 113.47003937, -7.77418995 ], [ 113.47013855, -7.77383995 ], [ 113.47019958, -7.7730999 ], [ 113.47013092, -7.77301979 ], [ 113.46999359, -7.77296019 ], [ 113.46981049, -7.7729702 ], [ 113.46968842, -7.77294016 ], [ 113.46964264, -7.77285004 ], [ 113.46965027, -7.77271986 ], [ 113.46977234, -7.77220011 ], [ 113.46971893, -7.77201986 ], [ 113.46965027, -7.77177 ], [ 113.46964264, -7.77168989 ], [ 113.46961975, -7.77158165 ], [ 113.46961212, -7.77151012 ], [ 113.4694519, -7.77105999 ], [ 113.4691391, -7.77045012 ], [ 113.46896362, -7.7700901 ], [ 113.4686203, -7.76953983 ], [ 113.4683075, -7.76927996 ], [ 113.46781158, -7.7688899 ], [ 113.46727753, -7.76849985 ], [ 113.46716309, -7.7684598 ], [ 113.46694183, -7.76846981 ], [ 113.46697235, -7.76811981 ], [ 113.46697235, -7.76779985 ], [ 113.4668808, -7.76753998 ], [ 113.46672058, -7.76725006 ], [ 113.466362, -7.76686001 ], [ 113.46614075, -7.76671982 ], [ 113.46594238, -7.76666021 ], [ 113.46575165, -7.76668978 ], [ 113.46559143, -7.76678991 ], [ 113.46536255, -7.76690006 ], [ 113.46524048, -7.76680994 ], [ 113.46505737, -7.76666355 ], [ 113.46492767, -7.76656008 ], [ 113.46478271, -7.76652002 ], [ 113.46411896, -7.76644993 ], [ 113.46398926, -7.76628017 ], [ 113.46395111, -7.76613998 ], [ 113.46398163, -7.76592016 ], [ 113.46399689, -7.76572323 ], [ 113.46401215, -7.76556015 ], [ 113.46396637, -7.76512003 ], [ 113.46392059, -7.76499844 ], [ 113.46385956, -7.76485014 ], [ 113.46382904, -7.76462984 ], [ 113.46389771, -7.7643199 ], [ 113.46391296, -7.76410007 ], [ 113.46382904, -7.76395988 ], [ 113.46369171, -7.76386976 ], [ 113.46325684, -7.76358986 ], [ 113.46331024, -7.76340008 ], [ 113.46331024, -7.76330662 ], [ 113.46331024, -7.76321983 ], [ 113.46320343, -7.76288986 ], [ 113.46305847, -7.76277018 ], [ 113.46282196, -7.76255989 ], [ 113.46278381, -7.76227617 ], [ 113.46276855, -7.76212978 ], [ 113.46256256, -7.76177979 ], [ 113.46240234, -7.76154232 ], [ 113.46195221, -7.76083994 ], [ 113.46166229, -7.76057005 ], [ 113.46144104, -7.76046991 ], [ 113.46131897, -7.76046991 ], [ 113.46102905, -7.76050997 ], [ 113.46086121, -7.7603302 ], [ 113.46070099, -7.76023006 ], [ 113.46040344, -7.76008987 ], [ 113.46031189, -7.76000786 ], [ 113.46018982, -7.75989008 ], [ 113.45986176, -7.75954008 ], [ 113.45966339, -7.75950575 ], [ 113.45925903, -7.75943995 ], [ 113.45903778, -7.7592802 ], [ 113.45896149, -7.75921249 ], [ 113.45848083, -7.75880003 ], [ 113.45819092, -7.75868988 ], [ 113.45774841, -7.75846004 ], [ 113.45728302, -7.75814009 ], [ 113.45674896, -7.75763988 ], [ 113.45632935, -7.75678015 ], [ 113.4562912, -7.75653982 ], [ 113.45626068, -7.75643015 ], [ 113.45623016, -7.75634003 ], [ 113.45626831, -7.75609016 ], [ 113.45628357, -7.75568008 ], [ 113.45626831, -7.75547981 ], [ 113.45606995, -7.75494003 ], [ 113.4560318, -7.7547102 ], [ 113.45604706, -7.75446987 ], [ 113.4560318, -7.75424004 ], [ 113.45607758, -7.75404978 ], [ 113.45612335, -7.75379992 ], [ 113.45630646, -7.75367022 ], [ 113.45677185, -7.75354004 ], [ 113.45688629, -7.75351 ], [ 113.45768738, -7.75328016 ], [ 113.45800018, -7.75314999 ], [ 113.45825958, -7.75297022 ], [ 113.45836639, -7.75284004 ], [ 113.4584198, -7.75278997 ], [ 113.45892334, -7.75287819 ], [ 113.45916748, -7.75283432 ], [ 113.45946503, -7.75283241 ], [ 113.46002197, -7.7528863 ], [ 113.46035004, -7.75295544 ], [ 113.46063232, -7.75295401 ], [ 113.46084595, -7.75298119 ], [ 113.46103668, -7.75307989 ], [ 113.46115112, -7.75313568 ], [ 113.46131897, -7.75322008 ], [ 113.46160126, -7.75323248 ], [ 113.46195984, -7.75327301 ], [ 113.46220398, -7.75328588 ], [ 113.46266174, -7.7532692 ], [ 113.46338654, -7.75334644 ], [ 113.46354675, -7.75336361 ], [ 113.46368408, -7.75338078 ], [ 113.46408844, -7.75343132 ], [ 113.46472931, -7.75345612 ], [ 113.46472931, -7.75361252 ], [ 113.46565247, -7.75353622 ], [ 113.46573639, -7.75357819 ], [ 113.46640778, -7.75354576 ], [ 113.46763611, -7.75362396 ], [ 113.46844482, -7.75361919 ], [ 113.46871185, -7.75356865 ], [ 113.46901703, -7.75364161 ], [ 113.4693985, -7.75361204 ], [ 113.46959686, -7.75368071 ], [ 113.46970367, -7.75365973 ], [ 113.46992493, -7.75366783 ], [ 113.47008514, -7.75365782 ], [ 113.4702301, -7.75361061 ], [ 113.47036743, -7.75360966 ], [ 113.47052765, -7.7535882 ], [ 113.47065735, -7.75355005 ], [ 113.47061157, -7.75338984 ], [ 113.47057343, -7.75328016 ], [ 113.4702301, -7.75194311 ], [ 113.47015381, -7.75163984 ], [ 113.47009277, -7.75141001 ], [ 113.47003937, -7.75121021 ], [ 113.46997833, -7.75095463 ], [ 113.469841, -7.75041771 ], [ 113.46974945, -7.75 ], [ 113.46929169, -7.74797916 ], [ 113.46907806, -7.74705982 ], [ 113.46855927, -7.74447012 ], [ 113.46829224, -7.74324989 ], [ 113.46826935, -7.74315977 ], [ 113.46823883, -7.74302006 ], [ 113.46839142, -7.74304008 ], [ 113.47026825, -7.74324989 ], [ 113.47078705, -7.74329996 ], [ 113.47134399, -7.74336958 ], [ 113.47154999, -7.74350023 ], [ 113.47168732, -7.74356985 ], [ 113.47183228, -7.74363995 ], [ 113.4720993, -7.74366999 ], [ 113.47290039, -7.74358988 ], [ 113.47344208, -7.74349022 ], [ 113.47370148, -7.74338007 ], [ 113.47380066, -7.74336004 ], [ 113.47386169, -7.74350977 ], [ 113.47403717, -7.7438302 ], [ 113.47413635, -7.74388981 ], [ 113.4743576, -7.74389982 ], [ 113.47467041, -7.74381018 ], [ 113.47489929, -7.74378014 ], [ 113.47504425, -7.74380398 ], [ 113.47514343, -7.74382019 ], [ 113.47560883, -7.7439189 ], [ 113.47595215, -7.74398994 ], [ 113.47644806, -7.74393988 ], [ 113.47668457, -7.7439208 ], [ 113.47693634, -7.74389982 ], [ 113.47711945, -7.74404001 ], [ 113.47724152, -7.7441926 ], [ 113.47731018, -7.74427986 ], [ 113.47779846, -7.74474001 ], [ 113.47827148, -7.74524021 ], [ 113.47846222, -7.74550009 ], [ 113.47852325, -7.74559021 ], [ 113.47856903, -7.74566698 ], [ 113.47866058, -7.74572992 ], [ 113.4786911, -7.74669695 ], [ 113.47904968, -7.74683857 ], [ 113.47933197, -7.74693012 ], [ 113.47926331, -7.74715233 ], [ 113.47911072, -7.74763536 ], [ 113.47904205, -7.74785995 ], [ 113.47927094, -7.74789 ], [ 113.47985077, -7.74793005 ], [ 113.48001862, -7.74794006 ], [ 113.48023987, -7.74800014 ], [ 113.48065186, -7.7480402 ], [ 113.48126984, -7.74806499 ], [ 113.48124695, -7.74830008 ], [ 113.48124695, -7.74870014 ], [ 113.48127747, -7.74944019 ], [ 113.48136139, -7.74971008 ], [ 113.48143768, -7.74976015 ], [ 113.48164368, -7.74981022 ], [ 113.481987, -7.74982023 ], [ 113.48242188, -7.7498498 ], [ 113.48253632, -7.7498498 ], [ 113.48258972, -7.74989986 ], [ 113.48258972, -7.75 ], [ 113.48259735, -7.75019789 ], [ 113.48259735, -7.75033998 ], [ 113.48259735, -7.75100517 ], [ 113.48287964, -7.75100899 ], [ 113.48284912, -7.75108433 ], [ 113.48287201, -7.75125742 ], [ 113.48279572, -7.75135279 ], [ 113.4828186, -7.75145245 ], [ 113.48287201, -7.7515521 ], [ 113.48286438, -7.75168705 ], [ 113.4828949, -7.75183725 ], [ 113.48295593, -7.75188208 ], [ 113.48310089, -7.75193405 ], [ 113.48326874, -7.75199318 ], [ 113.48337555, -7.75203037 ], [ 113.48342133, -7.75213575 ], [ 113.48342133, -7.75225592 ], [ 113.48342133, -7.75234652 ], [ 113.48339081, -7.75242186 ], [ 113.48326874, -7.75249004 ], [ 113.48306274, -7.75253677 ], [ 113.48300934, -7.7525897 ], [ 113.48300934, -7.75268793 ], [ 113.48301697, -7.75280809 ], [ 113.4832077, -7.75286722 ], [ 113.48330688, -7.7530551 ], [ 113.48332977, -7.75336361 ], [ 113.48329163, -7.7536726 ], [ 113.48327637, -7.75397396 ], [ 113.48327637, -7.75430536 ], [ 113.4832077, -7.7543664 ], [ 113.4828949, -7.75433779 ], [ 113.48288727, -7.75418711 ], [ 113.48288727, -7.75363731 ], [ 113.48274231, -7.75349522 ], [ 113.48249054, -7.75349951 ], [ 113.48246002, -7.75413084 ], [ 113.48245239, -7.75430298 ], [ 113.48245239, -7.75453997 ], [ 113.48245239, -7.75476933 ], [ 113.48262787, -7.75480127 ], [ 113.4829483, -7.75482416 ], [ 113.48318481, -7.75483704 ], [ 113.48347473, -7.75482798 ], [ 113.48365021, -7.75486279 ], [ 113.48383331, -7.75492811 ], [ 113.48397827, -7.7549901 ], [ 113.48410797, -7.75508976 ], [ 113.48412323, -7.75523329 ], [ 113.48414612, -7.75549126 ], [ 113.48413849, -7.75569105 ], [ 113.48410797, -7.75592899 ], [ 113.48404694, -7.75599384 ], [ 113.48394012, -7.75610924 ], [ 113.48373413, -7.75616074 ], [ 113.48350525, -7.75614786 ], [ 113.48318481, -7.75614262 ], [ 113.48291016, -7.7561655 ], [ 113.48259735, -7.75611639 ], [ 113.48232269, -7.75611353 ], [ 113.48223877, -7.75611401 ], [ 113.48197174, -7.75612736 ], [ 113.48188782, -7.75618792 ], [ 113.4818573, -7.75627756 ], [ 113.48188019, -7.75683355 ], [ 113.48190308, -7.75701237 ], [ 113.48190308, -7.75719213 ], [ 113.48191833, -7.75749683 ], [ 113.48192596, -7.75780153 ], [ 113.48191071, -7.75808239 ], [ 113.48191071, -7.75847721 ], [ 113.48191833, -7.7590971 ], [ 113.48234558, -7.75909519 ], [ 113.48284149, -7.75903034 ], [ 113.48311615, -7.75893736 ], [ 113.48361969, -7.75885153 ], [ 113.48387146, -7.7588253 ], [ 113.48430634, -7.75879812 ], [ 113.48466492, -7.75885391 ], [ 113.48491669, -7.7588191 ], [ 113.48511505, -7.75882769 ], [ 113.48537445, -7.75883913 ], [ 113.48603821, -7.7588625 ], [ 113.48643494, -7.75881863 ], [ 113.48671722, -7.75878382 ], [ 113.48701477, -7.75865793 ], [ 113.48709106, -7.75861597 ], [ 113.48723602, -7.75860691 ], [ 113.48755646, -7.75855494 ], [ 113.48778534, -7.7585454 ], [ 113.48801422, -7.75839472 ], [ 113.48817444, -7.75836086 ], [ 113.48852539, -7.75828409 ], [ 113.48873901, -7.75824165 ], [ 113.48903656, -7.75823164 ], [ 113.48920441, -7.75816393 ], [ 113.48939514, -7.7581048 ], [ 113.48966217, -7.75800371 ], [ 113.48984528, -7.75796843 ], [ 113.48973846, -7.75812435 ], [ 113.48976898, -7.75835133 ], [ 113.48993683, -7.75867319 ], [ 113.4899826, -7.75878668 ], [ 113.49022675, -7.75874996 ], [ 113.49034119, -7.75906992 ], [ 113.49046326, -7.75923157 ], [ 113.49050903, -7.75930023 ], [ 113.49056244, -7.75938988 ], [ 113.49056244, -7.75958014 ], [ 113.49050903, -7.75976992 ], [ 113.49054718, -7.75987005 ], [ 113.49066162, -7.75994015 ], [ 113.4911499, -7.75996017 ], [ 113.49149323, -7.75996017 ], [ 113.49185181, -7.76003981 ], [ 113.49211884, -7.76020002 ], [ 113.49217987, -7.76025009 ], [ 113.49275208, -7.76053095 ], [ 113.49292755, -7.76062012 ], [ 113.49315643, -7.76071978 ], [ 113.49375916, -7.7610302 ], [ 113.49404144, -7.76121998 ], [ 113.49420166, -7.76141977 ], [ 113.49433899, -7.76172018 ], [ 113.49442291, -7.76204014 ], [ 113.49442291, -7.76222992 ], [ 113.49434662, -7.76240015 ], [ 113.4941864, -7.76262999 ], [ 113.494133, -7.76293993 ], [ 113.494133, -7.76313019 ], [ 113.49424744, -7.76341009 ], [ 113.49430847, -7.76349306 ], [ 113.49491119, -7.76430988 ], [ 113.49501801, -7.76446009 ], [ 113.49514771, -7.76489019 ], [ 113.49526215, -7.76516008 ], [ 113.49543762, -7.76530266 ], [ 113.49569702, -7.7655201 ], [ 113.49590302, -7.76568985 ], [ 113.49600983, -7.76584005 ], [ 113.49601746, -7.7660799 ], [ 113.49606323, -7.76635981 ], [ 113.49601746, -7.76652002 ], [ 113.49594879, -7.76673985 ], [ 113.49591064, -7.76690817 ], [ 113.49585724, -7.76715994 ], [ 113.49578857, -7.76733017 ], [ 113.49568176, -7.76744986 ], [ 113.49546814, -7.76749992 ], [ 113.49520874, -7.76754999 ], [ 113.49511719, -7.76760006 ], [ 113.49513245, -7.76772833 ], [ 113.49514771, -7.76791 ], [ 113.49526978, -7.76820993 ], [ 113.49539185, -7.76849985 ], [ 113.4954834, -7.76872015 ], [ 113.49552917, -7.76914978 ], [ 113.49555969, -7.76959991 ], [ 113.49565125, -7.76997995 ], [ 113.4957428, -7.77024984 ], [ 113.4957428, -7.77062988 ], [ 113.4957428, -7.77146196 ], [ 113.4957962, -7.77190256 ], [ 113.49581909, -7.77207994 ], [ 113.49593353, -7.7723999 ], [ 113.49609375, -7.77266979 ], [ 113.49645233, -7.77312994 ], [ 113.49684906, -7.77353001 ], [ 113.49730682, -7.77388 ], [ 113.49788666, -7.77423 ], [ 113.49832916, -7.77449989 ], [ 113.49880219, -7.77472019 ], [ 113.49897003, -7.77477407 ], [ 113.49898529, -7.77526569 ], [ 113.498909, -7.77733183 ], [ 113.49897003, -7.77801418 ], [ 113.49917603, -7.7806201 ], [ 113.4994278, -7.78378487 ], [ 113.49932861, -7.78406 ], [ 113.49916077, -7.78458023 ], [ 113.49904633, -7.78494978 ], [ 113.49903107, -7.78543997 ], [ 113.49913788, -7.78571987 ], [ 113.49919891, -7.78591013 ], [ 113.49925232, -7.7860899 ], [ 113.49926758, -7.78628016 ], [ 113.49933624, -7.78679991 ], [ 113.49938965, -7.78697014 ], [ 113.49951935, -7.78725004 ], [ 113.49976349, -7.78754997 ], [ 113.49983215, -7.78760815 ], [ 113.5, -7.78774977 ], [ 113.50016785, -7.78792667 ], [ 113.50035095, -7.78811979 ], [ 113.50054932, -7.78837013 ], [ 113.50066376, -7.788486 ], [ 113.50067902, -7.78872013 ], [ 113.50063324, -7.78892994 ], [ 113.50050354, -7.78913021 ], [ 113.50022888, -7.78973007 ], [ 113.50022888, -7.79000998 ], [ 113.5002594, -7.79076004 ], [ 113.50036621, -7.79156017 ], [ 113.50047302, -7.79203987 ], [ 113.50054932, -7.79216003 ], [ 113.50105286, -7.79251003 ], [ 113.50190735, -7.7929101 ], [ 113.50221252, -7.79312992 ], [ 113.50244141, -7.79358006 ], [ 113.50250244, -7.79437542 ], [ 113.50229645, -7.79548979 ], [ 113.50223541, -7.79660749 ], [ 113.50223541, -7.79670954 ], [ 113.50241852, -7.79761982 ], [ 113.50241089, -7.79789019 ], [ 113.50240326, -7.79822779 ], [ 113.50240326, -7.79879999 ], [ 113.50240326, -7.79988337 ], [ 113.50240326, -7.80027008 ], [ 113.50234222, -7.80104303 ], [ 113.50231934, -7.80136013 ], [ 113.50231934, -7.80173016 ], [ 113.50269318, -7.80245018 ], [ 113.50323486, -7.80291271 ], [ 113.50332642, -7.80298996 ], [ 113.50396729, -7.80353022 ], [ 113.50424957, -7.80453014 ], [ 113.50428009, -7.8050499 ], [ 113.50444794, -7.80569983 ], [ 113.50456238, -7.80619001 ], [ 113.50463867, -7.80639982 ], [ 113.50479889, -7.80682993 ], [ 113.50506592, -7.80732059 ], [ 113.50514221, -7.80744982 ], [ 113.50544739, -7.80791998 ], [ 113.50556946, -7.80816984 ], [ 113.5058136, -7.80854988 ], [ 113.50601196, -7.80880022 ], [ 113.50595856, -7.80884981 ], [ 113.50588989, -7.80890989 ], [ 113.50566864, -7.8091898 ], [ 113.50544739, -7.80939007 ], [ 113.50483704, -7.81016016 ], [ 113.50478363, -7.81024981 ], [ 113.50466156, -7.81052017 ], [ 113.50456238, -7.81099987 ], [ 113.50450897, -7.81133986 ], [ 113.50431824, -7.81165981 ], [ 113.50401306, -7.81209993 ], [ 113.5033493, -7.8131299 ], [ 113.50327301, -7.81321001 ], [ 113.50309753, -7.81324005 ], [ 113.50299835, -7.81326008 ], [ 113.50219727, -7.81329012 ], [ 113.50192261, -7.81329012 ], [ 113.50167084, -7.81329012 ], [ 113.50144958, -7.81327057 ], [ 113.50097656, -7.81323004 ], [ 113.50084686, -7.81321001 ], [ 113.50063324, -7.81321001 ], [ 113.50048828, -7.81323004 ], [ 113.50035858, -7.81324005 ], [ 113.50001526, -7.81336451 ], [ 113.49980927, -7.81343985 ], [ 113.4994812, -7.81371021 ], [ 113.49929047, -7.81393003 ], [ 113.49913025, -7.81408978 ], [ 113.49851227, -7.81476021 ], [ 113.4984436, -7.81482983 ], [ 113.49816132, -7.81511021 ], [ 113.49807739, -7.81518984 ], [ 113.49771881, -7.81571007 ], [ 113.49754333, -7.81607008 ], [ 113.49738312, -7.81648016 ], [ 113.49725342, -7.81679106 ], [ 113.4970932, -7.81722164 ], [ 113.49704742, -7.81740665 ], [ 113.49701691, -7.81748009 ], [ 113.49693298, -7.81773996 ], [ 113.49688721, -7.81784964 ], [ 113.49684143, -7.81843758 ], [ 113.49682617, -7.81930923 ], [ 113.49681854, -7.81943512 ], [ 113.49681091, -7.81957912 ], [ 113.49671936, -7.81999683 ], [ 113.49669647, -7.82006884 ], [ 113.4965744, -7.82047653 ], [ 113.49646759, -7.82079601 ], [ 113.4963913, -7.82104158 ], [ 113.49620819, -7.82150936 ], [ 113.4960022, -7.82219744 ], [ 113.49594879, -7.82254744 ], [ 113.49597168, -7.8230567 ], [ 113.49600983, -7.82332659 ], [ 113.49610901, -7.82355881 ], [ 113.49614716, -7.8238287 ], [ 113.49612427, -7.82420921 ], [ 113.49597931, -7.82466412 ], [ 113.49593353, -7.82476759 ], [ 113.49588013, -7.82488537 ], [ 113.49588776, -7.8250742 ], [ 113.49638367, -7.82520294 ], [ 113.49681091, -7.82531738 ], [ 113.49684906, -7.825387 ], [ 113.49701691, -7.82572508 ], [ 113.49750519, -7.825912 ], [ 113.49760437, -7.82575083 ], [ 113.49777985, -7.82567692 ], [ 113.49801636, -7.82570457 ], [ 113.49810028, -7.82585001 ], [ 113.49826813, -7.82603931 ], [ 113.49841309, -7.8261261 ], [ 113.49858856, -7.82613945 ], [ 113.49874878, -7.82615328 ], [ 113.49889374, -7.82599163 ], [ 113.49906921, -7.82575655 ], [ 113.49929047, -7.82566786 ], [ 113.49941254, -7.82563019 ], [ 113.49965668, -7.82572985 ], [ 113.49977875, -7.82576656 ], [ 113.49978638, -7.82597017 ], [ 113.49977875, -7.82626009 ], [ 113.49971008, -7.82645988 ], [ 113.49952698, -7.82670021 ], [ 113.49920654, -7.82702017 ], [ 113.49910736, -7.82718992 ], [ 113.49932861, -7.82733011 ], [ 113.4996109, -7.82742977 ], [ 113.5, -7.82750988 ], [ 113.50071716, -7.82807016 ], [ 113.50102234, -7.82863998 ], [ 113.50140381, -7.8292799 ], [ 113.5018692, -7.83004999 ], [ 113.50192261, -7.83019018 ], [ 113.50227356, -7.83119011 ], [ 113.502388, -7.83154011 ] ] ] ] } }
]
}
