{
"type": "FeatureCollection",
"name": "Kecamatan Sumber",
"crs": { "type": "name", "properties": { "name": "urn:ogc:def:crs:OGC:1.3:CRS84" } },
"features": [
{ "type": "Feature", "properties": { "GID_0": "IDN", "NAME_0": "Indonesia", "GID_1": "IDN.11_1", "NAME_1": "Jawa Timur", "NL_NAME_1": null, "GID_2": "IDN.11.30_1", "NAME_2": "Probolinggo", "NL_NAME_2": null, "GID_3": "IDN.11.30.20_1", "NAME_3": "Sumber", "VARNAME_3": null, "NL_NAME_3": null, "TYPE_3": "Kecamatan", "ENGTYPE_3": "Sub-district", "CC_3": "3513020", "HASC_3": null }, "geometry": { "type": "MultiPolygon", "coordinates": [ [ [ [ 113.15302277, -7.93824005 ], [ 113.15309906, -7.93815279 ], [ 113.15331268, -7.93781805 ], [ 113.15338135, -7.93756771 ], [ 113.15359497, -7.93731642 ], [ 113.15361023, -7.93699932 ], [ 113.15357971, -7.93658209 ], [ 113.15367889, -7.93621445 ], [ 113.15389252, -7.93606329 ], [ 113.15406036, -7.93617916 ], [ 113.15441132, -7.93632746 ], [ 113.15466309, -7.93640995 ], [ 113.15493011, -7.9364419 ], [ 113.15523529, -7.93625689 ], [ 113.15544891, -7.93607187 ], [ 113.15564728, -7.935637 ], [ 113.15594482, -7.93513489 ], [ 113.15604401, -7.93508434 ], [ 113.15633392, -7.93513298 ], [ 113.15673065, -7.93526459 ], [ 113.15718842, -7.93534565 ], [ 113.15744781, -7.93496037 ], [ 113.15753174, -7.93464327 ], [ 113.15810394, -7.93447304 ], [ 113.15848541, -7.93462133 ], [ 113.15885925, -7.93480301 ], [ 113.1595459, -7.93484974 ], [ 113.15999603, -7.93496418 ], [ 113.16046143, -7.93511152 ], [ 113.16056824, -7.93516016 ], [ 113.16078949, -7.93530989 ], [ 113.16104126, -7.93555021 ], [ 113.16127777, -7.93584013 ], [ 113.16137695, -7.93626738 ], [ 113.16140747, -7.93639994 ], [ 113.16145325, -7.9365201 ], [ 113.16155243, -7.93683004 ], [ 113.16174316, -7.93807983 ], [ 113.16188049, -7.93948984 ], [ 113.16201782, -7.94104004 ], [ 113.16205597, -7.94131088 ], [ 113.162117, -7.9417901 ], [ 113.16217804, -7.94227982 ], [ 113.16233826, -7.94399977 ], [ 113.16236877, -7.94449997 ], [ 113.16239166, -7.94478607 ], [ 113.16240692, -7.9450798 ], [ 113.16249847, -7.94679022 ], [ 113.16256714, -7.94784021 ], [ 113.16268158, -7.94877005 ], [ 113.16280365, -7.94966984 ], [ 113.16303253, -7.95049 ], [ 113.16307068, -7.95065022 ], [ 113.16326904, -7.95127869 ], [ 113.16362762, -7.95239019 ], [ 113.16371918, -7.95257998 ], [ 113.16416931, -7.9535799 ], [ 113.16428375, -7.95380259 ], [ 113.16436005, -7.95395803 ], [ 113.16454315, -7.95432091 ], [ 113.16475677, -7.95474005 ], [ 113.16510773, -7.9553771 ], [ 113.1654129, -7.95593977 ], [ 113.16584015, -7.95668983 ], [ 113.16610718, -7.95717001 ], [ 113.16623688, -7.95741987 ], [ 113.16687012, -7.95855999 ], [ 113.16780853, -7.95984983 ], [ 113.16793823, -7.96001053 ], [ 113.16854095, -7.9607501 ], [ 113.16925812, -7.96160984 ], [ 113.16954803, -7.96200752 ], [ 113.16940308, -7.96205902 ], [ 113.16927338, -7.96199703 ], [ 113.16905212, -7.96189356 ], [ 113.16886902, -7.96189356 ], [ 113.16843414, -7.96197176 ], [ 113.16811371, -7.96206665 ], [ 113.16790771, -7.96221495 ], [ 113.16781616, -7.96239948 ], [ 113.16770935, -7.96275663 ], [ 113.16758728, -7.96295023 ], [ 113.1674118, -7.96301937 ], [ 113.16717529, -7.96303797 ], [ 113.16699219, -7.96307564 ], [ 113.16686249, -7.96316814 ], [ 113.16674805, -7.96333075 ], [ 113.16677094, -7.9634366 ], [ 113.16677856, -7.96352053 ], [ 113.16681671, -7.96372271 ], [ 113.16674042, -7.96387434 ], [ 113.16660309, -7.96398735 ], [ 113.16631317, -7.96410894 ], [ 113.16604614, -7.96425486 ], [ 113.16591644, -7.96442127 ], [ 113.16589355, -7.96457958 ], [ 113.16593933, -7.96475792 ], [ 113.16603088, -7.96484232 ], [ 113.16622162, -7.96503973 ], [ 113.16625977, -7.96522665 ], [ 113.16620636, -7.96531868 ], [ 113.16601563, -7.9654398 ], [ 113.16574097, -7.96553802 ], [ 113.16427612, -7.96589851 ], [ 113.16340637, -7.96604824 ], [ 113.16288757, -7.96625614 ], [ 113.16279602, -7.96631145 ], [ 113.16268921, -7.9665513 ], [ 113.16268158, -7.96674442 ], [ 113.16262054, -7.96702766 ], [ 113.16249084, -7.96712875 ], [ 113.16216278, -7.9672761 ], [ 113.16155243, -7.96763515 ], [ 113.1615448, -7.96776295 ], [ 113.16162872, -7.96787262 ], [ 113.16174316, -7.96808767 ], [ 113.16172028, -7.96818352 ], [ 113.16158295, -7.96833038 ], [ 113.16118622, -7.96862507 ], [ 113.16079712, -7.96876049 ], [ 113.16048431, -7.96881771 ], [ 113.15995026, -7.96901178 ], [ 113.15948486, -7.9691782 ], [ 113.15899658, -7.9692893 ], [ 113.15871429, -7.96934366 ], [ 113.15823364, -7.96946955 ], [ 113.1578064, -7.96952915 ], [ 113.15769958, -7.96954346 ], [ 113.15724182, -7.96954679 ], [ 113.15716553, -7.9695611 ], [ 113.15679932, -7.96967459 ], [ 113.15636444, -7.96990061 ], [ 113.15618896, -7.97005463 ], [ 113.1556778, -7.97053432 ], [ 113.1554184, -7.97060537 ], [ 113.154953, -7.9707222 ], [ 113.15433502, -7.97119236 ], [ 113.15424347, -7.97135735 ], [ 113.15425873, -7.97146702 ], [ 113.15429688, -7.9717145 ], [ 113.15413666, -7.97180128 ], [ 113.153862, -7.97188377 ], [ 113.15367889, -7.97193909 ], [ 113.15354919, -7.97205305 ], [ 113.15351868, -7.97220373 ], [ 113.15357208, -7.97235632 ], [ 113.15378571, -7.97269344 ], [ 113.15384674, -7.97282028 ], [ 113.15377808, -7.97293234 ], [ 113.15362549, -7.97300863 ], [ 113.15328217, -7.97312641 ], [ 113.15319824, -7.97323084 ], [ 113.15319824, -7.97345257 ], [ 113.15325165, -7.97367716 ], [ 113.15335846, -7.97407532 ], [ 113.15325165, -7.97417402 ], [ 113.15307617, -7.97422838 ], [ 113.15287018, -7.9742713 ], [ 113.15264893, -7.97431755 ], [ 113.15255737, -7.97443533 ], [ 113.15254974, -7.97454882 ], [ 113.15260315, -7.97474289 ], [ 113.15274811, -7.9751935 ], [ 113.15268707, -7.97536421 ], [ 113.15249634, -7.97553682 ], [ 113.15226746, -7.97574759 ], [ 113.15219116, -7.97592258 ], [ 113.15219116, -7.97611523 ], [ 113.15218353, -7.97644901 ], [ 113.15210724, -7.97665882 ], [ 113.15196991, -7.9767828 ], [ 113.15172577, -7.97689772 ], [ 113.15145111, -7.97705317 ], [ 113.15126801, -7.97722006 ], [ 113.15116119, -7.97741127 ], [ 113.15112305, -7.97764111 ], [ 113.15110016, -7.97787142 ], [ 113.15107727, -7.97804642 ], [ 113.15097809, -7.97818804 ], [ 113.15080261, -7.97830534 ], [ 113.14997101, -7.97881365 ], [ 113.14975739, -7.97893572 ], [ 113.14965057, -7.9790926 ], [ 113.14958954, -7.97931814 ], [ 113.14957428, -7.97951984 ], [ 113.1495285, -7.97978592 ], [ 113.14942932, -7.97987604 ], [ 113.14926147, -7.97992373 ], [ 113.14912415, -7.97988319 ], [ 113.14889526, -7.97973824 ], [ 113.14858246, -7.97951031 ], [ 113.14816284, -7.97924232 ], [ 113.14802551, -7.97925758 ], [ 113.14792633, -7.97934294 ], [ 113.14775848, -7.97947311 ], [ 113.14763641, -7.97949076 ], [ 113.14751434, -7.97942305 ], [ 113.14741516, -7.9792757 ], [ 113.14723969, -7.97902203 ], [ 113.14698029, -7.97875118 ], [ 113.14678955, -7.97872639 ], [ 113.14650726, -7.97875595 ], [ 113.14629364, -7.97887993 ], [ 113.14595032, -7.9790287 ], [ 113.14585114, -7.97903395 ], [ 113.14570618, -7.9790411 ], [ 113.1451416, -7.97892046 ], [ 113.14476776, -7.97868013 ], [ 113.14458466, -7.97863293 ], [ 113.14444733, -7.9786706 ], [ 113.14434814, -7.97876644 ], [ 113.14418793, -7.97888279 ], [ 113.14408112, -7.97885227 ], [ 113.14393616, -7.97874022 ], [ 113.14376831, -7.97865438 ], [ 113.14350891, -7.9786396 ], [ 113.14300537, -7.97859764 ], [ 113.14269257, -7.97857714 ], [ 113.14219666, -7.97863722 ], [ 113.14193726, -7.97858286 ], [ 113.14163208, -7.97843552 ], [ 113.14131165, -7.97833347 ], [ 113.14105988, -7.97830582 ], [ 113.14085388, -7.97834253 ], [ 113.14066315, -7.97835636 ], [ 113.14053345, -7.97830439 ], [ 113.14044189, -7.97817802 ], [ 113.14025116, -7.97793674 ], [ 113.13993835, -7.97767973 ], [ 113.13955688, -7.9774394 ], [ 113.13949585, -7.97730446 ], [ 113.13947296, -7.97710752 ], [ 113.13941956, -7.97673321 ], [ 113.139328, -7.97660208 ], [ 113.13917542, -7.97654581 ], [ 113.13898468, -7.97655296 ], [ 113.1385498, -7.97657394 ], [ 113.13839722, -7.97644424 ], [ 113.13824463, -7.97633219 ], [ 113.1381073, -7.97635412 ], [ 113.13755035, -7.97650242 ], [ 113.13715363, -7.97647238 ], [ 113.13690186, -7.97653246 ], [ 113.1366806, -7.97657204 ], [ 113.13648224, -7.97652769 ], [ 113.13623047, -7.97650862 ], [ 113.1360321, -7.97655678 ], [ 113.13591766, -7.9766655 ], [ 113.13564301, -7.97693586 ], [ 113.13542938, -7.97707605 ], [ 113.13533783, -7.97724771 ], [ 113.13516998, -7.97752905 ], [ 113.13500977, -7.9776516 ], [ 113.13478088, -7.97774029 ], [ 113.13455963, -7.97776175 ], [ 113.13392639, -7.97813702 ], [ 113.13356018, -7.97845411 ], [ 113.13320923, -7.97874641 ], [ 113.1330719, -7.97886419 ], [ 113.13249207, -7.97934914 ], [ 113.13205719, -7.97973156 ], [ 113.13158417, -7.98012209 ], [ 113.13144684, -7.9802351 ], [ 113.13088226, -7.98068047 ], [ 113.13036346, -7.9811039 ], [ 113.13020325, -7.9812336 ], [ 113.12954712, -7.98176527 ], [ 113.12890625, -7.9823246 ], [ 113.12850189, -7.9826231 ], [ 113.12795258, -7.98296881 ], [ 113.12748718, -7.98327732 ], [ 113.12695313, -7.98362303 ], [ 113.12661743, -7.98380995 ], [ 113.12611389, -7.98398876 ], [ 113.12575531, -7.98415613 ], [ 113.12558746, -7.98423243 ], [ 113.12525177, -7.98449373 ], [ 113.125, -7.98476028 ], [ 113.12465668, -7.98467207 ], [ 113.12446594, -7.98466539 ], [ 113.1242218, -7.98482037 ], [ 113.12400818, -7.98512125 ], [ 113.12381744, -7.985425 ], [ 113.12358093, -7.98588228 ], [ 113.12340546, -7.9861331 ], [ 113.12330627, -7.98625898 ], [ 113.12265778, -7.98708534 ], [ 113.1223526, -7.98760843 ], [ 113.12223053, -7.98852253 ], [ 113.12214661, -7.9889307 ], [ 113.12198639, -7.98927546 ], [ 113.1219101, -7.9893837 ], [ 113.1215744, -7.98974657 ], [ 113.12148285, -7.98986101 ], [ 113.12123871, -7.99017143 ], [ 113.12068939, -7.99036884 ], [ 113.12000275, -7.99042749 ], [ 113.11941528, -7.99036503 ], [ 113.11856079, -7.99036074 ], [ 113.11798859, -7.99052858 ], [ 113.11790466, -7.9906292 ], [ 113.11776733, -7.99068117 ], [ 113.11756134, -7.99079323 ], [ 113.11719513, -7.99098873 ], [ 113.11701202, -7.99100351 ], [ 113.11680603, -7.99094963 ], [ 113.11653137, -7.99089003 ], [ 113.11631775, -7.99094915 ], [ 113.11616516, -7.99109507 ], [ 113.11608124, -7.99125671 ], [ 113.11594391, -7.99150324 ], [ 113.11580658, -7.99159002 ], [ 113.11552429, -7.9916811 ], [ 113.11528778, -7.99167252 ], [ 113.11508942, -7.99169683 ], [ 113.11472321, -7.9917345 ], [ 113.11461639, -7.99164867 ], [ 113.11452484, -7.9914813 ], [ 113.11449432, -7.99129105 ], [ 113.11444855, -7.99097443 ], [ 113.11430359, -7.99068403 ], [ 113.11416626, -7.99059916 ], [ 113.11367798, -7.99031258 ], [ 113.11336517, -7.98997211 ], [ 113.11325836, -7.98975182 ], [ 113.11325073, -7.98957968 ], [ 113.11331177, -7.98934078 ], [ 113.11336517, -7.98904705 ], [ 113.11334991, -7.98876619 ], [ 113.11325836, -7.98856115 ], [ 113.11309814, -7.98833513 ], [ 113.11293793, -7.9882412 ], [ 113.11273956, -7.98818254 ], [ 113.11222839, -7.9880352 ], [ 113.11215973, -7.98789978 ], [ 113.11205292, -7.98770285 ], [ 113.11188507, -7.98758554 ], [ 113.11146545, -7.98764086 ], [ 113.11138153, -7.98757267 ], [ 113.11118317, -7.98739719 ], [ 113.11105347, -7.98742628 ], [ 113.11025238, -7.98697138 ], [ 113.10951996, -7.98639154 ], [ 113.10861969, -7.98544979 ], [ 113.10803223, -7.9848218 ], [ 113.10726166, -7.98385143 ], [ 113.10652924, -7.98295021 ], [ 113.10639954, -7.98281384 ], [ 113.10601044, -7.98239899 ], [ 113.10552979, -7.9819169 ], [ 113.1049881, -7.98138666 ], [ 113.10449982, -7.98106766 ], [ 113.1040802, -7.98088312 ], [ 113.10372925, -7.98089838 ], [ 113.10317993, -7.98088789 ], [ 113.10256195, -7.98090267 ], [ 113.10166931, -7.9809804 ], [ 113.10049438, -7.9811101 ], [ 113.09953308, -7.98125172 ], [ 113.09842682, -7.98132992 ], [ 113.09745789, -7.98137236 ], [ 113.09634399, -7.98149395 ], [ 113.09527588, -7.98164558 ], [ 113.09461975, -7.98171616 ], [ 113.09445953, -7.98173285 ], [ 113.09352875, -7.98181772 ], [ 113.09156036, -7.98162985 ], [ 113.09014893, -7.98171806 ], [ 113.08911896, -7.98163176 ], [ 113.08824158, -7.98148298 ], [ 113.08761597, -7.98109293 ], [ 113.08732605, -7.98095512 ], [ 113.0871582, -7.98090219 ], [ 113.08673096, -7.98081541 ], [ 113.08641052, -7.98079109 ], [ 113.08598328, -7.9807229 ], [ 113.08583832, -7.9806962 ], [ 113.08539581, -7.98059988 ], [ 113.08514404, -7.98056269 ], [ 113.08496094, -7.98062897 ], [ 113.08479309, -7.98071575 ], [ 113.08468628, -7.98077059 ], [ 113.08394623, -7.98088455 ], [ 113.08360291, -7.98089123 ], [ 113.08335876, -7.98084688 ], [ 113.08188629, -7.98101759 ], [ 113.08096313, -7.98109627 ], [ 113.07985687, -7.98121786 ], [ 113.07868195, -7.9812417 ], [ 113.07756805, -7.98113966 ], [ 113.07649994, -7.98111057 ], [ 113.07294464, -7.98138905 ], [ 113.07155609, -7.98146296 ], [ 113.0705719, -7.98156595 ], [ 113.06972504, -7.9818306 ], [ 113.06916046, -7.98207235 ], [ 113.06852722, -7.98234653 ], [ 113.06773376, -7.98273182 ], [ 113.06715393, -7.98309755 ], [ 113.06658173, -7.98353195 ], [ 113.06596375, -7.98398018 ], [ 113.06523895, -7.98454952 ], [ 113.06465912, -7.98514557 ], [ 113.06417084, -7.98575783 ], [ 113.06378937, -7.98624754 ], [ 113.06342316, -7.9867816 ], [ 113.06312561, -7.98742914 ], [ 113.06301117, -7.98773241 ], [ 113.06277466, -7.98893929 ], [ 113.06276703, -7.99003935 ], [ 113.06282806, -7.99069643 ], [ 113.0628891, -7.99132252 ], [ 113.06308746, -7.99208069 ], [ 113.0630722, -7.99221277 ], [ 113.06300354, -7.9925766 ], [ 113.06296539, -7.99281549 ], [ 113.0630188, -7.99308062 ], [ 113.06343079, -7.9936738 ], [ 113.06357574, -7.9938817 ], [ 113.06364441, -7.99408197 ], [ 113.06365204, -7.99433231 ], [ 113.06339264, -7.99511957 ], [ 113.06330109, -7.99542236 ], [ 113.06329346, -7.99586296 ], [ 113.06336212, -7.99608898 ], [ 113.06372833, -7.99634218 ], [ 113.06395721, -7.9967289 ], [ 113.06411743, -7.99701786 ], [ 113.06428528, -7.9973774 ], [ 113.06438446, -7.997715 ], [ 113.06438446, -7.99802685 ], [ 113.06433868, -7.99829483 ], [ 113.06417084, -7.99868202 ], [ 113.06394958, -7.99918079 ], [ 113.06393433, -7.99927235 ], [ 113.06375885, -7.99992514 ], [ 113.06373596, -8.00000095 ], [ 113.06361389, -8.00037098 ], [ 113.06351471, -8.00085068 ], [ 113.06342316, -8.00093555 ], [ 113.06334686, -8.00099754 ], [ 113.06345367, -8.00137329 ], [ 113.06332397, -8.0018301 ], [ 113.06319427, -8.00216007 ], [ 113.06299591, -8.00256634 ], [ 113.06257629, -8.00330544 ], [ 113.06215668, -8.00383949 ], [ 113.06154633, -8.00457954 ], [ 113.06113434, -8.0051136 ], [ 113.06080627, -8.00571918 ], [ 113.06063843, -8.00621605 ], [ 113.06044769, -8.00671959 ], [ 113.0604248, -8.00705528 ], [ 113.06033325, -8.00746918 ], [ 113.06017303, -8.00783253 ], [ 113.05989075, -8.00838566 ], [ 113.05979919, -8.00864029 ], [ 113.05957031, -8.00904751 ], [ 113.05924988, -8.0095768 ], [ 113.05873108, -8.01009369 ], [ 113.0582428, -8.01039982 ], [ 113.05784607, -8.0104847 ], [ 113.05727386, -8.0105114 ], [ 113.05670929, -8.01045418 ], [ 113.05625916, -8.01033497 ], [ 113.05590057, -8.01016808 ], [ 113.05535889, -8.00981998 ], [ 113.05511475, -8.00970078 ], [ 113.05458069, -8.0096302 ], [ 113.05438232, -8.00974274 ], [ 113.05431366, -8.00957489 ], [ 113.05397797, -8.00936508 ], [ 113.05384064, -8.00926304 ], [ 113.05376434, -8.00916004 ], [ 113.05361938, -8.0087986 ], [ 113.05348969, -8.00852585 ], [ 113.05327606, -8.00828838 ], [ 113.0531311, -8.00818634 ], [ 113.05295563, -8.00817585 ], [ 113.05284119, -8.0081768 ], [ 113.05272675, -8.00810719 ], [ 113.05261993, -8.00787926 ], [ 113.05254364, -8.00772762 ], [ 113.05236053, -8.00759029 ], [ 113.05220795, -8.00742817 ], [ 113.05212402, -8.00733757 ], [ 113.05194855, -8.00722599 ], [ 113.05181885, -8.00710297 ], [ 113.05170441, -8.00677586 ], [ 113.05164337, -8.00657845 ], [ 113.05152893, -8.00641823 ], [ 113.05138397, -8.00631428 ], [ 113.05113983, -8.00620365 ], [ 113.05097198, -8.00605965 ], [ 113.05083466, -8.00574207 ], [ 113.05081177, -8.00566387 ], [ 113.0506897, -8.00545692 ], [ 113.05059814, -8.00527287 ], [ 113.05058289, -8.00504208 ], [ 113.05062103, -8.00481796 ], [ 113.0507431, -8.00436497 ], [ 113.05078125, -8.00405121 ], [ 113.0507431, -8.00383377 ], [ 113.05045319, -8.00352764 ], [ 113.05036926, -8.00342083 ], [ 113.05033875, -8.00328541 ], [ 113.05038452, -8.00297165 ], [ 113.05038452, -8.00288677 ], [ 113.05036163, -8.0027771 ], [ 113.05005646, -8.0022974 ], [ 113.04985046, -8.00191402 ], [ 113.04974365, -8.00168514 ], [ 113.04950714, -8.00143051 ], [ 113.04916382, -8.00123024 ], [ 113.04904938, -8.00115108 ], [ 113.04903412, -8.00076962 ], [ 113.04901123, -8.00052738 ], [ 113.04896545, -8.00043774 ], [ 113.04881287, -8.00028324 ], [ 113.0485611, -8.0001812 ], [ 113.04843903, -8.00012875 ], [ 113.04836273, -7.99999952 ], [ 113.04834747, -7.99992371 ], [ 113.04834747, -7.99979925 ], [ 113.04844666, -7.99949408 ], [ 113.04846954, -7.99930429 ], [ 113.04842377, -7.9991765 ], [ 113.04803467, -7.99897957 ], [ 113.04787445, -7.99890232 ], [ 113.04747772, -7.99851751 ], [ 113.04682922, -7.99811649 ], [ 113.04667664, -7.99801493 ], [ 113.04656219, -7.99782515 ], [ 113.04654694, -7.99774599 ], [ 113.04634857, -7.99725723 ], [ 113.04624939, -7.99708796 ], [ 113.04547882, -7.99560404 ], [ 113.04511261, -7.99490547 ], [ 113.04496765, -7.99478531 ], [ 113.0446701, -7.99451733 ], [ 113.04450989, -7.99430799 ], [ 113.04443359, -7.99410057 ], [ 113.04441833, -7.99393511 ], [ 113.04446411, -7.99309015 ], [ 113.04458618, -7.99301004 ], [ 113.04476929, -7.99287176 ], [ 113.04485321, -7.99272108 ], [ 113.04484558, -7.99259996 ], [ 113.04473877, -7.99244118 ], [ 113.0443573, -7.9919138 ], [ 113.04430389, -7.99165297 ], [ 113.04426575, -7.99143076 ], [ 113.04415894, -7.99129772 ], [ 113.0439682, -7.99117899 ], [ 113.04364777, -7.99103928 ], [ 113.04361725, -7.99093294 ], [ 113.04367828, -7.99084759 ], [ 113.04376221, -7.99073982 ], [ 113.04370117, -7.99065208 ], [ 113.0435257, -7.99041128 ], [ 113.04357147, -7.99032879 ], [ 113.04366302, -7.99014902 ], [ 113.04359436, -7.99009037 ], [ 113.0434494, -7.98997402 ], [ 113.04330444, -7.98974514 ], [ 113.04322815, -7.98959684 ], [ 113.04309845, -7.98954058 ], [ 113.04302979, -7.98950815 ], [ 113.04283142, -7.98941994 ], [ 113.04277039, -7.98927975 ], [ 113.04264069, -7.98894978 ], [ 113.04255676, -7.98864174 ], [ 113.04249573, -7.98850012 ], [ 113.04238129, -7.98839712 ], [ 113.04224396, -7.98837376 ], [ 113.04205322, -7.98843288 ], [ 113.04184723, -7.98846626 ], [ 113.04174042, -7.98842096 ], [ 113.04169464, -7.98830652 ], [ 113.04163361, -7.98796654 ], [ 113.04151917, -7.98788834 ], [ 113.04114532, -7.98768997 ], [ 113.04107666, -7.98757362 ], [ 113.04106903, -7.9874382 ], [ 113.04103851, -7.98706579 ], [ 113.04090881, -7.98694944 ], [ 113.04075623, -7.98690605 ], [ 113.04065704, -7.98685312 ], [ 113.04058838, -7.98671961 ], [ 113.04038239, -7.98630095 ], [ 113.04006195, -7.98574162 ], [ 113.04000854, -7.98553801 ], [ 113.03978729, -7.98530245 ], [ 113.03967285, -7.98532724 ], [ 113.03953552, -7.98531723 ], [ 113.03939819, -7.98521805 ], [ 113.0393219, -7.985075 ], [ 113.03924561, -7.98492241 ], [ 113.03905487, -7.98483276 ], [ 113.03872681, -7.98465538 ], [ 113.0386734, -7.98454428 ], [ 113.0384903, -7.98396778 ], [ 113.03840637, -7.98379946 ], [ 113.03832245, -7.98364353 ], [ 113.03813934, -7.98353434 ], [ 113.0379715, -7.98330545 ], [ 113.03769684, -7.98291111 ], [ 113.0375061, -7.9827919 ], [ 113.03730011, -7.98264599 ], [ 113.03662109, -7.9820056 ], [ 113.03649139, -7.9818821 ], [ 113.03616333, -7.98123407 ], [ 113.03618622, -7.98110533 ], [ 113.03622437, -7.98082256 ], [ 113.03614807, -7.98066902 ], [ 113.03592682, -7.98045874 ], [ 113.03549194, -7.98011255 ], [ 113.03507233, -7.97979069 ], [ 113.03498077, -7.97974205 ], [ 113.0344696, -7.9796443 ], [ 113.03431702, -7.979568 ], [ 113.03383636, -7.97933245 ], [ 113.03361511, -7.9792285 ], [ 113.0333252, -7.979105 ], [ 113.03308868, -7.9789834 ], [ 113.03295135, -7.97887278 ], [ 113.03279877, -7.97882652 ], [ 113.0326767, -7.97884703 ], [ 113.03259277, -7.97892427 ], [ 113.03247833, -7.97922897 ], [ 113.032341, -7.97925854 ], [ 113.03190613, -7.97925425 ], [ 113.0318222, -7.97925329 ], [ 113.03179169, -7.97915745 ], [ 113.03182983, -7.97907114 ], [ 113.03211212, -7.97876215 ], [ 113.03204346, -7.97865438 ], [ 113.03176117, -7.97828436 ], [ 113.03157043, -7.97784519 ], [ 113.0313797, -7.97761965 ], [ 113.03121185, -7.97751379 ], [ 113.03091431, -7.97739887 ], [ 113.03084564, -7.97725201 ], [ 113.0307312, -7.97710752 ], [ 113.03050995, -7.97695589 ], [ 113.03031158, -7.97677231 ], [ 113.03013611, -7.97666979 ], [ 113.02989197, -7.97654295 ], [ 113.02975464, -7.97638941 ], [ 113.02954865, -7.97615242 ], [ 113.02912903, -7.97598171 ], [ 113.02895355, -7.9758625 ], [ 113.02854156, -7.97548342 ], [ 113.02853394, -7.97531605 ], [ 113.02848816, -7.97513103 ], [ 113.02836609, -7.97498035 ], [ 113.02818298, -7.97474623 ], [ 113.02790833, -7.97429657 ], [ 113.02765656, -7.97395182 ], [ 113.02759552, -7.97377443 ], [ 113.0275116, -7.97376394 ], [ 113.0273819, -7.97373772 ], [ 113.02710724, -7.97359657 ], [ 113.02698517, -7.97365952 ], [ 113.02672577, -7.97377205 ], [ 113.02661896, -7.97372246 ], [ 113.02626038, -7.97347403 ], [ 113.02598572, -7.97342205 ], [ 113.02578735, -7.97329664 ], [ 113.02570343, -7.9731617 ], [ 113.02568054, -7.97301579 ], [ 113.02567291, -7.97270727 ], [ 113.0255661, -7.97262239 ], [ 113.02541351, -7.97258854 ], [ 113.02529144, -7.97252989 ], [ 113.02520752, -7.97239304 ], [ 113.02516174, -7.97222137 ], [ 113.02511597, -7.9720726 ], [ 113.02500153, -7.97181702 ], [ 113.0249176, -7.97165155 ], [ 113.02471161, -7.97146749 ], [ 113.0243454, -7.97122526 ], [ 113.02412415, -7.97107506 ], [ 113.02394104, -7.97090101 ], [ 113.02370453, -7.97058725 ], [ 113.02372742, -7.97049046 ], [ 113.02374268, -7.97031832 ], [ 113.02365112, -7.97023344 ], [ 113.02349854, -7.97019577 ], [ 113.02332306, -7.97022486 ], [ 113.02308655, -7.97026777 ], [ 113.0228653, -7.97014284 ], [ 113.02275848, -7.97001123 ], [ 113.02274323, -7.96964169 ], [ 113.02262878, -7.96951866 ], [ 113.0223465, -7.96930504 ], [ 113.02212524, -7.96919298 ], [ 113.02200317, -7.96920729 ], [ 113.02177429, -7.96925259 ], [ 113.02124786, -7.96915913 ], [ 113.02088928, -7.96898413 ], [ 113.02071381, -7.96884251 ], [ 113.02056122, -7.96885014 ], [ 113.02026367, -7.96885824 ], [ 113.0197525, -7.96870232 ], [ 113.01967621, -7.96867847 ], [ 113.01942444, -7.96858501 ], [ 113.01926422, -7.968606 ], [ 113.01902008, -7.96871424 ], [ 113.0189209, -7.96885872 ], [ 113.01876068, -7.96903896 ], [ 113.01860809, -7.96908951 ], [ 113.01847076, -7.96906662 ], [ 113.01822662, -7.96894979 ], [ 113.01800537, -7.96886539 ], [ 113.01779175, -7.96888304 ], [ 113.01764679, -7.96889544 ], [ 113.01740265, -7.968853 ], [ 113.01731873, -7.96889448 ], [ 113.01720428, -7.96890926 ], [ 113.01703644, -7.96886015 ], [ 113.01683044, -7.96894646 ], [ 113.01655579, -7.96893358 ], [ 113.0161438, -7.96905804 ], [ 113.01591492, -7.96910715 ], [ 113.01555634, -7.96915627 ], [ 113.01531219, -7.96907139 ], [ 113.0150528, -7.96892691 ], [ 113.01494598, -7.96894264 ], [ 113.01462555, -7.96902895 ], [ 113.01447296, -7.96895742 ], [ 113.01436615, -7.96882915 ], [ 113.01411438, -7.96843863 ], [ 113.01376343, -7.96805382 ], [ 113.01337433, -7.96754122 ], [ 113.01314545, -7.96737671 ], [ 113.01289368, -7.96726465 ], [ 113.01269531, -7.96718645 ], [ 113.01261902, -7.96716547 ], [ 113.01237488, -7.9670558 ], [ 113.01211548, -7.96688604 ], [ 113.0120163, -7.96681929 ], [ 113.01161957, -7.96655273 ], [ 113.01148987, -7.96649742 ], [ 113.0112381, -7.96627474 ], [ 113.01062775, -7.96567535 ], [ 113.01042938, -7.96531773 ], [ 113.01011658, -7.96464825 ], [ 113.009758, -7.96421814 ], [ 113.00950623, -7.96390724 ], [ 113.00935364, -7.96376419 ], [ 113.00915527, -7.96367788 ], [ 113.00896454, -7.96369123 ], [ 113.00878906, -7.96376753 ], [ 113.00855255, -7.96389294 ], [ 113.00842285, -7.96392345 ], [ 113.00827789, -7.96390963 ], [ 113.00807953, -7.96378517 ], [ 113.00787354, -7.96368933 ], [ 113.00760651, -7.96366644 ], [ 113.00741577, -7.96372843 ], [ 113.00727844, -7.96383953 ], [ 113.00710297, -7.96392775 ], [ 113.0069046, -7.96394873 ], [ 113.00656891, -7.9639287 ], [ 113.00640106, -7.96396732 ], [ 113.00626373, -7.96398163 ], [ 113.00605011, -7.96391058 ], [ 113.00576782, -7.96374702 ], [ 113.00565338, -7.96367788 ], [ 113.0052948, -7.96350527 ], [ 113.00502014, -7.96345758 ], [ 113.00476074, -7.9635067 ], [ 113.0044632, -7.96355152 ], [ 113.00405884, -7.96357012 ], [ 113.00376892, -7.96351051 ], [ 113.00366211, -7.96349573 ], [ 113.00358582, -7.96347809 ], [ 113.00347137, -7.96343899 ], [ 113.00328827, -7.96340322 ], [ 113.00300598, -7.96334743 ], [ 113.00292969, -7.96331263 ], [ 113.00263214, -7.96335936 ], [ 113.00225067, -7.96336317 ], [ 113.00203705, -7.96334171 ], [ 113.00196075, -7.96345425 ], [ 113.00198364, -7.96365356 ], [ 113.00091553, -7.9633441 ], [ 113.00067139, -7.96331501 ], [ 113.00031281, -7.96329117 ], [ 112.99998474, -7.96323681 ], [ 112.99985504, -7.96318865 ], [ 112.99958038, -7.96308899 ], [ 112.99930573, -7.96297026 ], [ 112.99881744, -7.96273756 ], [ 112.99843597, -7.96255779 ], [ 112.99808502, -7.96238565 ], [ 112.99781036, -7.96229172 ], [ 112.99764252, -7.96225262 ], [ 112.99724579, -7.96221066 ], [ 112.99706268, -7.96222496 ], [ 112.9966507, -7.9621892 ], [ 112.99653625, -7.96218204 ], [ 112.99625397, -7.96214247 ], [ 112.99600983, -7.96206284 ], [ 112.99589539, -7.96200657 ], [ 112.9957962, -7.96179438 ], [ 112.99562073, -7.96166563 ], [ 112.99533844, -7.96151209 ], [ 112.99488068, -7.96132803 ], [ 112.99459839, -7.96118402 ], [ 112.99436951, -7.96097279 ], [ 112.99404907, -7.96057987 ], [ 112.994133, -7.96041012 ], [ 112.99427032, -7.9602499 ], [ 112.99456787, -7.96005011 ], [ 112.99479675, -7.95994997 ], [ 112.99495697, -7.95990992 ], [ 112.99504089, -7.95981979 ], [ 112.99510193, -7.95968008 ], [ 112.99513245, -7.95958996 ], [ 112.99524689, -7.95955992 ], [ 112.99542999, -7.9595499 ], [ 112.99552917, -7.95947981 ], [ 112.99565887, -7.95925999 ], [ 112.99568176, -7.9589901 ], [ 112.9956131, -7.95873022 ], [ 112.99542236, -7.95844984 ], [ 112.99530029, -7.9582901 ], [ 112.99520111, -7.9580102 ], [ 112.99488068, -7.95758009 ], [ 112.99491119, -7.95735979 ], [ 112.99491882, -7.95705986 ], [ 112.99495697, -7.95695019 ], [ 112.99514771, -7.95647001 ], [ 112.99537659, -7.95588017 ], [ 112.99552917, -7.95553017 ], [ 112.9956131, -7.9552598 ], [ 112.99562073, -7.95492983 ], [ 112.99552155, -7.95441008 ], [ 112.9954834, -7.95425987 ], [ 112.9954071, -7.95405006 ], [ 112.99524689, -7.95374012 ], [ 112.99501038, -7.95312023 ], [ 112.99491119, -7.95277023 ], [ 112.99485016, -7.95220995 ], [ 112.99487305, -7.9519701 ], [ 112.99497223, -7.95190001 ], [ 112.99568939, -7.95140982 ], [ 112.99578857, -7.95126009 ], [ 112.99582672, -7.9510498 ], [ 112.9957962, -7.95087004 ], [ 112.99564362, -7.95051003 ], [ 112.99545288, -7.95018005 ], [ 112.99529266, -7.94961023 ], [ 112.99529266, -7.94940996 ], [ 112.99536133, -7.94932985 ], [ 112.99565125, -7.94924021 ], [ 112.99604034, -7.9491601 ], [ 112.99649048, -7.94905996 ], [ 112.99703217, -7.94886017 ], [ 112.99794769, -7.9488101 ], [ 112.99816895, -7.94880009 ], [ 112.99868011, -7.94872999 ], [ 112.99904633, -7.94869995 ], [ 112.99920654, -7.94868994 ], [ 112.99938202, -7.94864988 ], [ 112.99968719, -7.9485898 ], [ 113.0, -7.94857979 ], [ 113.00028992, -7.94856024 ], [ 113.00060272, -7.94854021 ], [ 113.00150299, -7.94845009 ], [ 113.00211334, -7.94831991 ], [ 113.00253296, -7.94817019 ], [ 113.00273895, -7.94782019 ], [ 113.00287628, -7.94742012 ], [ 113.00289917, -7.94715977 ], [ 113.00298309, -7.94703007 ], [ 113.00312805, -7.94684982 ], [ 113.00325012, -7.94671011 ], [ 113.00338745, -7.94656992 ], [ 113.00431824, -7.9463501 ], [ 113.00538635, -7.94617987 ], [ 113.00634766, -7.94614983 ], [ 113.00660706, -7.94614983 ], [ 113.00678253, -7.94614983 ], [ 113.0071106, -7.94616985 ], [ 113.00746155, -7.94622993 ], [ 113.00772095, -7.94623995 ], [ 113.00801086, -7.94615984 ], [ 113.0083313, -7.94594002 ], [ 113.00856781, -7.9457798 ], [ 113.00875092, -7.94570017 ], [ 113.00894165, -7.94568014 ], [ 113.00946808, -7.94575024 ], [ 113.00991821, -7.94583988 ], [ 113.01027679, -7.94587994 ], [ 113.01062012, -7.94578981 ], [ 113.01078796, -7.94575977 ], [ 113.01113892, -7.94585991 ], [ 113.01135254, -7.94593 ], [ 113.01171112, -7.94581985 ], [ 113.01191711, -7.94575024 ], [ 113.01239014, -7.9457798 ], [ 113.01291656, -7.94588995 ], [ 113.01328278, -7.9460001 ], [ 113.01348877, -7.94606018 ], [ 113.01394653, -7.94618988 ], [ 113.01431274, -7.94620991 ], [ 113.0145874, -7.94617987 ], [ 113.0149765, -7.94594002 ], [ 113.01519012, -7.94581985 ], [ 113.01574707, -7.9457202 ], [ 113.01624298, -7.94574022 ], [ 113.01654816, -7.94573021 ], [ 113.016922, -7.94567013 ], [ 113.01721191, -7.94555998 ], [ 113.01751709, -7.94531012 ], [ 113.01763916, -7.94520998 ], [ 113.01785278, -7.94516993 ], [ 113.0181427, -7.94517994 ], [ 113.01844025, -7.94504976 ], [ 113.0187912, -7.94489002 ], [ 113.01908875, -7.94478989 ], [ 113.01937866, -7.94469023 ], [ 113.01972961, -7.94459009 ], [ 113.0200119, -7.94446993 ], [ 113.02010345, -7.94441986 ], [ 113.02059174, -7.94430017 ], [ 113.02114868, -7.94418001 ], [ 113.02194214, -7.94396019 ], [ 113.02217865, -7.94383001 ], [ 113.02236938, -7.94363022 ], [ 113.0226593, -7.94327021 ], [ 113.02284241, -7.94312 ], [ 113.02311707, -7.94301987 ], [ 113.02332306, -7.94295979 ], [ 113.02352142, -7.94279003 ], [ 113.02372742, -7.94257021 ], [ 113.02397156, -7.94240999 ], [ 113.02436829, -7.94238997 ], [ 113.02455139, -7.94234991 ], [ 113.02475739, -7.94225979 ], [ 113.02490234, -7.94224977 ], [ 113.02506256, -7.94228983 ], [ 113.02529144, -7.94222021 ], [ 113.0256424, -7.94194984 ], [ 113.02612305, -7.9416399 ], [ 113.02639771, -7.94147015 ], [ 113.02655029, -7.94133997 ], [ 113.02697754, -7.94091988 ], [ 113.02736664, -7.94057989 ], [ 113.02758026, -7.94044018 ], [ 113.02780914, -7.94040012 ], [ 113.02796936, -7.9403801 ], [ 113.02845001, -7.94009018 ], [ 113.0287323, -7.93999004 ], [ 113.02896881, -7.93992996 ], [ 113.02918243, -7.93978977 ], [ 113.02931976, -7.9396801 ], [ 113.02977753, -7.93957996 ], [ 113.03005219, -7.93946981 ], [ 113.03041077, -7.93930006 ], [ 113.03056335, -7.93918991 ], [ 113.03067017, -7.93900013 ], [ 113.03073883, -7.93885994 ], [ 113.03089142, -7.93874979 ], [ 113.03111267, -7.93869019 ], [ 113.03157043, -7.93878984 ], [ 113.03164673, -7.93879747 ], [ 113.03186798, -7.93881989 ], [ 113.03220367, -7.9387598 ], [ 113.03238678, -7.93868017 ], [ 113.03249359, -7.93859005 ], [ 113.03253174, -7.93842983 ], [ 113.032547, -7.93814993 ], [ 113.0326004, -7.93801022 ], [ 113.03249359, -7.93796587 ], [ 113.03243256, -7.93779659 ], [ 113.03236389, -7.9375248 ], [ 113.032341, -7.93736982 ], [ 113.032341, -7.93725729 ], [ 113.03266144, -7.93698931 ], [ 113.03279114, -7.9365468 ], [ 113.0333252, -7.93607664 ], [ 113.03363037, -7.93571758 ], [ 113.03399658, -7.93545628 ], [ 113.03440857, -7.93503809 ], [ 113.03469086, -7.93477058 ], [ 113.03488922, -7.9345746 ], [ 113.03488159, -7.93435001 ], [ 113.03482819, -7.93423319 ], [ 113.03473663, -7.93395853 ], [ 113.03501129, -7.9336648 ], [ 113.03524017, -7.93332434 ], [ 113.03580475, -7.93278885 ], [ 113.03607178, -7.93291616 ], [ 113.03623962, -7.93283367 ], [ 113.03662872, -7.93261528 ], [ 113.0369873, -7.9325552 ], [ 113.03705597, -7.93251371 ], [ 113.03717041, -7.93252468 ], [ 113.03741455, -7.93232489 ], [ 113.03781128, -7.93211794 ], [ 113.03797913, -7.93195915 ], [ 113.03816223, -7.93198776 ], [ 113.03836823, -7.93202162 ], [ 113.03862, -7.93209076 ], [ 113.03883362, -7.93217754 ], [ 113.0389328, -7.93221188 ], [ 113.03919983, -7.932199 ], [ 113.03944397, -7.93223524 ], [ 113.03984833, -7.93222284 ], [ 113.04019165, -7.93241549 ], [ 113.04036713, -7.93265009 ], [ 113.04045868, -7.93300629 ], [ 113.04052734, -7.93342352 ], [ 113.04051208, -7.93355322 ], [ 113.04060364, -7.93366003 ], [ 113.04075623, -7.93382978 ], [ 113.0408783, -7.93387985 ], [ 113.04099274, -7.93390989 ], [ 113.04123688, -7.93422985 ], [ 113.04135895, -7.93438005 ], [ 113.04148865, -7.93443012 ], [ 113.04168701, -7.93440008 ], [ 113.04187775, -7.93429995 ], [ 113.04208374, -7.93416977 ], [ 113.04239655, -7.93414021 ], [ 113.0425415, -7.93413019 ], [ 113.04283905, -7.93394995 ], [ 113.04358673, -7.93364 ], [ 113.0439682, -7.93353987 ], [ 113.04450226, -7.93351984 ], [ 113.04466248, -7.93349981 ], [ 113.04488373, -7.93325996 ], [ 113.04517365, -7.93300009 ], [ 113.04534912, -7.9327898 ], [ 113.04554749, -7.93260002 ], [ 113.04566956, -7.93248987 ], [ 113.0457077, -7.93239021 ], [ 113.04559326, -7.9321599 ], [ 113.04554749, -7.93207979 ], [ 113.04560852, -7.93197012 ], [ 113.04579926, -7.93183994 ], [ 113.04605865, -7.93175983 ], [ 113.04624176, -7.93171978 ], [ 113.04637909, -7.93163013 ], [ 113.04647827, -7.93144989 ], [ 113.04650116, -7.93085003 ], [ 113.04651642, -7.9306798 ], [ 113.04662323, -7.93048 ], [ 113.04673767, -7.93035984 ], [ 113.04695129, -7.93029022 ], [ 113.04714966, -7.93025017 ], [ 113.04730225, -7.93011999 ], [ 113.0473938, -7.93006992 ], [ 113.04749298, -7.93001986 ], [ 113.04766846, -7.9299202 ], [ 113.04798889, -7.92973995 ], [ 113.04808807, -7.92966986 ], [ 113.04812622, -7.92958021 ], [ 113.04814911, -7.92943001 ], [ 113.04833984, -7.92913008 ], [ 113.04863739, -7.92893982 ], [ 113.04875946, -7.9288702 ], [ 113.04891205, -7.92866993 ], [ 113.0490799, -7.92854977 ], [ 113.04914856, -7.9285202 ], [ 113.04924774, -7.92854023 ], [ 113.04942322, -7.92854977 ], [ 113.04958344, -7.92847013 ], [ 113.05007172, -7.9282198 ], [ 113.05023193, -7.92815113 ], [ 113.05052948, -7.92802 ], [ 113.05072784, -7.92792988 ], [ 113.05091858, -7.92777014 ], [ 113.05101776, -7.92763996 ], [ 113.05124664, -7.92714024 ], [ 113.05129242, -7.92706251 ], [ 113.05136108, -7.92692995 ], [ 113.05145264, -7.92683983 ], [ 113.05168152, -7.92675924 ], [ 113.05193329, -7.92674017 ], [ 113.05207825, -7.9267602 ], [ 113.0521698, -7.92682981 ], [ 113.05220795, -7.92700005 ], [ 113.05220032, -7.92723989 ], [ 113.05236053, -7.92733002 ], [ 113.05297852, -7.92745972 ], [ 113.05310822, -7.9275198 ], [ 113.05432892, -7.92820978 ], [ 113.05465698, -7.92853022 ], [ 113.05513763, -7.92933989 ], [ 113.05561829, -7.93013 ], [ 113.0559082, -7.93099022 ], [ 113.05587769, -7.93190002 ], [ 113.05590057, -7.93289995 ], [ 113.05594635, -7.93396997 ], [ 113.05599976, -7.93497229 ], [ 113.05600739, -7.93513012 ], [ 113.05603027, -7.93563986 ], [ 113.05593872, -7.93660402 ], [ 113.05593109, -7.93672514 ], [ 113.05587769, -7.93724012 ], [ 113.0557785, -7.93849516 ], [ 113.05570221, -7.9394598 ], [ 113.05570984, -7.94053984 ], [ 113.05600739, -7.94150019 ], [ 113.05610657, -7.94262981 ], [ 113.05618286, -7.94341993 ], [ 113.0561676, -7.94367409 ], [ 113.05612946, -7.9443202 ], [ 113.05628967, -7.94496727 ], [ 113.05644989, -7.94562006 ], [ 113.05670166, -7.94526005 ], [ 113.05677032, -7.94516993 ], [ 113.05695343, -7.94515991 ], [ 113.05702972, -7.94516993 ], [ 113.05718994, -7.94497013 ], [ 113.05728912, -7.94483995 ], [ 113.05744171, -7.94474983 ], [ 113.05780029, -7.94492006 ], [ 113.05792236, -7.94496012 ], [ 113.05831146, -7.94481993 ], [ 113.05883789, -7.94462013 ], [ 113.05906677, -7.94450998 ], [ 113.05931091, -7.94430017 ], [ 113.05950928, -7.94376993 ], [ 113.05960083, -7.94359016 ], [ 113.05970764, -7.94344997 ], [ 113.05986023, -7.94340992 ], [ 113.06011963, -7.94344997 ], [ 113.06031799, -7.94351006 ], [ 113.06051636, -7.94349003 ], [ 113.06063843, -7.94341993 ], [ 113.06088257, -7.94310999 ], [ 113.0610199, -7.94294024 ], [ 113.06124115, -7.94281006 ], [ 113.06150818, -7.94282007 ], [ 113.06173706, -7.94281006 ], [ 113.06201935, -7.94266987 ], [ 113.06230164, -7.94264984 ], [ 113.06242371, -7.94262981 ], [ 113.06256866, -7.94237995 ], [ 113.06285858, -7.94204998 ], [ 113.06307983, -7.94171 ], [ 113.06317139, -7.94155979 ], [ 113.06390381, -7.94117022 ], [ 113.06417084, -7.94109011 ], [ 113.06446075, -7.94108009 ], [ 113.06471252, -7.94105005 ], [ 113.06523895, -7.94070005 ], [ 113.06562805, -7.94049978 ], [ 113.06597137, -7.94036007 ], [ 113.06611633, -7.94025993 ], [ 113.0662384, -7.94006014 ], [ 113.06626892, -7.93995237 ], [ 113.06632996, -7.93975019 ], [ 113.06639862, -7.93954992 ], [ 113.06646729, -7.93909979 ], [ 113.06655884, -7.93876982 ], [ 113.06659698, -7.93869019 ], [ 113.06694031, -7.93834543 ], [ 113.06710052, -7.93817997 ], [ 113.06726074, -7.93796015 ], [ 113.06729126, -7.93762016 ], [ 113.06730652, -7.93744993 ], [ 113.06739807, -7.93732023 ], [ 113.06773376, -7.93703985 ], [ 113.06799316, -7.93694019 ], [ 113.06812286, -7.93689013 ], [ 113.06822968, -7.93671989 ], [ 113.06858826, -7.93637991 ], [ 113.06884003, -7.93614006 ], [ 113.0689621, -7.93592978 ], [ 113.06900787, -7.93560982 ], [ 113.06902313, -7.93535995 ], [ 113.06906891, -7.93520021 ], [ 113.06918335, -7.93509007 ], [ 113.06941223, -7.93504 ], [ 113.06971741, -7.93504 ], [ 113.06993866, -7.93505001 ], [ 113.07006073, -7.93501997 ], [ 113.07015991, -7.93471003 ], [ 113.07023621, -7.9344101 ], [ 113.07037354, -7.93405008 ], [ 113.0704422, -7.9338398 ], [ 113.07083893, -7.93353987 ], [ 113.07144928, -7.93304014 ], [ 113.0717392, -7.93254995 ], [ 113.07196808, -7.93234015 ], [ 113.07227325, -7.93186998 ], [ 113.07232666, -7.93179131 ], [ 113.07241058, -7.9316802 ], [ 113.0725708, -7.93156004 ], [ 113.07296753, -7.93155003 ], [ 113.07337952, -7.9313798 ], [ 113.07350922, -7.93129015 ], [ 113.07360077, -7.9310298 ], [ 113.07357788, -7.93089676 ], [ 113.07350159, -7.93046999 ], [ 113.0734787, -7.93030977 ], [ 113.07351685, -7.93017006 ], [ 113.0736084, -7.93005991 ], [ 113.07392883, -7.93001986 ], [ 113.0743103, -7.92988014 ], [ 113.07445526, -7.9297328 ], [ 113.0746994, -7.92949009 ], [ 113.0750885, -7.9292202 ], [ 113.07530975, -7.92908001 ], [ 113.07544708, -7.92890978 ], [ 113.07554626, -7.92826986 ], [ 113.07584381, -7.92789984 ], [ 113.07617188, -7.92753983 ], [ 113.07637787, -7.92732 ], [ 113.0764389, -7.92719984 ], [ 113.07642365, -7.92705011 ], [ 113.07633209, -7.92691994 ], [ 113.07605743, -7.92668009 ], [ 113.07594299, -7.92654419 ], [ 113.07575226, -7.92632008 ], [ 113.07568359, -7.92616987 ], [ 113.07566071, -7.92594004 ], [ 113.07572174, -7.92560005 ], [ 113.07582092, -7.92530012 ], [ 113.07597351, -7.92504978 ], [ 113.07623291, -7.92484999 ], [ 113.07640839, -7.92469978 ], [ 113.0765686, -7.92457008 ], [ 113.07663727, -7.92443991 ], [ 113.07673645, -7.92414999 ], [ 113.07694244, -7.92387009 ], [ 113.07705688, -7.92374992 ], [ 113.07759857, -7.92315006 ], [ 113.07784271, -7.92250013 ], [ 113.07807159, -7.92202997 ], [ 113.07816315, -7.92178011 ], [ 113.07817078, -7.92162991 ], [ 113.07817078, -7.92152977 ], [ 113.07817078, -7.92140007 ], [ 113.07823181, -7.92115021 ], [ 113.07832336, -7.9208498 ], [ 113.07845306, -7.92054987 ], [ 113.0785675, -7.92035007 ], [ 113.07875061, -7.92004013 ], [ 113.07884216, -7.9198699 ], [ 113.07897186, -7.91963577 ], [ 113.07901764, -7.91947985 ], [ 113.07887268, -7.91903019 ], [ 113.0788269, -7.91886997 ], [ 113.07885742, -7.91870022 ], [ 113.07907104, -7.91850996 ], [ 113.07949066, -7.91836023 ], [ 113.07971191, -7.91828012 ], [ 113.07984161, -7.91816998 ], [ 113.07991028, -7.91801023 ], [ 113.07975769, -7.91743994 ], [ 113.07972717, -7.91730022 ], [ 113.07980347, -7.91715002 ], [ 113.07997894, -7.91697979 ], [ 113.08049774, -7.91723013 ], [ 113.08088684, -7.91739988 ], [ 113.08129883, -7.91757011 ], [ 113.08203125, -7.91790009 ], [ 113.08216095, -7.91797018 ], [ 113.08278656, -7.91831017 ], [ 113.08335876, -7.91870022 ], [ 113.08367157, -7.91890001 ], [ 113.08435822, -7.91934013 ], [ 113.0850296, -7.91981411 ], [ 113.08517456, -7.91991949 ], [ 113.08535767, -7.92005014 ], [ 113.08599091, -7.92053986 ], [ 113.08609772, -7.92061996 ], [ 113.08631897, -7.92081022 ], [ 113.08657837, -7.92104006 ], [ 113.08677673, -7.92120981 ], [ 113.08711243, -7.92152977 ], [ 113.0872879, -7.92171001 ], [ 113.08757019, -7.92193985 ], [ 113.08773804, -7.92217016 ], [ 113.08785248, -7.92244005 ], [ 113.08789063, -7.92257023 ], [ 113.08815765, -7.92292023 ], [ 113.08824921, -7.9230299 ], [ 113.08846283, -7.92319012 ], [ 113.08881378, -7.92320013 ], [ 113.08891296, -7.92315006 ], [ 113.08918762, -7.92300987 ], [ 113.08953857, -7.92282009 ], [ 113.08975983, -7.92269993 ], [ 113.09001923, -7.92254019 ], [ 113.09024811, -7.92244005 ], [ 113.09059143, -7.92217016 ], [ 113.09065247, -7.92213154 ], [ 113.09085846, -7.92199993 ], [ 113.09114838, -7.92188978 ], [ 113.09143066, -7.92168999 ], [ 113.09159088, -7.9215498 ], [ 113.09216309, -7.92145014 ], [ 113.09233856, -7.92141008 ], [ 113.09266663, -7.92124987 ], [ 113.09304047, -7.92109013 ], [ 113.09322357, -7.92122984 ], [ 113.09397888, -7.92164993 ], [ 113.09432983, -7.92209005 ], [ 113.09503174, -7.9226799 ], [ 113.09515381, -7.9229598 ], [ 113.09515381, -7.92312002 ], [ 113.09516144, -7.92333984 ], [ 113.09525299, -7.92348003 ], [ 113.0953598, -7.92363024 ], [ 113.09539032, -7.92369986 ], [ 113.09551239, -7.92364979 ], [ 113.09574127, -7.92364979 ], [ 113.09591675, -7.92369986 ], [ 113.09604645, -7.92374992 ], [ 113.09632111, -7.92363977 ], [ 113.09654999, -7.92355013 ], [ 113.09671783, -7.92343998 ], [ 113.09680939, -7.92331982 ], [ 113.0968399, -7.92311001 ], [ 113.09686279, -7.9229598 ], [ 113.09693909, -7.92284012 ], [ 113.09712219, -7.92277002 ], [ 113.09734344, -7.92271996 ], [ 113.09754181, -7.92258978 ], [ 113.09767914, -7.92249012 ], [ 113.09796906, -7.92243004 ], [ 113.09825897, -7.92242002 ], [ 113.09857178, -7.92244005 ], [ 113.09895325, -7.9224 ], [ 113.09909821, -7.92233992 ], [ 113.09941101, -7.92187023 ], [ 113.09947968, -7.92171001 ], [ 113.09945679, -7.92153978 ], [ 113.09938049, -7.92133999 ], [ 113.09938049, -7.9211998 ], [ 113.0994873, -7.92101002 ], [ 113.09963989, -7.92082024 ], [ 113.09967041, -7.92069006 ], [ 113.0996933, -7.92054987 ], [ 113.09986115, -7.92028999 ], [ 113.10002136, -7.92012978 ], [ 113.1004715, -7.91997004 ], [ 113.10086823, -7.9197998 ], [ 113.10102844, -7.91971016 ], [ 113.10157776, -7.9195199 ], [ 113.10187531, -7.91936874 ], [ 113.10205078, -7.91928005 ], [ 113.102211, -7.91920996 ], [ 113.1023407, -7.91908979 ], [ 113.10247803, -7.91879988 ], [ 113.10253143, -7.91850996 ], [ 113.10257721, -7.91829014 ], [ 113.10276031, -7.91802979 ], [ 113.10294342, -7.91785002 ], [ 113.10308838, -7.91776991 ], [ 113.10327911, -7.9177599 ], [ 113.10360718, -7.91771984 ], [ 113.10421753, -7.91747999 ], [ 113.10449982, -7.91739988 ], [ 113.1046524, -7.91738987 ], [ 113.10498047, -7.91765022 ], [ 113.10510254, -7.91771984 ], [ 113.1052475, -7.91770983 ], [ 113.10542297, -7.91764021 ], [ 113.1055069, -7.91753006 ], [ 113.10555267, -7.9172802 ], [ 113.1055603, -7.91715002 ], [ 113.10562897, -7.91706991 ], [ 113.10575867, -7.9170599 ], [ 113.10601807, -7.91724014 ], [ 113.10611725, -7.9172802 ], [ 113.10626221, -7.91725016 ], [ 113.10637665, -7.91709995 ], [ 113.10645294, -7.91697979 ], [ 113.10658264, -7.91690016 ], [ 113.10688019, -7.91689014 ], [ 113.10701752, -7.91689014 ], [ 113.1071167, -7.91683006 ], [ 113.10716248, -7.91630983 ], [ 113.1072464, -7.91593981 ], [ 113.10735321, -7.91569996 ], [ 113.10739899, -7.91561985 ], [ 113.10768127, -7.91530991 ], [ 113.10784149, -7.91513014 ], [ 113.10782623, -7.91483021 ], [ 113.10784912, -7.91450024 ], [ 113.10793304, -7.91407013 ], [ 113.10810089, -7.91374016 ], [ 113.10945892, -7.91223001 ], [ 113.11044312, -7.91180992 ], [ 113.11122131, -7.91154003 ], [ 113.1114502, -7.91135979 ], [ 113.11154175, -7.9113102 ], [ 113.11193848, -7.91109991 ], [ 113.11225891, -7.91093016 ], [ 113.11247253, -7.91075993 ], [ 113.11276245, -7.91046 ], [ 113.11299896, -7.91019011 ], [ 113.11325073, -7.90995979 ], [ 113.11348724, -7.90977001 ], [ 113.1137619, -7.90944004 ], [ 113.11392975, -7.90922022 ], [ 113.1140976, -7.90900993 ], [ 113.11435699, -7.90867996 ], [ 113.11446381, -7.90856981 ], [ 113.11455536, -7.90846586 ], [ 113.11486053, -7.90812016 ], [ 113.1151123, -7.90782022 ], [ 113.11522675, -7.90764999 ], [ 113.11562347, -7.90682983 ], [ 113.11568451, -7.90668774 ], [ 113.11575317, -7.90653992 ], [ 113.11589813, -7.90626001 ], [ 113.11614227, -7.90578985 ], [ 113.11641693, -7.90508986 ], [ 113.11650085, -7.90495014 ], [ 113.11666107, -7.90482998 ], [ 113.11694336, -7.90438986 ], [ 113.11721039, -7.90390015 ], [ 113.11723328, -7.90383005 ], [ 113.11737823, -7.90352011 ], [ 113.11760712, -7.90304995 ], [ 113.11781311, -7.90262985 ], [ 113.11805725, -7.90209007 ], [ 113.11820221, -7.90179014 ], [ 113.11846924, -7.90121984 ], [ 113.11849976, -7.90115023 ], [ 113.11894989, -7.90065002 ], [ 113.11907196, -7.90057993 ], [ 113.11974335, -7.90022993 ], [ 113.12019348, -7.90006018 ], [ 113.12090302, -7.89997005 ], [ 113.12098694, -7.89996004 ], [ 113.1220932, -7.89996004 ], [ 113.12275696, -7.89995003 ], [ 113.1232605, -7.89995003 ], [ 113.12433624, -7.90003014 ], [ 113.12454987, -7.90006018 ], [ 113.125, -7.90021992 ], [ 113.12567139, -7.90032005 ], [ 113.12584686, -7.90035009 ], [ 113.1263504, -7.90035009 ], [ 113.12711334, -7.90032005 ], [ 113.12770081, -7.90023994 ], [ 113.12789917, -7.90021992 ], [ 113.12824249, -7.90013981 ], [ 113.12892914, -7.90009022 ], [ 113.12944794, -7.90013981 ], [ 113.12976074, -7.90028954 ], [ 113.12973022, -7.9005599 ], [ 113.12963104, -7.90077019 ], [ 113.12953186, -7.9009099 ], [ 113.12947083, -7.90103006 ], [ 113.12953949, -7.90112019 ], [ 113.12967682, -7.90129995 ], [ 113.12966919, -7.90142012 ], [ 113.1295929, -7.90154982 ], [ 113.12924194, -7.90198994 ], [ 113.1292572, -7.90222979 ], [ 113.12931061, -7.90249014 ], [ 113.12927246, -7.90274 ], [ 113.12908173, -7.90285015 ], [ 113.12888336, -7.90300989 ], [ 113.12886047, -7.90312004 ], [ 113.12892914, -7.90323019 ], [ 113.12908173, -7.90350008 ], [ 113.12902069, -7.90372992 ], [ 113.13254547, -7.90545797 ], [ 113.13250732, -7.90601015 ], [ 113.13237, -7.90655994 ], [ 113.13211823, -7.9073801 ], [ 113.13191986, -7.90812016 ], [ 113.13188171, -7.90827465 ], [ 113.13179779, -7.90860987 ], [ 113.13173676, -7.90894985 ], [ 113.13175201, -7.90927982 ], [ 113.13179779, -7.90970993 ], [ 113.13188171, -7.91008997 ], [ 113.13195801, -7.91031981 ], [ 113.13201904, -7.91049004 ], [ 113.13217926, -7.91087008 ], [ 113.13221741, -7.91097546 ], [ 113.13234711, -7.91139984 ], [ 113.13262939, -7.91160011 ], [ 113.13249969, -7.91181993 ], [ 113.13247681, -7.91199017 ], [ 113.13256836, -7.91234016 ], [ 113.13271332, -7.91281986 ], [ 113.13282013, -7.91324997 ], [ 113.13278961, -7.91368008 ], [ 113.13269043, -7.91409016 ], [ 113.13260651, -7.91439009 ], [ 113.13252258, -7.91469002 ], [ 113.13243103, -7.91477013 ], [ 113.13226318, -7.91479015 ], [ 113.13204193, -7.91485023 ], [ 113.13185883, -7.91499996 ], [ 113.13173676, -7.91519022 ], [ 113.13168335, -7.91544008 ], [ 113.13165283, -7.91573 ], [ 113.1314621, -7.91631985 ], [ 113.13128662, -7.91660023 ], [ 113.13108826, -7.91694021 ], [ 113.13111115, -7.91712999 ], [ 113.13124084, -7.91745996 ], [ 113.13137054, -7.91762018 ], [ 113.13155365, -7.91785002 ], [ 113.1315918, -7.91802979 ], [ 113.13162231, -7.91839981 ], [ 113.13166809, -7.91871977 ], [ 113.13169861, -7.91899014 ], [ 113.13169098, -7.91928005 ], [ 113.13160706, -7.91949987 ], [ 113.13143921, -7.91985989 ], [ 113.13130188, -7.92027998 ], [ 113.13128662, -7.92040014 ], [ 113.1313324, -7.92070007 ], [ 113.13143921, -7.92121983 ], [ 113.13157654, -7.92156982 ], [ 113.13182068, -7.92183018 ], [ 113.13210297, -7.92202997 ], [ 113.13266754, -7.92227983 ], [ 113.13314819, -7.92248011 ], [ 113.13327789, -7.92251015 ], [ 113.13366699, -7.92260981 ], [ 113.13395691, -7.92263174 ], [ 113.13439941, -7.9226656 ], [ 113.13459015, -7.9226799 ], [ 113.1354599, -7.92272997 ], [ 113.13574982, -7.92277002 ], [ 113.1361084, -7.92281485 ], [ 113.13623047, -7.9228301 ], [ 113.13696289, -7.92292023 ], [ 113.13791656, -7.9231801 ], [ 113.1384964, -7.92332983 ], [ 113.13907623, -7.92356014 ], [ 113.13925934, -7.92364979 ], [ 113.139328, -7.92367983 ], [ 113.13913727, -7.92423582 ], [ 113.13903809, -7.92439604 ], [ 113.13893127, -7.92468929 ], [ 113.13883972, -7.92491198 ], [ 113.13852692, -7.92525101 ], [ 113.13835907, -7.92542934 ], [ 113.138237, -7.92558956 ], [ 113.13799286, -7.92575073 ], [ 113.1378479, -7.92590237 ], [ 113.13766479, -7.92603636 ], [ 113.13758087, -7.92610788 ], [ 113.13702393, -7.92602205 ], [ 113.13708496, -7.92650986 ], [ 113.13733673, -7.92680168 ], [ 113.13760376, -7.92703104 ], [ 113.13786316, -7.9273138 ], [ 113.13835907, -7.92768383 ], [ 113.13855743, -7.92795849 ], [ 113.13873291, -7.92804623 ], [ 113.13899231, -7.92817163 ], [ 113.13954926, -7.92799473 ], [ 113.14221191, -7.92999029 ], [ 113.14352417, -7.93035793 ], [ 113.14353943, -7.93049049 ], [ 113.14356995, -7.93073988 ], [ 113.14364624, -7.93148994 ], [ 113.14366913, -7.93157005 ], [ 113.14369965, -7.93173599 ], [ 113.14376831, -7.93212986 ], [ 113.14382935, -7.93230009 ], [ 113.14398193, -7.93276978 ], [ 113.14404297, -7.93295383 ], [ 113.14415741, -7.93329 ], [ 113.1442337, -7.93349981 ], [ 113.14453888, -7.93413019 ], [ 113.1448288, -7.93470001 ], [ 113.14491272, -7.93486023 ], [ 113.14533234, -7.9354701 ], [ 113.14585876, -7.93600988 ], [ 113.14655304, -7.93649006 ], [ 113.14743805, -7.93697023 ], [ 113.14826202, -7.9373498 ], [ 113.1488266, -7.93759012 ], [ 113.14903259, -7.93767977 ], [ 113.14938354, -7.9377799 ], [ 113.14971924, -7.93788004 ], [ 113.15042877, -7.93809986 ], [ 113.15126801, -7.93837023 ], [ 113.15177155, -7.93846989 ], [ 113.15247345, -7.93852997 ], [ 113.15274811, -7.93853521 ], [ 113.15302277, -7.93824005 ] ] ] ] } }
]
}
