{
"type": "FeatureCollection",
"name": "Kecamatan Gending",
"crs": { "type": "name", "properties": { "name": "urn:ogc:def:crs:OGC:1.3:CRS84" } },
"features": [
{ "type": "Feature", "properties": { "GID_0": "IDN", "NAME_0": "Indonesia", "GID_1": "IDN.11_1", "NAME_1": "Jawa Timur", "NL_NAME_1": null, "GID_2": "IDN.11.30_1", "NAME_2": "Probolinggo", "NL_NAME_2": null, "GID_3": "IDN.11.30.6_1", "NAME_3": "Gending", "VARNAME_3": null, "NL_NAME_3": null, "TYPE_3": "Kecamatan", "ENGTYPE_3": "Sub-district", "CC_3": "3513190", "HASC_3": null }, "geometry": { "type": "MultiPolygon", "coordinates": [ [ [ [ 113.2881546, -7.82467413 ], [ 113.28791046, -7.82440996 ], [ 113.28782654, -7.82431984 ], [ 113.2877121, -7.82431984 ], [ 113.28751373, -7.82437992 ], [ 113.28733063, -7.82433987 ], [ 113.28713989, -7.82427979 ], [ 113.2868576, -7.82426977 ], [ 113.28646851, -7.82437992 ], [ 113.28627777, -7.82442999 ], [ 113.28618622, -7.82440996 ], [ 113.28614044, -7.82430983 ], [ 113.28617096, -7.82409 ], [ 113.28617859, -7.82399988 ], [ 113.28607941, -7.82390022 ], [ 113.28585815, -7.82383013 ], [ 113.2857132, -7.82382011 ], [ 113.28555298, -7.82391977 ], [ 113.28540039, -7.82410002 ], [ 113.28518677, -7.82454014 ], [ 113.28514099, -7.82503986 ], [ 113.28524017, -7.82539988 ], [ 113.28405762, -7.82543039 ], [ 113.28369141, -7.82543993 ], [ 113.28337097, -7.82546997 ], [ 113.28328705, -7.82547998 ], [ 113.28320313, -7.82549 ], [ 113.2832489, -7.82531977 ], [ 113.28334045, -7.82510996 ], [ 113.28334808, -7.82497978 ], [ 113.28318024, -7.82484007 ], [ 113.28309631, -7.82477999 ], [ 113.28308105, -7.82456017 ], [ 113.28299713, -7.82414007 ], [ 113.28298187, -7.8233099 ], [ 113.28295135, -7.82305002 ], [ 113.28282166, -7.82277012 ], [ 113.2828598, -7.82255983 ], [ 113.2828598, -7.82228994 ], [ 113.28282166, -7.82216978 ], [ 113.28269196, -7.82209015 ], [ 113.2824707, -7.82204008 ], [ 113.28233337, -7.82195997 ], [ 113.28221893, -7.82176018 ], [ 113.2820282, -7.82155991 ], [ 113.28191376, -7.82138014 ], [ 113.28188324, -7.82125616 ], [ 113.28188324, -7.82099009 ], [ 113.2818985, -7.82085371 ], [ 113.28193665, -7.82055998 ], [ 113.28211212, -7.82019997 ], [ 113.2822113, -7.82001019 ], [ 113.28222656, -7.81980991 ], [ 113.28214264, -7.81959009 ], [ 113.28201294, -7.8193202 ], [ 113.28193665, -7.81917 ], [ 113.2818222, -7.81907988 ], [ 113.28160095, -7.81903982 ], [ 113.28151703, -7.81901979 ], [ 113.28147888, -7.81887007 ], [ 113.28151703, -7.81849003 ], [ 113.28134918, -7.81843996 ], [ 113.28121948, -7.81838989 ], [ 113.2811203, -7.81829977 ], [ 113.2811203, -7.81795979 ], [ 113.28108215, -7.81781006 ], [ 113.28079987, -7.81759977 ], [ 113.28057098, -7.81740999 ], [ 113.28038025, -7.8172698 ], [ 113.2800293, -7.81722021 ], [ 113.27992249, -7.8172102 ], [ 113.27983856, -7.81676006 ], [ 113.27985382, -7.81665659 ], [ 113.27981567, -7.81641817 ], [ 113.2798233, -7.81634092 ], [ 113.27988434, -7.81562471 ], [ 113.28007507, -7.81457424 ], [ 113.28012848, -7.81428862 ], [ 113.28022003, -7.81290293 ], [ 113.28034973, -7.81290245 ], [ 113.28044891, -7.8128891 ], [ 113.28057861, -7.81286335 ], [ 113.28065491, -7.81274986 ], [ 113.28063965, -7.8126111 ], [ 113.28050232, -7.81249857 ], [ 113.28025818, -7.8122859 ], [ 113.28023529, -7.81216002 ], [ 113.28038025, -7.81194544 ], [ 113.28051758, -7.81169271 ], [ 113.28065491, -7.81149054 ], [ 113.2806778, -7.81122589 ], [ 113.28064728, -7.81077814 ], [ 113.28001404, -7.81072664 ], [ 113.28004456, -7.8105278 ], [ 113.28005219, -7.810287 ], [ 113.28009796, -7.81006289 ], [ 113.28013611, -7.80989408 ], [ 113.28011322, -7.80966616 ], [ 113.28012085, -7.80941677 ], [ 113.28027344, -7.8094244 ], [ 113.28025055, -7.80929756 ], [ 113.28018951, -7.80910587 ], [ 113.27980042, -7.80779028 ], [ 113.27923584, -7.80647087 ], [ 113.27866364, -7.80525208 ], [ 113.2780304, -7.80389929 ], [ 113.27735901, -7.80284834 ], [ 113.27713776, -7.80248117 ], [ 113.27674866, -7.80179691 ], [ 113.27643585, -7.80091143 ], [ 113.27635193, -7.8002758 ], [ 113.27638245, -7.79973984 ], [ 113.27661133, -7.79826546 ], [ 113.27650452, -7.79786444 ], [ 113.27615356, -7.7974143 ], [ 113.27606201, -7.7970295 ], [ 113.27610779, -7.79636002 ], [ 113.27631378, -7.79590654 ], [ 113.27626038, -7.79584026 ], [ 113.27592468, -7.7955575 ], [ 113.27581787, -7.7953105 ], [ 113.27584839, -7.79391718 ], [ 113.27581024, -7.7932477 ], [ 113.27557373, -7.79283047 ], [ 113.27567291, -7.79244471 ], [ 113.27526855, -7.79214573 ], [ 113.27576447, -7.790205 ], [ 113.27615356, -7.78889322 ], [ 113.2760849, -7.78827429 ], [ 113.27558899, -7.78722239 ], [ 113.27281189, -7.78212023 ], [ 113.27263641, -7.78101778 ], [ 113.2727356, -7.78082132 ], [ 113.27275085, -7.78071785 ], [ 113.27276611, -7.78056908 ], [ 113.27305603, -7.78032255 ], [ 113.27317047, -7.78023338 ], [ 113.27316284, -7.78015518 ], [ 113.27295685, -7.77992439 ], [ 113.27292633, -7.77983332 ], [ 113.2729187, -7.77959871 ], [ 113.27319336, -7.77961016 ], [ 113.2734375, -7.77965307 ], [ 113.27360535, -7.7796731 ], [ 113.27364349, -7.77948236 ], [ 113.27377319, -7.7795701 ], [ 113.27403259, -7.77956009 ], [ 113.27459717, -7.77940989 ], [ 113.27501678, -7.77932978 ], [ 113.27529144, -7.77931976 ], [ 113.27546692, -7.77937984 ], [ 113.27587128, -7.7796998 ], [ 113.27600098, -7.77985001 ], [ 113.27612305, -7.7800498 ], [ 113.27615356, -7.78026009 ], [ 113.27610016, -7.78066015 ], [ 113.27601624, -7.78120995 ], [ 113.27604675, -7.78137016 ], [ 113.27612305, -7.78142023 ], [ 113.27641296, -7.7813201 ], [ 113.2765274, -7.78129005 ], [ 113.27662659, -7.78133011 ], [ 113.27680206, -7.78167009 ], [ 113.27693176, -7.78191996 ], [ 113.27752686, -7.78255987 ], [ 113.27765656, -7.78263998 ], [ 113.27799225, -7.78261995 ], [ 113.27812195, -7.78260994 ], [ 113.27845764, -7.7829299 ], [ 113.27864075, -7.78309011 ], [ 113.27928162, -7.78340006 ], [ 113.27979279, -7.78354979 ], [ 113.28035736, -7.78366995 ], [ 113.28237152, -7.78375006 ], [ 113.28265381, -7.78369999 ], [ 113.28295898, -7.78356981 ], [ 113.28333282, -7.78333998 ], [ 113.28352356, -7.78314018 ], [ 113.28365326, -7.78297997 ], [ 113.28388214, -7.78283024 ], [ 113.28417969, -7.78276014 ], [ 113.28439331, -7.78275013 ], [ 113.28450775, -7.7828002 ], [ 113.28460693, -7.78296995 ], [ 113.28469086, -7.78313017 ], [ 113.28479767, -7.7832098 ], [ 113.28518677, -7.78325987 ], [ 113.28569031, -7.78330994 ], [ 113.28591156, -7.78331995 ], [ 113.28633118, -7.78319979 ], [ 113.28649902, -7.78317022 ], [ 113.28657532, -7.78319216 ], [ 113.28672791, -7.78333998 ], [ 113.28681183, -7.7835598 ], [ 113.28717041, -7.78348017 ], [ 113.287323, -7.78345013 ], [ 113.28756714, -7.78331995 ], [ 113.28778839, -7.78333998 ], [ 113.28788757, -7.78336 ], [ 113.28795624, -7.78329992 ], [ 113.28794861, -7.78261995 ], [ 113.28790283, -7.78234005 ], [ 113.28781128, -7.7818799 ], [ 113.28778839, -7.78115988 ], [ 113.28780365, -7.7807498 ], [ 113.2879715, -7.78022003 ], [ 113.28859711, -7.77829981 ], [ 113.28864288, -7.77817011 ], [ 113.2886734, -7.77810001 ], [ 113.28883362, -7.77791023 ], [ 113.28916931, -7.77742004 ], [ 113.28942871, -7.77679014 ], [ 113.28957367, -7.77628994 ], [ 113.28964233, -7.77600002 ], [ 113.28974915, -7.77586985 ], [ 113.28987122, -7.77583981 ], [ 113.28996277, -7.77587986 ], [ 113.29007721, -7.7760601 ], [ 113.29026794, -7.77627993 ], [ 113.29057312, -7.77646017 ], [ 113.29077148, -7.77640009 ], [ 113.29094696, -7.77630997 ], [ 113.29177094, -7.77572012 ], [ 113.29178619, -7.77550983 ], [ 113.29183197, -7.77523994 ], [ 113.29196167, -7.7751298 ], [ 113.29242706, -7.77485991 ], [ 113.29290771, -7.77461004 ], [ 113.29343414, -7.77433681 ], [ 113.29366302, -7.77421999 ], [ 113.29387665, -7.77377987 ], [ 113.29411316, -7.77351999 ], [ 113.29432678, -7.77342987 ], [ 113.29464722, -7.77334023 ], [ 113.29530334, -7.77318001 ], [ 113.29593658, -7.77292013 ], [ 113.29633331, -7.77263021 ], [ 113.29649353, -7.77249002 ], [ 113.29660797, -7.77214003 ], [ 113.29675293, -7.77201986 ], [ 113.29696655, -7.77189016 ], [ 113.29737091, -7.77177 ], [ 113.29839325, -7.77146006 ], [ 113.29868317, -7.7712698 ], [ 113.29911041, -7.77087021 ], [ 113.29934692, -7.7706399 ], [ 113.30040741, -7.76990986 ], [ 113.30072784, -7.76979017 ], [ 113.30090332, -7.76969004 ], [ 113.30119324, -7.76945019 ], [ 113.30151367, -7.76933002 ], [ 113.30184937, -7.76925993 ], [ 113.30226898, -7.76913977 ], [ 113.30243683, -7.76903009 ], [ 113.30267334, -7.76887989 ], [ 113.30296326, -7.76870012 ], [ 113.30339813, -7.76850986 ], [ 113.30386353, -7.7683301 ], [ 113.30496216, -7.76796007 ], [ 113.30548096, -7.76785994 ], [ 113.30577087, -7.7678299 ], [ 113.30599976, -7.76777983 ], [ 113.3063736, -7.76769018 ], [ 113.30674744, -7.76771021 ], [ 113.30708313, -7.76761007 ], [ 113.30726624, -7.76759005 ], [ 113.30770111, -7.76757002 ], [ 113.30812836, -7.76751995 ], [ 113.3083725, -7.76757002 ], [ 113.31020355, -7.76780987 ], [ 113.31060028, -7.76776981 ], [ 113.31104279, -7.7677002 ], [ 113.3113327, -7.7677598 ], [ 113.31183624, -7.76786995 ], [ 113.31198883, -7.76783991 ], [ 113.31215668, -7.76781988 ], [ 113.31244659, -7.76776981 ], [ 113.31253815, -7.7677598 ], [ 113.31316376, -7.76772022 ], [ 113.31331635, -7.76776981 ], [ 113.31407166, -7.76812983 ], [ 113.3152771, -7.76852989 ], [ 113.31552887, -7.76852989 ], [ 113.31569672, -7.76851988 ], [ 113.31594086, -7.76849985 ], [ 113.31609344, -7.76840019 ], [ 113.31630707, -7.76827002 ], [ 113.31652832, -7.76821995 ], [ 113.31685638, -7.76822996 ], [ 113.31697083, -7.76830006 ], [ 113.3170166, -7.76841021 ], [ 113.3171463, -7.76878977 ], [ 113.31725311, -7.76886988 ], [ 113.31743622, -7.76891994 ], [ 113.31786346, -7.76904011 ], [ 113.31790924, -7.76914978 ], [ 113.31791687, -7.76935005 ], [ 113.31784058, -7.76956987 ], [ 113.31770325, -7.76969004 ], [ 113.3170166, -7.7702198 ], [ 113.31691742, -7.77030993 ], [ 113.3168869, -7.77043009 ], [ 113.31693268, -7.77057981 ], [ 113.31707001, -7.77065992 ], [ 113.31733704, -7.77074003 ], [ 113.31790924, -7.77092981 ], [ 113.3184967, -7.77118015 ], [ 113.31858826, -7.77124023 ], [ 113.31881714, -7.77140999 ], [ 113.31889343, -7.77156019 ], [ 113.31890106, -7.77173996 ], [ 113.31881714, -7.77216005 ], [ 113.31867981, -7.77268982 ], [ 113.31842804, -7.77358007 ], [ 113.31842804, -7.77383995 ], [ 113.31851196, -7.77412987 ], [ 113.31861877, -7.77424002 ], [ 113.31877136, -7.77432013 ], [ 113.31887054, -7.7743001 ], [ 113.31929016, -7.77423 ], [ 113.31954956, -7.77429724 ], [ 113.31970978, -7.77434015 ], [ 113.3203125, -7.77440023 ], [ 113.32058716, -7.77450991 ], [ 113.32089996, -7.77452993 ], [ 113.32112885, -7.77459002 ], [ 113.32132721, -7.77460003 ], [ 113.32158661, -7.77455997 ], [ 113.3219223, -7.77463007 ], [ 113.32209015, -7.77472019 ], [ 113.3221817, -7.77484989 ], [ 113.32230377, -7.7750001 ], [ 113.32240295, -7.77504015 ], [ 113.32273102, -7.77511978 ], [ 113.32295227, -7.77526999 ], [ 113.3241272, -7.77614021 ], [ 113.32431793, -7.77615976 ], [ 113.3248291, -7.7761302 ], [ 113.32527924, -7.77602005 ], [ 113.32557678, -7.77596998 ], [ 113.32714844, -7.77572012 ], [ 113.3274231, -7.77561998 ], [ 113.32788086, -7.77545977 ], [ 113.32832336, -7.77540016 ], [ 113.32834625, -7.77521992 ], [ 113.32843781, -7.77501011 ], [ 113.32855988, -7.77488995 ], [ 113.3289566, -7.77455997 ], [ 113.32917023, -7.77436018 ], [ 113.32936859, -7.77429008 ], [ 113.3296814, -7.77424002 ], [ 113.33033752, -7.7743001 ], [ 113.33083344, -7.77440977 ], [ 113.33142853, -7.77456999 ], [ 113.3323288, -7.7747798 ], [ 113.33296204, -7.77484989 ], [ 113.33331299, -7.77475977 ], [ 113.33396149, -7.77460003 ], [ 113.33423615, -7.77457094 ], [ 113.33453369, -7.77453995 ], [ 113.3348999, -7.77445984 ], [ 113.33537292, -7.77426004 ], [ 113.33567047, -7.77404022 ], [ 113.33569336, -7.77394009 ], [ 113.33564758, -7.77361012 ], [ 113.33561707, -7.77330017 ], [ 113.33563995, -7.77318001 ], [ 113.33570862, -7.77310991 ], [ 113.33587646, -7.77308989 ], [ 113.33595276, -7.7730999 ], [ 113.3361969, -7.77313995 ], [ 113.33651733, -7.77324009 ], [ 113.33722687, -7.77326012 ], [ 113.3375473, -7.77323008 ], [ 113.33802795, -7.77307987 ], [ 113.33896637, -7.77271986 ], [ 113.33979034, -7.77229023 ], [ 113.34030914, -7.77210999 ], [ 113.3405838, -7.77203989 ], [ 113.34067535, -7.77202606 ], [ 113.34092712, -7.77198982 ], [ 113.34107971, -7.77201986 ], [ 113.34116364, -7.77216005 ], [ 113.34123993, -7.77222013 ], [ 113.34136963, -7.77223015 ], [ 113.34169769, -7.77210999 ], [ 113.34249878, -7.7718401 ], [ 113.34272003, -7.77180004 ], [ 113.3432312, -7.77163982 ], [ 113.34393311, -7.77137995 ], [ 113.34446716, -7.77121019 ], [ 113.34465027, -7.77120018 ], [ 113.34474945, -7.77130985 ], [ 113.34483337, -7.77260017 ], [ 113.34488678, -7.77304125 ], [ 113.34490204, -7.77311993 ], [ 113.34533691, -7.77308989 ], [ 113.34571838, -7.77404022 ], [ 113.34604645, -7.77408981 ], [ 113.346138, -7.77452993 ], [ 113.34677124, -7.77455997 ], [ 113.34683228, -7.77467012 ], [ 113.34713745, -7.77471018 ], [ 113.34747314, -7.77470016 ], [ 113.34757233, -7.77473021 ], [ 113.34763336, -7.77488995 ], [ 113.34763336, -7.77501249 ], [ 113.34764862, -7.77680016 ], [ 113.34760284, -7.77903986 ], [ 113.34755707, -7.77987385 ], [ 113.34752655, -7.78052998 ], [ 113.34751129, -7.78092718 ], [ 113.34760284, -7.78135014 ], [ 113.34779358, -7.78169012 ], [ 113.34796906, -7.78182983 ], [ 113.34848785, -7.78221989 ], [ 113.34882355, -7.78237009 ], [ 113.34915161, -7.78247023 ], [ 113.34941101, -7.78260994 ], [ 113.34954834, -7.78274012 ], [ 113.34963226, -7.78294134 ], [ 113.34973145, -7.78317022 ], [ 113.34980774, -7.78333998 ], [ 113.35005951, -7.78361988 ], [ 113.35037994, -7.78371 ], [ 113.35108185, -7.78365993 ], [ 113.35125732, -7.78365993 ], [ 113.35179138, -7.78359032 ], [ 113.35218048, -7.78353977 ], [ 113.3526535, -7.78360462 ], [ 113.35327911, -7.78368998 ], [ 113.35427856, -7.78391981 ], [ 113.3552475, -7.78412008 ], [ 113.3560791, -7.78438997 ], [ 113.35691833, -7.78493023 ], [ 113.35741425, -7.7851963 ], [ 113.35768127, -7.78533983 ], [ 113.35827637, -7.78568268 ], [ 113.3584137, -7.78575993 ], [ 113.35865784, -7.78597021 ], [ 113.35877991, -7.78628016 ], [ 113.35882568, -7.78645754 ], [ 113.35888672, -7.7867198 ], [ 113.35887909, -7.78683901 ], [ 113.35884094, -7.78716564 ], [ 113.35881042, -7.78742981 ], [ 113.35890198, -7.78822994 ], [ 113.35895538, -7.78835297 ], [ 113.35941315, -7.78941011 ], [ 113.35959625, -7.78953981 ], [ 113.35980988, -7.78984022 ], [ 113.35990906, -7.78997993 ], [ 113.36009979, -7.79005003 ], [ 113.36019135, -7.79021978 ], [ 113.36026764, -7.79035997 ], [ 113.36045074, -7.79042006 ], [ 113.36062622, -7.79045486 ], [ 113.36071777, -7.79051018 ], [ 113.36074829, -7.79074001 ], [ 113.36073303, -7.79093981 ], [ 113.36077118, -7.79102993 ], [ 113.36099243, -7.79104996 ], [ 113.36121368, -7.79099989 ], [ 113.36132813, -7.79094982 ], [ 113.36142731, -7.79097986 ], [ 113.3615036, -7.79109001 ], [ 113.36154938, -7.79120016 ], [ 113.36174011, -7.79131985 ], [ 113.36196136, -7.79137993 ], [ 113.36212921, -7.79139996 ], [ 113.36210632, -7.79157019 ], [ 113.36200714, -7.79169989 ], [ 113.36199188, -7.79179001 ], [ 113.36212921, -7.79192019 ], [ 113.3622818, -7.79207993 ], [ 113.36237335, -7.79224014 ], [ 113.3624115, -7.79236984 ], [ 113.36248779, -7.79243994 ], [ 113.36168671, -7.79249334 ], [ 113.36112976, -7.79253006 ], [ 113.36051941, -7.79269981 ], [ 113.35980225, -7.79296017 ], [ 113.35899353, -7.79354525 ], [ 113.35852051, -7.79389 ], [ 113.35822296, -7.79426003 ], [ 113.35813904, -7.79441357 ], [ 113.35788727, -7.7948699 ], [ 113.35771179, -7.79539013 ], [ 113.35753632, -7.79583979 ], [ 113.35765076, -7.79615021 ], [ 113.35755157, -7.79693699 ], [ 113.35752869, -7.79712009 ], [ 113.35748291, -7.79773998 ], [ 113.3574295, -7.79843998 ], [ 113.35732269, -7.79921007 ], [ 113.35727692, -7.79965019 ], [ 113.3572464, -7.79988003 ], [ 113.35710144, -7.80031013 ], [ 113.35688782, -7.80052996 ], [ 113.35627747, -7.80059004 ], [ 113.35617065, -7.80060005 ], [ 113.35521698, -7.80060005 ], [ 113.35394287, -7.80054998 ], [ 113.35310364, -7.80053282 ], [ 113.35298157, -7.80052996 ], [ 113.35266876, -7.80050611 ], [ 113.35251617, -7.80049467 ], [ 113.35218811, -7.80046988 ], [ 113.35176086, -7.80045414 ], [ 113.35085297, -7.80041981 ], [ 113.35067749, -7.8004179 ], [ 113.3500824, -7.80040979 ], [ 113.34968567, -7.80040979 ], [ 113.34934235, -7.80040979 ], [ 113.34874725, -7.80040836 ], [ 113.34866333, -7.80039263 ], [ 113.34838104, -7.80034018 ], [ 113.34838867, -7.80041981 ], [ 113.34832764, -7.80065012 ], [ 113.34838867, -7.80079985 ], [ 113.34841156, -7.80089998 ], [ 113.3483963, -7.80107021 ], [ 113.34850311, -7.80121994 ], [ 113.34861755, -7.80140018 ], [ 113.34860992, -7.80148983 ], [ 113.34854889, -7.80187988 ], [ 113.34854889, -7.80222988 ], [ 113.34866333, -7.80250978 ], [ 113.34870148, -7.80263996 ], [ 113.34877014, -7.80289984 ], [ 113.34883881, -7.80363989 ], [ 113.34880066, -7.80407 ], [ 113.34877777, -7.80425978 ], [ 113.34867859, -7.80446005 ], [ 113.34860229, -7.80461979 ], [ 113.3484726, -7.80491018 ], [ 113.3484726, -7.80500984 ], [ 113.34858704, -7.8052001 ], [ 113.34879303, -7.80548 ], [ 113.34880066, -7.80564022 ], [ 113.34877014, -7.80573606 ], [ 113.34874725, -7.80580997 ], [ 113.34868622, -7.80604982 ], [ 113.34873962, -7.80622005 ], [ 113.34884644, -7.80656004 ], [ 113.34886169, -7.80686998 ], [ 113.34879303, -7.80698013 ], [ 113.34866333, -7.80706978 ], [ 113.34832764, -7.80727005 ], [ 113.34739685, -7.80681992 ], [ 113.34619141, -7.80571985 ], [ 113.34602356, -7.80556011 ], [ 113.34533691, -7.80530548 ], [ 113.3438797, -7.80475998 ], [ 113.34366608, -7.80467939 ], [ 113.34307098, -7.80445004 ], [ 113.34281158, -7.80438137 ], [ 113.3422699, -7.80424023 ], [ 113.34159088, -7.80401993 ], [ 113.34143066, -7.80398226 ], [ 113.34117126, -7.80391979 ], [ 113.34040833, -7.80373812 ], [ 113.33995819, -7.80362988 ], [ 113.33946991, -7.80351067 ], [ 113.33882141, -7.80335951 ], [ 113.33785248, -7.8032198 ], [ 113.33683014, -7.80299997 ], [ 113.33595276, -7.80284977 ], [ 113.3350296, -7.80284977 ], [ 113.3343277, -7.80282021 ], [ 113.33377075, -7.80283022 ], [ 113.33377075, -7.80319977 ], [ 113.33371735, -7.80338001 ], [ 113.3336792, -7.80357981 ], [ 113.33361053, -7.80414009 ], [ 113.3334198, -7.80443001 ], [ 113.33345795, -7.80454016 ], [ 113.33351898, -7.8046999 ], [ 113.33352661, -7.80489016 ], [ 113.33361053, -7.80501986 ], [ 113.33379364, -7.80530977 ], [ 113.33396912, -7.80561018 ], [ 113.33413696, -7.80585003 ], [ 113.33432007, -7.80604982 ], [ 113.33441925, -7.80628014 ], [ 113.3344574, -7.80653 ], [ 113.33442688, -7.80723 ], [ 113.33453369, -7.80742979 ], [ 113.33470917, -7.8076601 ], [ 113.3347168, -7.80783987 ], [ 113.33461761, -7.80862999 ], [ 113.33338928, -7.80889988 ], [ 113.3323822, -7.80890989 ], [ 113.33227539, -7.80890989 ], [ 113.33164978, -7.80890989 ], [ 113.33138275, -7.80890989 ], [ 113.32969666, -7.80881119 ], [ 113.32951355, -7.80880022 ], [ 113.32922363, -7.80878019 ], [ 113.32885742, -7.80874014 ], [ 113.32875061, -7.80872011 ], [ 113.32855225, -7.80870008 ], [ 113.32811737, -7.80867004 ], [ 113.32797241, -7.80865002 ], [ 113.32745361, -7.80857992 ], [ 113.32702637, -7.80855989 ], [ 113.32662964, -7.80852985 ], [ 113.32627869, -7.80850983 ], [ 113.32610321, -7.8085041 ], [ 113.32617188, -7.80865002 ], [ 113.32620239, -7.80889988 ], [ 113.32621765, -7.80906487 ], [ 113.32624817, -7.80932999 ], [ 113.32621765, -7.80972004 ], [ 113.32594299, -7.8113699 ], [ 113.32592773, -7.81156015 ], [ 113.32592773, -7.81185293 ], [ 113.32571411, -7.81183052 ], [ 113.32556915, -7.81192684 ], [ 113.32556915, -7.81210518 ], [ 113.32569885, -7.81228304 ], [ 113.32587433, -7.81252384 ], [ 113.32581329, -7.81258726 ], [ 113.32566071, -7.81278753 ], [ 113.32557678, -7.81307173 ], [ 113.32553101, -7.81326103 ], [ 113.32546234, -7.81332445 ], [ 113.32530212, -7.81332541 ], [ 113.32517242, -7.81340981 ], [ 113.3249588, -7.81360006 ], [ 113.32485962, -7.81371641 ], [ 113.32460022, -7.81378078 ], [ 113.32449341, -7.81406498 ], [ 113.32443237, -7.81432772 ], [ 113.32359314, -7.81410122 ], [ 113.32345581, -7.81427002 ], [ 113.32323456, -7.81416655 ], [ 113.32301331, -7.81394196 ], [ 113.32287598, -7.81393433 ], [ 113.32278442, -7.81392717 ], [ 113.32266998, -7.8139596 ], [ 113.32252502, -7.81390762 ], [ 113.32249451, -7.81376076 ], [ 113.32235718, -7.81364584 ], [ 113.32228088, -7.81363583 ], [ 113.32222748, -7.81356287 ], [ 113.32205963, -7.8135004 ], [ 113.32192993, -7.81343842 ], [ 113.32186127, -7.81333351 ], [ 113.32185364, -7.81318665 ], [ 113.32184601, -7.812819 ], [ 113.32182312, -7.81268263 ], [ 113.32176208, -7.81252527 ], [ 113.32175446, -7.81228256 ], [ 113.32168579, -7.8121686 ], [ 113.32159424, -7.8120327 ], [ 113.32159424, -7.81193399 ], [ 113.32150269, -7.81191778 ], [ 113.32130432, -7.81187677 ], [ 113.32102966, -7.81176281 ], [ 113.320961, -7.81153202 ], [ 113.32084656, -7.8115325 ], [ 113.32072449, -7.81143427 ], [ 113.32057953, -7.81138897 ], [ 113.32060242, -7.81162214 ], [ 113.3205719, -7.81184149 ], [ 113.32058716, -7.81223154 ], [ 113.32048035, -7.8126893 ], [ 113.32028198, -7.81311893 ], [ 113.32016754, -7.81336212 ], [ 113.32009888, -7.81369066 ], [ 113.32003021, -7.81387663 ], [ 113.3199234, -7.81401062 ], [ 113.31984711, -7.81417751 ], [ 113.31977844, -7.81435394 ], [ 113.31974792, -7.81448555 ], [ 113.31971741, -7.81459713 ], [ 113.31962585, -7.81491661 ], [ 113.31956482, -7.81511688 ], [ 113.31939697, -7.81547976 ], [ 113.31919861, -7.8158102 ], [ 113.31859589, -7.81531525 ], [ 113.31846619, -7.81520987 ], [ 113.3183136, -7.81544018 ], [ 113.31826782, -7.81550169 ], [ 113.31793213, -7.81595993 ], [ 113.31773376, -7.81625986 ], [ 113.31764984, -7.81656313 ], [ 113.31748199, -7.81701803 ], [ 113.31744385, -7.81744051 ], [ 113.31747437, -7.8178792 ], [ 113.31748199, -7.81799173 ], [ 113.3174057, -7.81877089 ], [ 113.31723022, -7.81935596 ], [ 113.31708527, -7.81976223 ], [ 113.31669617, -7.82054329 ], [ 113.31634521, -7.82104826 ], [ 113.31624603, -7.8212595 ], [ 113.31626892, -7.82148981 ], [ 113.31619263, -7.82188988 ], [ 113.31601715, -7.82250977 ], [ 113.31594849, -7.82284021 ], [ 113.31590271, -7.82306004 ], [ 113.31587982, -7.8232398 ], [ 113.31587982, -7.82345009 ], [ 113.31549072, -7.82343388 ], [ 113.31517029, -7.82342005 ], [ 113.31475067, -7.82335997 ], [ 113.31456757, -7.82376003 ], [ 113.31388855, -7.82370996 ], [ 113.31243896, -7.82366991 ], [ 113.31134033, -7.82359982 ], [ 113.310112, -7.82372999 ], [ 113.31002808, -7.82374001 ], [ 113.30987549, -7.82375765 ], [ 113.30981445, -7.8233366 ], [ 113.30971527, -7.82331705 ], [ 113.30957031, -7.82323313 ], [ 113.30940247, -7.82317781 ], [ 113.30902863, -7.82317972 ], [ 113.30874634, -7.8232379 ], [ 113.30869293, -7.82329464 ], [ 113.30872345, -7.82383108 ], [ 113.30860901, -7.82384014 ], [ 113.30805206, -7.82384014 ], [ 113.306427, -7.8238101 ], [ 113.30631256, -7.82379675 ], [ 113.30599213, -7.82376003 ], [ 113.3058548, -7.82373095 ], [ 113.30586243, -7.82353592 ], [ 113.3055191, -7.82317066 ], [ 113.30497742, -7.82308865 ], [ 113.30477905, -7.82224226 ], [ 113.30480194, -7.82216978 ], [ 113.30486298, -7.82198715 ], [ 113.30511475, -7.8217597 ], [ 113.30515289, -7.82143974 ], [ 113.30518341, -7.82103539 ], [ 113.30509949, -7.82118368 ], [ 113.30502319, -7.82139111 ], [ 113.30493164, -7.82158661 ], [ 113.30448914, -7.82158899 ], [ 113.30451202, -7.82121181 ], [ 113.30451965, -7.82107782 ], [ 113.30419159, -7.82094193 ], [ 113.3039093, -7.82077122 ], [ 113.30367279, -7.82072639 ], [ 113.30332184, -7.82068253 ], [ 113.30312347, -7.82062054 ], [ 113.30277252, -7.82047319 ], [ 113.30258179, -7.82043409 ], [ 113.30236053, -7.82036066 ], [ 113.30212402, -7.82029295 ], [ 113.30198669, -7.8205533 ], [ 113.30178833, -7.82069635 ], [ 113.30153656, -7.820858 ], [ 113.30145264, -7.82096481 ], [ 113.30125427, -7.82116175 ], [ 113.30102539, -7.82130527 ], [ 113.30102539, -7.82150078 ], [ 113.29866791, -7.82126474 ], [ 113.29849243, -7.82124758 ], [ 113.2978363, -7.82139349 ], [ 113.29656982, -7.82216501 ], [ 113.29624939, -7.82230902 ], [ 113.29613495, -7.82272959 ], [ 113.29580688, -7.82269955 ], [ 113.29570007, -7.82269001 ], [ 113.29493713, -7.82285976 ], [ 113.29460907, -7.82304335 ], [ 113.29450989, -7.82310009 ], [ 113.29389954, -7.82348347 ], [ 113.2936554, -7.82352781 ], [ 113.29354858, -7.82341337 ], [ 113.29338074, -7.82302713 ], [ 113.29325867, -7.822999 ], [ 113.29203796, -7.82273293 ], [ 113.29192352, -7.82261896 ], [ 113.29184723, -7.82259035 ], [ 113.29153442, -7.82259226 ], [ 113.29134369, -7.82266474 ], [ 113.29097748, -7.8230257 ], [ 113.29077148, -7.82312727 ], [ 113.29060364, -7.82304192 ], [ 113.29031372, -7.82292891 ], [ 113.28971863, -7.82281733 ], [ 113.28861237, -7.82259369 ], [ 113.28843689, -7.82263756 ], [ 113.28839874, -7.82285309 ], [ 113.2882843, -7.82370043 ], [ 113.2881546, -7.82467413 ] ] ] ] } }
]
}
