{
"type": "FeatureCollection",
"name": "Kecamatan Pakuniran",
"crs": { "type": "name", "properties": { "name": "urn:ogc:def:crs:OGC:1.3:CRS84" } },
"features": [
{ "type": "Feature", "properties": { "GID_0": "IDN", "NAME_0": "Indonesia", "GID_1": "IDN.11_1", "NAME_1": "Jawa Timur", "NL_NAME_1": null, "GID_2": "IDN.11.30_1", "NAME_2": "Probolinggo", "NL_NAME_2": null, "GID_3": "IDN.11.30.17_1", "NAME_3": "Pakuniran", "VARNAME_3": null, "NL_NAME_3": null, "TYPE_3": "Kecamatan", "ENGTYPE_3": "Sub-district", "CC_3": "3513110", "HASC_3": null }, "geometry": { "type": "MultiPolygon", "coordinates": [ [ [ [ 113.60234833, -7.84515572 ], [ 113.60494995, -7.84797621 ], [ 113.60670471, -7.85033321 ], [ 113.60734558, -7.85119534 ], [ 113.60948944, -7.85338783 ], [ 113.60900879, -7.85683823 ], [ 113.60897064, -7.85708809 ], [ 113.6089325, -7.85737658 ], [ 113.60862732, -7.85966969 ], [ 113.61080933, -7.8633461 ], [ 113.61086273, -7.8634305 ], [ 113.61092377, -7.86351538 ], [ 113.61127472, -7.86397791 ], [ 113.61141205, -7.86416101 ], [ 113.61221313, -7.86521578 ], [ 113.6125412, -7.86565161 ], [ 113.61325836, -7.86656713 ], [ 113.61525726, -7.8691287 ], [ 113.61553955, -7.8696866 ], [ 113.6156311, -7.86988211 ], [ 113.61566925, -7.86995029 ], [ 113.616539, -7.87168598 ], [ 113.61727905, -7.87316656 ], [ 113.61768341, -7.87450981 ], [ 113.617836, -7.875 ], [ 113.61786652, -7.87522936 ], [ 113.61785889, -7.87544441 ], [ 113.61779022, -7.87585878 ], [ 113.61769104, -7.87650824 ], [ 113.61786652, -7.87716293 ], [ 113.61791992, -7.87745571 ], [ 113.61797333, -7.87773275 ], [ 113.61800385, -7.87790823 ], [ 113.61804199, -7.87824249 ], [ 113.61805725, -7.87839413 ], [ 113.61810303, -7.87871122 ], [ 113.61811829, -7.87880039 ], [ 113.61828613, -7.87924051 ], [ 113.61832428, -7.8793788 ], [ 113.61831665, -7.87985325 ], [ 113.61830139, -7.88020182 ], [ 113.6181488, -7.88039684 ], [ 113.61801147, -7.8805728 ], [ 113.61789703, -7.88068628 ], [ 113.61742401, -7.88114023 ], [ 113.61711884, -7.88135767 ], [ 113.61676788, -7.88160563 ], [ 113.61653137, -7.88179636 ], [ 113.61628723, -7.88200188 ], [ 113.61615753, -7.88210535 ], [ 113.61565399, -7.8827405 ], [ 113.61548615, -7.88321161 ], [ 113.61546326, -7.88336563 ], [ 113.61540985, -7.88369036 ], [ 113.6151886, -7.88460779 ], [ 113.61515045, -7.88473606 ], [ 113.61508179, -7.88567781 ], [ 113.61505127, -7.88636446 ], [ 113.61508179, -7.88686943 ], [ 113.61509705, -7.88710785 ], [ 113.61528778, -7.88743353 ], [ 113.61422729, -7.88715982 ], [ 113.61347198, -7.88699007 ], [ 113.61277771, -7.88680983 ], [ 113.61187744, -7.88627005 ], [ 113.61087799, -7.88572979 ], [ 113.6104126, -7.88512993 ], [ 113.61012268, -7.88473988 ], [ 113.60894775, -7.88442993 ], [ 113.60806274, -7.88435984 ], [ 113.60710144, -7.88418007 ], [ 113.60623169, -7.88365984 ], [ 113.60552216, -7.88316011 ], [ 113.60500336, -7.8828001 ], [ 113.60482788, -7.88271999 ], [ 113.60475159, -7.88267994 ], [ 113.6046524, -7.88262987 ], [ 113.60447693, -7.88249016 ], [ 113.60437012, -7.88240004 ], [ 113.60430145, -7.88235998 ], [ 113.60414124, -7.88219976 ], [ 113.60398102, -7.88202 ], [ 113.60379028, -7.88181019 ], [ 113.60365295, -7.88168001 ], [ 113.603508, -7.88156986 ], [ 113.60340118, -7.88149023 ], [ 113.60330963, -7.88144016 ], [ 113.6031189, -7.88134003 ], [ 113.60289001, -7.8811698 ], [ 113.60275269, -7.88103008 ], [ 113.60246277, -7.88076019 ], [ 113.60227966, -7.88060999 ], [ 113.60215759, -7.88047981 ], [ 113.60195923, -7.88017988 ], [ 113.60189056, -7.8800602 ], [ 113.60178375, -7.87984991 ], [ 113.60172272, -7.87967014 ], [ 113.60169983, -7.87959003 ], [ 113.60164642, -7.87934017 ], [ 113.60159302, -7.87907982 ], [ 113.60150146, -7.87890005 ], [ 113.60131836, -7.87873983 ], [ 113.6011734, -7.8786788 ], [ 113.60108185, -7.87864017 ], [ 113.60076904, -7.87858009 ], [ 113.60038757, -7.87855005 ], [ 113.60015869, -7.87848997 ], [ 113.59977722, -7.87838984 ], [ 113.5995636, -7.87834978 ], [ 113.59928131, -7.87830019 ], [ 113.59909821, -7.87824011 ], [ 113.59884644, -7.87809992 ], [ 113.59868622, -7.87790012 ], [ 113.59864044, -7.87774992 ], [ 113.59866333, -7.87751007 ], [ 113.59870911, -7.87715006 ], [ 113.59877014, -7.87692022 ], [ 113.59883118, -7.87688017 ], [ 113.59889221, -7.87684011 ], [ 113.59874725, -7.87664986 ], [ 113.59844208, -7.87653017 ], [ 113.59799194, -7.87631989 ], [ 113.59764099, -7.87614012 ], [ 113.59751129, -7.8759799 ], [ 113.59726715, -7.87571001 ], [ 113.59699249, -7.8755002 ], [ 113.59644318, -7.87513018 ], [ 113.59620667, -7.875 ], [ 113.59559631, -7.87456989 ], [ 113.5951004, -7.87427998 ], [ 113.5949707, -7.87413979 ], [ 113.59469604, -7.87371016 ], [ 113.59458923, -7.87349987 ], [ 113.59462738, -7.87306023 ], [ 113.59468842, -7.8726902 ], [ 113.59467316, -7.87254 ], [ 113.59462738, -7.87239981 ], [ 113.59442139, -7.87208986 ], [ 113.5942688, -7.87188005 ], [ 113.59420776, -7.87159014 ], [ 113.59422302, -7.87120008 ], [ 113.59411621, -7.87069988 ], [ 113.59398651, -7.87047005 ], [ 113.59375763, -7.87032986 ], [ 113.59308624, -7.87005997 ], [ 113.59269714, -7.86978006 ], [ 113.59221649, -7.86934996 ], [ 113.59165955, -7.86909008 ], [ 113.59127045, -7.86856985 ], [ 113.59092712, -7.86839008 ], [ 113.59046173, -7.86822987 ], [ 113.59004211, -7.86807013 ], [ 113.58965302, -7.86776018 ], [ 113.5892334, -7.8674798 ], [ 113.58898926, -7.86717987 ], [ 113.58876038, -7.86670017 ], [ 113.58849335, -7.86643982 ], [ 113.58815765, -7.86632013 ], [ 113.58769226, -7.86625004 ], [ 113.58699799, -7.86625004 ], [ 113.58651733, -7.86624002 ], [ 113.58579254, -7.86618996 ], [ 113.58544922, -7.86619997 ], [ 113.58495331, -7.86630011 ], [ 113.5846405, -7.86636019 ], [ 113.58415985, -7.86644983 ], [ 113.5838089, -7.86648989 ], [ 113.58355713, -7.86643982 ], [ 113.58319855, -7.8663702 ], [ 113.5826416, -7.86639977 ], [ 113.58222198, -7.86641979 ], [ 113.5818634, -7.86629009 ], [ 113.58129883, -7.86604977 ], [ 113.58113098, -7.86587 ], [ 113.58100128, -7.86572742 ], [ 113.58070374, -7.86538982 ], [ 113.58042145, -7.86526012 ], [ 113.57956696, -7.86506987 ], [ 113.57933044, -7.86497021 ], [ 113.57904053, -7.86470985 ], [ 113.5785675, -7.86441994 ], [ 113.57804871, -7.86434984 ], [ 113.57753754, -7.86435986 ], [ 113.57701874, -7.86437988 ], [ 113.57662201, -7.86432981 ], [ 113.57637787, -7.86422014 ], [ 113.5760498, -7.86404991 ], [ 113.575737, -7.86390018 ], [ 113.57523346, -7.86387014 ], [ 113.57498169, -7.86393976 ], [ 113.5749054, -7.8640151 ], [ 113.5745697, -7.86434984 ], [ 113.57414246, -7.86494017 ], [ 113.57386017, -7.86555004 ], [ 113.57356262, -7.86604977 ], [ 113.57331085, -7.86641979 ], [ 113.57292938, -7.86689997 ], [ 113.57279968, -7.86699009 ], [ 113.57259369, -7.86698008 ], [ 113.57170868, -7.86682987 ], [ 113.57128906, -7.86663008 ], [ 113.57079315, -7.86624002 ], [ 113.57042694, -7.86569977 ], [ 113.57022095, -7.86541986 ], [ 113.57010651, -7.86519003 ], [ 113.56990051, -7.86490011 ], [ 113.56955719, -7.86418009 ], [ 113.56942749, -7.86399984 ], [ 113.56929779, -7.86385012 ], [ 113.56916809, -7.86358976 ], [ 113.5690918, -7.86324978 ], [ 113.56926727, -7.86284018 ], [ 113.56945038, -7.86253023 ], [ 113.56945038, -7.86234999 ], [ 113.56945038, -7.86223984 ], [ 113.56945038, -7.86214018 ], [ 113.56941986, -7.86204004 ], [ 113.56934357, -7.86198997 ], [ 113.56929016, -7.86192989 ], [ 113.56903076, -7.86190987 ], [ 113.56865692, -7.8620615 ], [ 113.56816864, -7.86214018 ], [ 113.56745148, -7.86186981 ], [ 113.56661987, -7.86159992 ], [ 113.56616211, -7.86116982 ], [ 113.56555939, -7.86071014 ], [ 113.56513977, -7.86026001 ], [ 113.56494904, -7.85996008 ], [ 113.56455994, -7.8594799 ], [ 113.56407166, -7.85932016 ], [ 113.56305695, -7.8593998 ], [ 113.56253052, -7.8593502 ], [ 113.56175232, -7.8592701 ], [ 113.56141663, -7.85917997 ], [ 113.56092072, -7.85908985 ], [ 113.56018066, -7.85898018 ], [ 113.55941772, -7.85894012 ], [ 113.55929565, -7.85893154 ], [ 113.55912018, -7.8589201 ], [ 113.55893707, -7.85901022 ], [ 113.55874634, -7.85909986 ], [ 113.55835724, -7.85937977 ], [ 113.55787659, -7.85972977 ], [ 113.55709839, -7.86016989 ], [ 113.55670929, -7.86028004 ], [ 113.55619812, -7.86029005 ], [ 113.55551147, -7.86025 ], [ 113.55499268, -7.85999012 ], [ 113.55433655, -7.85975981 ], [ 113.55355835, -7.85968018 ], [ 113.552948, -7.85998011 ], [ 113.55254364, -7.86021996 ], [ 113.5521698, -7.86028004 ], [ 113.55124664, -7.86014986 ], [ 113.55065918, -7.85999012 ], [ 113.55014038, -7.85953999 ], [ 113.54971313, -7.85945988 ], [ 113.54930878, -7.85930014 ], [ 113.54888153, -7.85916996 ], [ 113.54846954, -7.85917997 ], [ 113.54782867, -7.85921001 ], [ 113.54747772, -7.85924006 ], [ 113.54705048, -7.85934019 ], [ 113.54634857, -7.85945988 ], [ 113.54551697, -7.85953999 ], [ 113.54428101, -7.85943985 ], [ 113.54398346, -7.85949993 ], [ 113.5437088, -7.85966015 ], [ 113.54306793, -7.86019993 ], [ 113.5428009, -7.86042023 ], [ 113.54261017, -7.86043978 ], [ 113.54244995, -7.86042023 ], [ 113.54235077, -7.86039019 ], [ 113.54212952, -7.86014986 ], [ 113.54155731, -7.8598299 ], [ 113.54093933, -7.85962009 ], [ 113.53986359, -7.85958004 ], [ 113.53922272, -7.85969019 ], [ 113.53868866, -7.85983992 ], [ 113.53822327, -7.86009979 ], [ 113.53746033, -7.86059999 ], [ 113.53720093, -7.86072016 ], [ 113.53691101, -7.86064005 ], [ 113.53640747, -7.86041021 ], [ 113.53626251, -7.86033583 ], [ 113.53619385, -7.8603034 ], [ 113.53582001, -7.86011982 ], [ 113.53543854, -7.85995007 ], [ 113.53450012, -7.85972023 ], [ 113.53388977, -7.8593998 ], [ 113.53336334, -7.85897017 ], [ 113.5328598, -7.85865021 ], [ 113.53206635, -7.85863018 ], [ 113.53138733, -7.85854006 ], [ 113.53072357, -7.85845995 ], [ 113.52986908, -7.85848999 ], [ 113.52893829, -7.8586998 ], [ 113.5282135, -7.85885 ], [ 113.52747345, -7.85860014 ], [ 113.52661896, -7.85819006 ], [ 113.52574158, -7.85775995 ], [ 113.52497864, -7.85732985 ], [ 113.52422333, -7.85703993 ], [ 113.52301788, -7.85672998 ], [ 113.52224731, -7.85647011 ], [ 113.52140045, -7.85612011 ], [ 113.52101898, -7.85607004 ], [ 113.52055359, -7.8562398 ], [ 113.52031708, -7.85621023 ], [ 113.51950073, -7.85571003 ], [ 113.51876831, -7.85531998 ], [ 113.51853943, -7.85520983 ], [ 113.51792908, -7.85522985 ], [ 113.51721191, -7.85535002 ], [ 113.51689911, -7.85529995 ], [ 113.51656342, -7.8551898 ], [ 113.51618958, -7.85501003 ], [ 113.51582336, -7.85493994 ], [ 113.51567078, -7.85481024 ], [ 113.51551819, -7.85464001 ], [ 113.51525116, -7.85423994 ], [ 113.51503754, -7.85400009 ], [ 113.51473999, -7.85378981 ], [ 113.51445007, -7.85360003 ], [ 113.51429749, -7.85349989 ], [ 113.51394653, -7.85301018 ], [ 113.51363373, -7.85238981 ], [ 113.51329041, -7.85175991 ], [ 113.51268768, -7.85131979 ], [ 113.51213074, -7.85108995 ], [ 113.51126862, -7.85075998 ], [ 113.51046753, -7.85044003 ], [ 113.51016998, -7.85020018 ], [ 113.50958252, -7.84974003 ], [ 113.50919342, -7.84962988 ], [ 113.50875854, -7.84948015 ], [ 113.50830841, -7.84926987 ], [ 113.50787354, -7.84917021 ], [ 113.50750732, -7.84925985 ], [ 113.50675964, -7.84966946 ], [ 113.50611877, -7.85004997 ], [ 113.50570679, -7.85039997 ], [ 113.50556183, -7.85075998 ], [ 113.50531769, -7.85175991 ], [ 113.50498199, -7.85220003 ], [ 113.50479126, -7.85241985 ], [ 113.50469208, -7.85258007 ], [ 113.50462341, -7.85268021 ], [ 113.50434113, -7.85305023 ], [ 113.5038681, -7.85324001 ], [ 113.50273895, -7.85320997 ], [ 113.50260162, -7.85317993 ], [ 113.5020752, -7.85304785 ], [ 113.50104523, -7.85278702 ], [ 113.5, -7.85242987 ], [ 113.49977875, -7.85232019 ], [ 113.49951935, -7.85215998 ], [ 113.49923706, -7.8519001 ], [ 113.49899292, -7.85159016 ], [ 113.49878693, -7.85128021 ], [ 113.49851227, -7.85094023 ], [ 113.49827576, -7.85075235 ], [ 113.4981308, -7.85063982 ], [ 113.49764252, -7.85042 ], [ 113.49700165, -7.85013008 ], [ 113.4962616, -7.84983015 ], [ 113.49591827, -7.84958982 ], [ 113.49575043, -7.84939003 ], [ 113.49559021, -7.84913015 ], [ 113.49536133, -7.84884024 ], [ 113.49506378, -7.84855986 ], [ 113.49455261, -7.84813023 ], [ 113.49384308, -7.84761 ], [ 113.49343872, -7.84723949 ], [ 113.49336243, -7.8470602 ], [ 113.49327087, -7.84691 ], [ 113.49310303, -7.84665012 ], [ 113.49295807, -7.84645987 ], [ 113.49285889, -7.84636545 ], [ 113.49256134, -7.84608984 ], [ 113.49195862, -7.84556007 ], [ 113.49143219, -7.84498978 ], [ 113.49105835, -7.84442997 ], [ 113.4909668, -7.8442502 ], [ 113.49072266, -7.84385014 ], [ 113.49040985, -7.84322023 ], [ 113.490242, -7.84301996 ], [ 113.49008942, -7.84295988 ], [ 113.48996735, -7.84248018 ], [ 113.48985291, -7.84197998 ], [ 113.4897995, -7.84132004 ], [ 113.48977661, -7.8407402 ], [ 113.4897995, -7.84012985 ], [ 113.48989105, -7.83950996 ], [ 113.49002838, -7.83882999 ], [ 113.49018097, -7.83814001 ], [ 113.4903183, -7.83760977 ], [ 113.49056244, -7.83716297 ], [ 113.49102783, -7.83662987 ], [ 113.49143982, -7.83616018 ], [ 113.49176788, -7.83586979 ], [ 113.49205017, -7.83570004 ], [ 113.49230194, -7.83560991 ], [ 113.4927597, -7.83557987 ], [ 113.49306488, -7.83557463 ], [ 113.49334717, -7.83556986 ], [ 113.49372101, -7.83555984 ], [ 113.49388885, -7.83551979 ], [ 113.49404907, -7.83541012 ], [ 113.49432373, -7.83520985 ], [ 113.49453735, -7.83508873 ], [ 113.49504089, -7.83497 ], [ 113.4955368, -7.83487988 ], [ 113.49588776, -7.83483982 ], [ 113.49640656, -7.83481979 ], [ 113.49677277, -7.83482981 ], [ 113.49723053, -7.83486986 ], [ 113.49765015, -7.83491993 ], [ 113.49812317, -7.83486986 ], [ 113.49852753, -7.83468008 ], [ 113.49906158, -7.83437014 ], [ 113.49922943, -7.83422852 ], [ 113.49949646, -7.83400011 ], [ 113.5, -7.83365011 ], [ 113.50083923, -7.83291054 ], [ 113.50151062, -7.83231783 ], [ 113.502388, -7.83154011 ], [ 113.50227356, -7.83119011 ], [ 113.50192261, -7.83019018 ], [ 113.5018692, -7.83004999 ], [ 113.50140381, -7.8292799 ], [ 113.50102234, -7.82863998 ], [ 113.50071716, -7.82807016 ], [ 113.5, -7.82750988 ], [ 113.4996109, -7.82742977 ], [ 113.49932861, -7.82733011 ], [ 113.49910736, -7.82718992 ], [ 113.49920654, -7.82702017 ], [ 113.49952698, -7.82670021 ], [ 113.49971008, -7.82645988 ], [ 113.49977875, -7.82626009 ], [ 113.49978638, -7.82597017 ], [ 113.49977875, -7.82576656 ], [ 113.49965668, -7.82572985 ], [ 113.49941254, -7.82563019 ], [ 113.49929047, -7.82566786 ], [ 113.49906921, -7.82575655 ], [ 113.49889374, -7.82599163 ], [ 113.49874878, -7.82615328 ], [ 113.49858856, -7.82613945 ], [ 113.49841309, -7.8261261 ], [ 113.49826813, -7.82603931 ], [ 113.49810028, -7.82585001 ], [ 113.49801636, -7.82570457 ], [ 113.49777985, -7.82567692 ], [ 113.49760437, -7.82575083 ], [ 113.49750519, -7.825912 ], [ 113.49701691, -7.82572508 ], [ 113.49684906, -7.825387 ], [ 113.49681091, -7.82531738 ], [ 113.49638367, -7.82520294 ], [ 113.49588776, -7.8250742 ], [ 113.49588013, -7.82488537 ], [ 113.49593353, -7.82476759 ], [ 113.49597931, -7.82466412 ], [ 113.49612427, -7.82420921 ], [ 113.49614716, -7.8238287 ], [ 113.49610901, -7.82355881 ], [ 113.49600983, -7.82332659 ], [ 113.49597168, -7.8230567 ], [ 113.49594879, -7.82254744 ], [ 113.4960022, -7.82219744 ], [ 113.49620819, -7.82150936 ], [ 113.4963913, -7.82104158 ], [ 113.49646759, -7.82079601 ], [ 113.4965744, -7.82047653 ], [ 113.49669647, -7.82006884 ], [ 113.49671936, -7.81999683 ], [ 113.49681091, -7.81957912 ], [ 113.49681854, -7.81943512 ], [ 113.49682617, -7.81930923 ], [ 113.49684143, -7.81843758 ], [ 113.49688721, -7.81784964 ], [ 113.49693298, -7.81773996 ], [ 113.49701691, -7.81748009 ], [ 113.49704742, -7.81740665 ], [ 113.4970932, -7.81722164 ], [ 113.49725342, -7.81679106 ], [ 113.49738312, -7.81648016 ], [ 113.49754333, -7.81607008 ], [ 113.49771881, -7.81571007 ], [ 113.49807739, -7.81518984 ], [ 113.49816132, -7.81511021 ], [ 113.4984436, -7.81482983 ], [ 113.49851227, -7.81476021 ], [ 113.49913025, -7.81408978 ], [ 113.49929047, -7.81393003 ], [ 113.4994812, -7.81371021 ], [ 113.49980927, -7.81343985 ], [ 113.50001526, -7.81336451 ], [ 113.50035858, -7.81324005 ], [ 113.50048828, -7.81323004 ], [ 113.50063324, -7.81321001 ], [ 113.50084686, -7.81321001 ], [ 113.50097656, -7.81323004 ], [ 113.50144958, -7.81327057 ], [ 113.50167084, -7.81329012 ], [ 113.50192261, -7.81329012 ], [ 113.50219727, -7.81329012 ], [ 113.50299835, -7.81326008 ], [ 113.50309753, -7.81324005 ], [ 113.50327301, -7.81321001 ], [ 113.5033493, -7.8131299 ], [ 113.50401306, -7.81209993 ], [ 113.50431824, -7.81165981 ], [ 113.50450897, -7.81133986 ], [ 113.50456238, -7.81099987 ], [ 113.50466156, -7.81052017 ], [ 113.50478363, -7.81024981 ], [ 113.50483704, -7.81016016 ], [ 113.50544739, -7.80939007 ], [ 113.50566864, -7.8091898 ], [ 113.50588989, -7.80890989 ], [ 113.50595856, -7.80884981 ], [ 113.50601196, -7.80880022 ], [ 113.5058136, -7.80854988 ], [ 113.50556946, -7.80816984 ], [ 113.50544739, -7.80791998 ], [ 113.50514221, -7.80744982 ], [ 113.50506592, -7.80732059 ], [ 113.50479889, -7.80682993 ], [ 113.50463867, -7.80639982 ], [ 113.50456238, -7.80619001 ], [ 113.50444794, -7.80569983 ], [ 113.50428009, -7.8050499 ], [ 113.50424957, -7.80453014 ], [ 113.50396729, -7.80353022 ], [ 113.50332642, -7.80298996 ], [ 113.50323486, -7.80291271 ], [ 113.50269318, -7.80245018 ], [ 113.50231934, -7.80173016 ], [ 113.50231934, -7.80136013 ], [ 113.50234222, -7.80104303 ], [ 113.50240326, -7.80027008 ], [ 113.50240326, -7.79988337 ], [ 113.50240326, -7.79879999 ], [ 113.50240326, -7.79822779 ], [ 113.50241089, -7.79789019 ], [ 113.50241852, -7.79761982 ], [ 113.50223541, -7.79670954 ], [ 113.50223541, -7.79660749 ], [ 113.50229645, -7.79548979 ], [ 113.50250244, -7.79437542 ], [ 113.50244141, -7.79358006 ], [ 113.50221252, -7.79312992 ], [ 113.50190735, -7.7929101 ], [ 113.50105286, -7.79251003 ], [ 113.50054932, -7.79216003 ], [ 113.50047302, -7.79203987 ], [ 113.50036621, -7.79156017 ], [ 113.5002594, -7.79076004 ], [ 113.50022888, -7.79000998 ], [ 113.50022888, -7.78973007 ], [ 113.50050354, -7.78913021 ], [ 113.50063324, -7.78892994 ], [ 113.50067902, -7.78872013 ], [ 113.50066376, -7.788486 ], [ 113.50054932, -7.78837013 ], [ 113.50035095, -7.78811979 ], [ 113.50016785, -7.78792667 ], [ 113.5, -7.78774977 ], [ 113.49983215, -7.78760815 ], [ 113.49976349, -7.78754997 ], [ 113.49951935, -7.78725004 ], [ 113.49938965, -7.78697014 ], [ 113.49933624, -7.78679991 ], [ 113.49926758, -7.78628016 ], [ 113.49925232, -7.7860899 ], [ 113.49919891, -7.78591013 ], [ 113.49913788, -7.78571987 ], [ 113.49903107, -7.78543997 ], [ 113.49904633, -7.78494978 ], [ 113.49916077, -7.78458023 ], [ 113.49932861, -7.78406 ], [ 113.4994278, -7.78378487 ], [ 113.49917603, -7.7806201 ], [ 113.49897003, -7.77801418 ], [ 113.498909, -7.77733183 ], [ 113.49898529, -7.77526569 ], [ 113.49897003, -7.77477407 ], [ 113.49880219, -7.77472019 ], [ 113.49832916, -7.77449989 ], [ 113.49788666, -7.77423 ], [ 113.49730682, -7.77388 ], [ 113.49684906, -7.77353001 ], [ 113.49645233, -7.77312994 ], [ 113.49609375, -7.77266979 ], [ 113.49593353, -7.7723999 ], [ 113.49581909, -7.77207994 ], [ 113.4957962, -7.77190256 ], [ 113.4957428, -7.77146196 ], [ 113.4957428, -7.77062988 ], [ 113.4957428, -7.77024984 ], [ 113.49565125, -7.76997995 ], [ 113.49555969, -7.76959991 ], [ 113.49552917, -7.76914978 ], [ 113.4954834, -7.76872015 ], [ 113.49539185, -7.76849985 ], [ 113.49526978, -7.76820993 ], [ 113.49514771, -7.76791 ], [ 113.49513245, -7.76772833 ], [ 113.49511719, -7.76760006 ], [ 113.49520874, -7.76754999 ], [ 113.49546814, -7.76749992 ], [ 113.49568176, -7.76744986 ], [ 113.49578857, -7.76733017 ], [ 113.49585724, -7.76715994 ], [ 113.49591064, -7.76690817 ], [ 113.49594879, -7.76673985 ], [ 113.49601746, -7.76652002 ], [ 113.49606323, -7.76635981 ], [ 113.49601746, -7.7660799 ], [ 113.49600983, -7.76584005 ], [ 113.49590302, -7.76568985 ], [ 113.49569702, -7.7655201 ], [ 113.49543762, -7.76530266 ], [ 113.49526215, -7.76516008 ], [ 113.49514771, -7.76489019 ], [ 113.49501801, -7.76446009 ], [ 113.49534607, -7.76449442 ], [ 113.49599457, -7.76437044 ], [ 113.49720001, -7.76423454 ], [ 113.49794006, -7.76423883 ], [ 113.49810791, -7.7642417 ], [ 113.49820709, -7.76420832 ], [ 113.49849701, -7.76413584 ], [ 113.49894714, -7.76388979 ], [ 113.49942017, -7.76373291 ], [ 113.49992371, -7.76352406 ], [ 113.50035095, -7.76312637 ], [ 113.50047302, -7.76295137 ], [ 113.50094604, -7.76281691 ], [ 113.50121307, -7.76269436 ], [ 113.50164795, -7.76251364 ], [ 113.50208282, -7.7623682 ], [ 113.50228882, -7.76213217 ], [ 113.50249481, -7.76199198 ], [ 113.50279236, -7.76162195 ], [ 113.50288391, -7.7613492 ], [ 113.50306702, -7.76179981 ], [ 113.50334167, -7.76247978 ], [ 113.50359344, -7.76292992 ], [ 113.50376892, -7.76315022 ], [ 113.50434113, -7.76350927 ], [ 113.50463104, -7.76368999 ], [ 113.50530243, -7.76411009 ], [ 113.50554657, -7.76434994 ], [ 113.50554657, -7.76450014 ], [ 113.50569153, -7.7643199 ], [ 113.50640869, -7.76336002 ], [ 113.50685883, -7.76245022 ], [ 113.50759125, -7.76225996 ], [ 113.50788879, -7.76224279 ], [ 113.50811768, -7.76222992 ], [ 113.50845337, -7.76220798 ], [ 113.50935364, -7.76214981 ], [ 113.51007843, -7.76234007 ], [ 113.51058197, -7.76242018 ], [ 113.51065063, -7.76245022 ], [ 113.51083374, -7.76246977 ], [ 113.51078796, -7.76230001 ], [ 113.510849, -7.76203012 ], [ 113.51097107, -7.76181984 ], [ 113.51112366, -7.76170015 ], [ 113.51133728, -7.76161003 ], [ 113.51155853, -7.76159 ], [ 113.51194763, -7.76165009 ], [ 113.51203918, -7.76164007 ], [ 113.51213074, -7.76153994 ], [ 113.51217651, -7.7613802 ], [ 113.51217651, -7.7611599 ], [ 113.51212311, -7.7610302 ], [ 113.5118866, -7.76058006 ], [ 113.51190186, -7.76032925 ], [ 113.51197052, -7.76011992 ], [ 113.51206207, -7.7599802 ], [ 113.5121994, -7.75991011 ], [ 113.51260376, -7.75972986 ], [ 113.51290894, -7.75950003 ], [ 113.51306915, -7.7592802 ], [ 113.51316071, -7.75901985 ], [ 113.51319122, -7.75875998 ], [ 113.51322174, -7.75835991 ], [ 113.51331329, -7.75811005 ], [ 113.51348114, -7.75788021 ], [ 113.51368713, -7.75755978 ], [ 113.51409912, -7.75685978 ], [ 113.51450348, -7.75610018 ], [ 113.51464081, -7.75649023 ], [ 113.51467896, -7.75668001 ], [ 113.51481628, -7.75720978 ], [ 113.51503754, -7.75770998 ], [ 113.51509857, -7.75784445 ], [ 113.51531219, -7.75829983 ], [ 113.51544952, -7.75878 ], [ 113.51551819, -7.75907993 ], [ 113.51567841, -7.75935984 ], [ 113.51598358, -7.75970984 ], [ 113.51599884, -7.75983047 ], [ 113.51648712, -7.76284981 ], [ 113.51676941, -7.76327324 ], [ 113.51702118, -7.76365614 ], [ 113.51708221, -7.76374245 ], [ 113.51714325, -7.76383018 ], [ 113.51721954, -7.76395988 ], [ 113.51725769, -7.76429987 ], [ 113.51731873, -7.76444006 ], [ 113.51779938, -7.76485014 ], [ 113.51798248, -7.76502991 ], [ 113.51808167, -7.76514006 ], [ 113.51818085, -7.76522017 ], [ 113.51820374, -7.76537991 ], [ 113.51818848, -7.76562977 ], [ 113.51828003, -7.76601982 ], [ 113.51891327, -7.76706982 ], [ 113.51896667, -7.76719999 ], [ 113.51898193, -7.76738977 ], [ 113.51895905, -7.76751995 ], [ 113.52290344, -7.77202988 ], [ 113.52320862, -7.77238989 ], [ 113.52500153, -7.77495003 ], [ 113.5250473, -7.77503014 ], [ 113.52565765, -7.77510977 ], [ 113.52588654, -7.7751441 ], [ 113.52805328, -7.77546978 ], [ 113.5279541, -7.776227 ], [ 113.52774048, -7.77791977 ], [ 113.52751923, -7.77876997 ], [ 113.52780914, -7.77883053 ], [ 113.53039551, -7.77937222 ], [ 113.53072357, -7.77943993 ], [ 113.53309631, -7.77980995 ], [ 113.53456116, -7.78002977 ], [ 113.53562927, -7.7801404 ], [ 113.53613281, -7.7801919 ], [ 113.53611755, -7.78066015 ], [ 113.53610992, -7.78157997 ], [ 113.53622437, -7.78189993 ], [ 113.53627014, -7.78203011 ], [ 113.53635406, -7.78204632 ], [ 113.53657532, -7.78209496 ], [ 113.53688812, -7.78209305 ], [ 113.53701782, -7.78201199 ], [ 113.53713989, -7.78199148 ], [ 113.53730774, -7.78199053 ], [ 113.53733063, -7.78170967 ], [ 113.537323, -7.7814188 ], [ 113.53738403, -7.78113794 ], [ 113.5374527, -7.7808466 ], [ 113.53760529, -7.78080559 ], [ 113.53781128, -7.78076458 ], [ 113.53796387, -7.78080368 ], [ 113.53804779, -7.7808733 ], [ 113.53826904, -7.78087187 ], [ 113.53845215, -7.78083086 ], [ 113.53868866, -7.7808094 ], [ 113.53881073, -7.78078842 ], [ 113.53900909, -7.78089762 ], [ 113.5391922, -7.78104687 ], [ 113.5396347, -7.78118467 ], [ 113.53997803, -7.78120232 ], [ 113.54019928, -7.78126144 ], [ 113.54039001, -7.78130007 ], [ 113.54063416, -7.78128862 ], [ 113.54074097, -7.7813282 ], [ 113.54086304, -7.78148794 ], [ 113.54094696, -7.78167772 ], [ 113.54125214, -7.78195667 ], [ 113.54194641, -7.78208303 ], [ 113.54232788, -7.78228092 ], [ 113.54242706, -7.78268147 ], [ 113.54249573, -7.78314924 ], [ 113.54328918, -7.78326988 ], [ 113.54351044, -7.78349829 ], [ 113.54370117, -7.78369236 ], [ 113.54393768, -7.78393793 ], [ 113.54425049, -7.78403091 ], [ 113.54663086, -7.78460979 ], [ 113.54715729, -7.78473377 ], [ 113.54837799, -7.78502226 ], [ 113.54875183, -7.78511 ], [ 113.54957581, -7.78529978 ], [ 113.55005646, -7.78540993 ], [ 113.55172729, -7.78578997 ], [ 113.55254364, -7.78578997 ], [ 113.55287933, -7.78578997 ], [ 113.55478668, -7.78577995 ], [ 113.5558548, -7.78561354 ], [ 113.55832672, -7.78522587 ], [ 113.55861664, -7.78518009 ], [ 113.55873108, -7.78518009 ], [ 113.55890656, -7.7851181 ], [ 113.55898285, -7.78508997 ], [ 113.55924988, -7.78500986 ], [ 113.55996704, -7.78477001 ], [ 113.56038666, -7.7846365 ], [ 113.56047058, -7.78460979 ], [ 113.56204224, -7.78409004 ], [ 113.56240845, -7.78487015 ], [ 113.56266785, -7.78505993 ], [ 113.5627594, -7.78511 ], [ 113.56350708, -7.78539991 ], [ 113.56359863, -7.78542995 ], [ 113.56384277, -7.78552008 ], [ 113.56401062, -7.78557014 ], [ 113.5644989, -7.78563023 ], [ 113.5646286, -7.78568983 ], [ 113.56481171, -7.78588009 ], [ 113.56513977, -7.7863102 ], [ 113.56537628, -7.78655005 ], [ 113.56581879, -7.78689003 ], [ 113.56606293, -7.78703022 ], [ 113.56661224, -7.78718996 ], [ 113.56723022, -7.78753996 ], [ 113.56745148, -7.78766012 ], [ 113.56777954, -7.78771019 ], [ 113.56806183, -7.78768015 ], [ 113.56816864, -7.78767014 ], [ 113.56835938, -7.78777981 ], [ 113.56880188, -7.78809023 ], [ 113.56890869, -7.78816986 ], [ 113.56896973, -7.78827 ], [ 113.56906891, -7.78838015 ], [ 113.57003021, -7.78890991 ], [ 113.57025146, -7.78900003 ], [ 113.57054901, -7.78893995 ], [ 113.57073212, -7.78888988 ], [ 113.57125854, -7.78898001 ], [ 113.57161713, -7.7890501 ], [ 113.5717926, -7.78906012 ], [ 113.57192993, -7.78915977 ], [ 113.57208252, -7.78931999 ], [ 113.57232666, -7.78939009 ], [ 113.57263947, -7.78946018 ], [ 113.57289124, -7.7892499 ], [ 113.57463074, -7.78763008 ], [ 113.57476807, -7.78750992 ], [ 113.5753479, -7.78697014 ], [ 113.57559204, -7.78720999 ], [ 113.57594299, -7.78742981 ], [ 113.57620239, -7.78753996 ], [ 113.57662201, -7.78759003 ], [ 113.57711792, -7.78767014 ], [ 113.5776062, -7.7876606 ], [ 113.57810974, -7.78768015 ], [ 113.57834625, -7.78769016 ], [ 113.57858276, -7.78776979 ], [ 113.57904053, -7.78813982 ], [ 113.57911682, -7.78820992 ], [ 113.57933044, -7.78837013 ], [ 113.57965088, -7.78852987 ], [ 113.57994843, -7.78857994 ], [ 113.58032227, -7.78853989 ], [ 113.58069611, -7.78850555 ], [ 113.58087158, -7.78848982 ], [ 113.58109283, -7.78849983 ], [ 113.58126068, -7.78855991 ], [ 113.58161163, -7.78888988 ], [ 113.58168793, -7.78902006 ], [ 113.58177185, -7.78916979 ], [ 113.5818634, -7.7892499 ], [ 113.58197784, -7.78933001 ], [ 113.58222198, -7.78949022 ], [ 113.58242798, -7.78972006 ], [ 113.58249664, -7.78980017 ], [ 113.58265686, -7.78993988 ], [ 113.58286285, -7.79001999 ], [ 113.58315277, -7.79011011 ], [ 113.58322906, -7.79014015 ], [ 113.58365631, -7.79026985 ], [ 113.58396149, -7.79032993 ], [ 113.5840683, -7.79039001 ], [ 113.58413696, -7.79042006 ], [ 113.58441162, -7.79058981 ], [ 113.58448029, -7.79061985 ], [ 113.58486938, -7.79077005 ], [ 113.58515167, -7.79086018 ], [ 113.58542633, -7.79092979 ], [ 113.58570862, -7.7910099 ], [ 113.58582306, -7.79102993 ], [ 113.58596802, -7.79101992 ], [ 113.58634186, -7.79091978 ], [ 113.58657837, -7.79096985 ], [ 113.58670044, -7.79101229 ], [ 113.58683014, -7.79105997 ], [ 113.58704376, -7.79114008 ], [ 113.58721161, -7.79121017 ], [ 113.58766937, -7.79145002 ], [ 113.58782196, -7.79152012 ], [ 113.58811951, -7.79167986 ], [ 113.58830261, -7.79183006 ], [ 113.58837891, -7.79195023 ], [ 113.58847046, -7.79217005 ], [ 113.58862305, -7.79252005 ], [ 113.58876801, -7.79287004 ], [ 113.58879852, -7.79295015 ], [ 113.58888245, -7.79316998 ], [ 113.58889771, -7.79327011 ], [ 113.58896637, -7.79346991 ], [ 113.58907318, -7.79364014 ], [ 113.58918762, -7.79371977 ], [ 113.58934784, -7.79377985 ], [ 113.58963013, -7.79386997 ], [ 113.58994293, -7.79402018 ], [ 113.59013367, -7.79410982 ], [ 113.59024811, -7.7941699 ], [ 113.59059143, -7.79429007 ], [ 113.59088135, -7.79441977 ], [ 113.5909729, -7.79447985 ], [ 113.59114838, -7.79465008 ], [ 113.59134674, -7.79492998 ], [ 113.59146118, -7.79508018 ], [ 113.59156799, -7.79515982 ], [ 113.59172058, -7.79520988 ], [ 113.59197998, -7.79532003 ], [ 113.59217834, -7.79541826 ], [ 113.59230042, -7.79547977 ], [ 113.5925293, -7.79554987 ], [ 113.592659, -7.7955699 ], [ 113.59293365, -7.79559994 ], [ 113.59314728, -7.79560995 ], [ 113.59349823, -7.79567003 ], [ 113.59410095, -7.79574013 ], [ 113.59420776, -7.79606009 ], [ 113.59429932, -7.79632998 ], [ 113.59441376, -7.79655981 ], [ 113.594841, -7.79694986 ], [ 113.59499359, -7.79707623 ], [ 113.5951767, -7.79719019 ], [ 113.59557343, -7.79730988 ], [ 113.5958786, -7.79731989 ], [ 113.59603119, -7.79729986 ], [ 113.59619141, -7.79727983 ], [ 113.59631348, -7.79726982 ], [ 113.59649658, -7.79726982 ], [ 113.59696198, -7.79727983 ], [ 113.59734344, -7.79727983 ], [ 113.59754944, -7.79728985 ], [ 113.59796143, -7.79728985 ], [ 113.59848785, -7.79725981 ], [ 113.59880829, -7.79728985 ], [ 113.59916687, -7.79738998 ], [ 113.59954071, -7.79761982 ], [ 113.6000824, -7.79805994 ], [ 113.60025787, -7.79815006 ], [ 113.60050201, -7.7981801 ], [ 113.60073853, -7.79816008 ], [ 113.60092163, -7.79816008 ], [ 113.60112, -7.7981801 ], [ 113.60144043, -7.79826021 ], [ 113.60150909, -7.79828978 ], [ 113.60163116, -7.79834986 ], [ 113.60179138, -7.79842997 ], [ 113.60191345, -7.79849005 ], [ 113.60199738, -7.7985301 ], [ 113.60218811, -7.79862022 ], [ 113.60234833, -7.79864979 ], [ 113.60253906, -7.79858017 ], [ 113.60272217, -7.79842997 ], [ 113.60279846, -7.79847002 ], [ 113.60308075, -7.79841995 ], [ 113.60362244, -7.79824018 ], [ 113.60405731, -7.79813957 ], [ 113.60432434, -7.79825592 ], [ 113.60462189, -7.79838467 ], [ 113.60478973, -7.79846478 ], [ 113.60565186, -7.79876852 ], [ 113.6059494, -7.79885578 ], [ 113.6060791, -7.79893589 ], [ 113.60598755, -7.79903316 ], [ 113.60593414, -7.79910851 ], [ 113.60586548, -7.79920626 ], [ 113.60578918, -7.7992878 ], [ 113.60572815, -7.79937983 ], [ 113.60565186, -7.79947567 ], [ 113.60558319, -7.79952335 ], [ 113.60552979, -7.79957485 ], [ 113.60544586, -7.79962778 ], [ 113.6053772, -7.79965734 ], [ 113.60530853, -7.79968929 ], [ 113.60522461, -7.79971504 ], [ 113.60513306, -7.79974318 ], [ 113.6050415, -7.79976749 ], [ 113.60495758, -7.79978895 ], [ 113.60487366, -7.79981613 ], [ 113.6047821, -7.79985332 ], [ 113.60469818, -7.79989672 ], [ 113.60460663, -7.79996109 ], [ 113.60453796, -7.80002069 ], [ 113.60443878, -7.80010414 ], [ 113.60437012, -7.80018711 ], [ 113.60429382, -7.80029964 ], [ 113.6042099, -7.8004241 ], [ 113.60413361, -7.80052519 ], [ 113.60396576, -7.80070639 ], [ 113.60388184, -7.80078363 ], [ 113.60365295, -7.80098009 ], [ 113.60358429, -7.80103254 ], [ 113.60334778, -7.80120087 ], [ 113.6031189, -7.80139446 ], [ 113.60298157, -7.80149794 ], [ 113.60281372, -7.80160666 ], [ 113.60272217, -7.80166101 ], [ 113.6026001, -7.80173111 ], [ 113.60240936, -7.80182314 ], [ 113.60224152, -7.80191326 ], [ 113.60207367, -7.80200529 ], [ 113.60189056, -7.8021059 ], [ 113.60160065, -7.8022542 ], [ 113.60134888, -7.80237246 ], [ 113.60115814, -7.80244303 ], [ 113.600914, -7.80251312 ], [ 113.60063934, -7.80257559 ], [ 113.60040283, -7.80262375 ], [ 113.60014343, -7.80267954 ], [ 113.5998764, -7.80273151 ], [ 113.59939575, -7.80283403 ], [ 113.59927368, -7.80286789 ], [ 113.59894562, -7.80294895 ], [ 113.5986557, -7.80301905 ], [ 113.59841156, -7.80306768 ], [ 113.59828949, -7.80309105 ], [ 113.59790802, -7.8031621 ], [ 113.59762573, -7.80322075 ], [ 113.59744263, -7.80325794 ], [ 113.5973587, -7.8032794 ], [ 113.59677124, -7.8034339 ], [ 113.59667206, -7.80345154 ], [ 113.59645844, -7.80349064 ], [ 113.59637451, -7.8035059 ], [ 113.59603882, -7.80351114 ], [ 113.59593201, -7.80351305 ], [ 113.59570313, -7.80352354 ], [ 113.59561157, -7.80352736 ], [ 113.59551239, -7.80353212 ], [ 113.59541321, -7.80354118 ], [ 113.59520721, -7.80357409 ], [ 113.59477234, -7.80365133 ], [ 113.59444427, -7.80370903 ], [ 113.59407043, -7.80372858 ], [ 113.59395599, -7.80373287 ], [ 113.59348297, -7.80374289 ], [ 113.59339142, -7.80374479 ], [ 113.59326172, -7.8037982 ], [ 113.59315491, -7.80388212 ], [ 113.59301758, -7.80399132 ], [ 113.59289551, -7.80415487 ], [ 113.59277344, -7.80436993 ], [ 113.59259033, -7.80471849 ], [ 113.59223175, -7.80531263 ], [ 113.59215546, -7.8054142 ], [ 113.59242249, -7.80575752 ], [ 113.59246063, -7.80583096 ], [ 113.59255219, -7.80599451 ], [ 113.59267426, -7.80615759 ], [ 113.59281921, -7.80634499 ], [ 113.59291077, -7.80643415 ], [ 113.59302521, -7.80653811 ], [ 113.59320831, -7.8066597 ], [ 113.5933609, -7.80671024 ], [ 113.5934906, -7.80675316 ], [ 113.59365845, -7.80686426 ], [ 113.59377289, -7.80699158 ], [ 113.59392548, -7.80730915 ], [ 113.59403992, -7.8075881 ], [ 113.59414673, -7.80765009 ], [ 113.59420776, -7.80769539 ], [ 113.5945816, -7.80778837 ], [ 113.59474945, -7.80783129 ], [ 113.59501648, -7.80801868 ], [ 113.59509277, -7.80807447 ], [ 113.59529114, -7.80816317 ], [ 113.59567261, -7.80828905 ], [ 113.59618378, -7.80863523 ], [ 113.59648132, -7.80880213 ], [ 113.59656525, -7.8088522 ], [ 113.59671021, -7.80894089 ], [ 113.59709167, -7.80888987 ], [ 113.59722137, -7.80887794 ], [ 113.5973053, -7.80887318 ], [ 113.59738159, -7.80889416 ], [ 113.59749603, -7.80899477 ], [ 113.59762573, -7.80912733 ], [ 113.59780121, -7.80929661 ], [ 113.59790039, -7.80938435 ], [ 113.59810638, -7.80956268 ], [ 113.59832764, -7.80976057 ], [ 113.59853363, -7.80994749 ], [ 113.59889221, -7.81037951 ], [ 113.59896851, -7.81047106 ], [ 113.59920502, -7.81077003 ], [ 113.59931183, -7.81088018 ], [ 113.59999084, -7.81131363 ], [ 113.60069275, -7.81178141 ], [ 113.60079193, -7.81185055 ], [ 113.60092163, -7.81193733 ], [ 113.6009903, -7.81200838 ], [ 113.6010437, -7.81206369 ], [ 113.60112, -7.81219053 ], [ 113.60121918, -7.81236219 ], [ 113.60134888, -7.81258631 ], [ 113.60168457, -7.81297398 ], [ 113.60186768, -7.81312084 ], [ 113.60198212, -7.81321335 ], [ 113.60211182, -7.81328821 ], [ 113.60219574, -7.81334114 ], [ 113.60242462, -7.81344032 ], [ 113.60250854, -7.81350899 ], [ 113.60255432, -7.81357765 ], [ 113.60266876, -7.81382942 ], [ 113.60287476, -7.81415462 ], [ 113.60296631, -7.81428576 ], [ 113.60312653, -7.81452608 ], [ 113.60314941, -7.81464148 ], [ 113.60321808, -7.81493998 ], [ 113.60323334, -7.81514454 ], [ 113.60332489, -7.81547546 ], [ 113.6033783, -7.81566048 ], [ 113.60341644, -7.81577587 ], [ 113.60344696, -7.81585264 ], [ 113.60353851, -7.81608391 ], [ 113.60365295, -7.8163414 ], [ 113.60374451, -7.81645966 ], [ 113.60396576, -7.81654501 ], [ 113.60404968, -7.81657028 ], [ 113.60425568, -7.81663322 ], [ 113.60442352, -7.81673431 ], [ 113.60451508, -7.81689644 ], [ 113.6047287, -7.81728315 ], [ 113.60477448, -7.81737471 ], [ 113.60497284, -7.81772041 ], [ 113.60507965, -7.81785345 ], [ 113.60514832, -7.8179369 ], [ 113.60536957, -7.81828308 ], [ 113.60557556, -7.81848526 ], [ 113.60571289, -7.81859589 ], [ 113.60579681, -7.8186717 ], [ 113.60584259, -7.81873035 ], [ 113.60588074, -7.81879377 ], [ 113.60580444, -7.81926727 ], [ 113.60577393, -7.81936741 ], [ 113.60553741, -7.81989098 ], [ 113.60562134, -7.81991339 ], [ 113.60607147, -7.82022238 ], [ 113.60621643, -7.82035303 ], [ 113.60626984, -7.82040882 ], [ 113.60639191, -7.8205533 ], [ 113.60648346, -7.82066727 ], [ 113.60655975, -7.82076502 ], [ 113.60661316, -7.82087278 ], [ 113.60668945, -7.82099295 ], [ 113.60675049, -7.82107019 ], [ 113.60683441, -7.82116556 ], [ 113.60690308, -7.82123947 ], [ 113.60696411, -7.82131338 ], [ 113.60703278, -7.82140779 ], [ 113.60709381, -7.82150221 ], [ 113.60713959, -7.82156515 ], [ 113.60729218, -7.82174397 ], [ 113.60741425, -7.82186031 ], [ 113.6075058, -7.82196331 ], [ 113.60759735, -7.82206202 ], [ 113.6076889, -7.82213449 ], [ 113.60778809, -7.8222065 ], [ 113.60785675, -7.82225466 ], [ 113.60791779, -7.82230091 ], [ 113.60804749, -7.82239103 ], [ 113.6082077, -7.822505 ], [ 113.60836792, -7.82258606 ], [ 113.60848236, -7.82265615 ], [ 113.60863495, -7.82275629 ], [ 113.60874939, -7.82282209 ], [ 113.60882568, -7.8228693 ], [ 113.60903168, -7.82298374 ], [ 113.60919189, -7.82306147 ], [ 113.60927582, -7.82309103 ], [ 113.609375, -7.82311058 ], [ 113.60948944, -7.82313251 ], [ 113.60959625, -7.82315254 ], [ 113.60972595, -7.82319069 ], [ 113.60980225, -7.82322025 ], [ 113.60992432, -7.82326508 ], [ 113.61001587, -7.82329416 ], [ 113.61008453, -7.82332945 ], [ 113.61025238, -7.82344007 ], [ 113.61032104, -7.82348776 ], [ 113.61038971, -7.82352924 ], [ 113.61051941, -7.82359743 ], [ 113.61063385, -7.82364464 ], [ 113.61070251, -7.82367325 ], [ 113.6108017, -7.82371283 ], [ 113.6109314, -7.82378244 ], [ 113.61101532, -7.82382679 ], [ 113.61109924, -7.82387686 ], [ 113.61118317, -7.8239274 ], [ 113.61127472, -7.82397032 ], [ 113.6113739, -7.82401657 ], [ 113.61135101, -7.82451248 ], [ 113.61139679, -7.82461548 ], [ 113.61149597, -7.82482052 ], [ 113.61164856, -7.8251996 ], [ 113.61088562, -7.82693338 ], [ 113.61036682, -7.82787371 ], [ 113.60969543, -7.82908487 ], [ 113.60943604, -7.83088589 ], [ 113.60939789, -7.83116007 ], [ 113.60910034, -7.83255053 ], [ 113.60674286, -7.83619928 ], [ 113.60671234, -7.83626699 ], [ 113.60650635, -7.83679199 ], [ 113.60617828, -7.83763075 ], [ 113.60595703, -7.83795214 ], [ 113.60337067, -7.84164333 ], [ 113.6031189, -7.84229279 ], [ 113.60280609, -7.84309149 ], [ 113.60234833, -7.84515572 ] ] ] ] } }
]
}
