{
"type": "FeatureCollection",
"name": "Kecamatan Tiris",
"crs": { "type": "name", "properties": { "name": "urn:ogc:def:crs:OGC:1.3:CRS84" } },
"features": [
{ "type": "Feature", "properties": { "GID_0": "IDN", "NAME_0": "Indonesia", "GID_1": "IDN.11_1", "NAME_1": "Jawa Timur", "NL_NAME_1": null, "GID_2": "IDN.11.30_1", "NAME_2": "Probolinggo", "NL_NAME_2": null, "GID_3": "IDN.11.30.22_1", "NAME_3": "Tiris", "VARNAME_3": null, "NL_NAME_3": null, "TYPE_3": "Kecamatan", "ENGTYPE_3": "Sub-district", "CC_3": "3513080", "HASC_3": null }, "geometry": { "type": "MultiPolygon", "coordinates": [ [ [ [ 113.47124481, -8.02232552 ], [ 113.47091675, -8.02235603 ], [ 113.47064209, -8.02241516 ], [ 113.47024536, -8.0224781 ], [ 113.47003174, -8.02248573 ], [ 113.46964264, -8.02254581 ], [ 113.46920776, -8.02254868 ], [ 113.46881866, -8.02260876 ], [ 113.46852875, -8.02266121 ], [ 113.46832275, -8.02270412 ], [ 113.46805573, -8.02279758 ], [ 113.46777344, -8.02286339 ], [ 113.46747589, -8.02289391 ], [ 113.46717072, -8.02289581 ], [ 113.46665192, -8.02290821 ], [ 113.46622467, -8.02291107 ], [ 113.46600342, -8.0228548 ], [ 113.46569061, -8.02279377 ], [ 113.46543884, -8.0227375 ], [ 113.465271, -8.02268124 ], [ 113.46498871, -8.0225811 ], [ 113.46472931, -8.02246857 ], [ 113.46437836, -8.02230453 ], [ 113.4641037, -8.02217293 ], [ 113.46383667, -8.02204418 ], [ 113.46360779, -8.02185726 ], [ 113.46339417, -8.02168941 ], [ 113.46324158, -8.02157307 ], [ 113.46298981, -8.02140236 ], [ 113.46269226, -8.02121258 ], [ 113.46244812, -8.02115726 ], [ 113.46225739, -8.02122211 ], [ 113.4620285, -8.02133179 ], [ 113.46183014, -8.02148914 ], [ 113.461586, -8.02176476 ], [ 113.46128082, -8.02213287 ], [ 113.46107483, -8.02243328 ], [ 113.46099091, -8.022686 ], [ 113.4608078, -8.0229063 ], [ 113.46054077, -8.02319813 ], [ 113.46025848, -8.02343559 ], [ 113.46002197, -8.02359295 ], [ 113.45980835, -8.02377319 ], [ 113.45946503, -8.02394104 ], [ 113.45915222, -8.02412415 ], [ 113.45892334, -8.02421856 ], [ 113.45866394, -8.02432823 ], [ 113.45849609, -8.02439308 ], [ 113.45834351, -8.02449894 ], [ 113.45825958, -8.02467155 ], [ 113.45788574, -8.02461624 ], [ 113.45728302, -8.02450848 ], [ 113.45689392, -8.0244379 ], [ 113.45645142, -8.02437019 ], [ 113.45606995, -8.0243063 ], [ 113.45587158, -8.02422142 ], [ 113.45548248, -8.02410889 ], [ 113.45497894, -8.02394009 ], [ 113.4546814, -8.02382088 ], [ 113.45431519, -8.02366352 ], [ 113.45387268, -8.02366638 ], [ 113.45329285, -8.02361298 ], [ 113.45281982, -8.02361584 ], [ 113.45243835, -8.02364635 ], [ 113.45200348, -8.02373886 ], [ 113.4515686, -8.02384663 ], [ 113.45119476, -8.02392197 ], [ 113.45088196, -8.02400398 ], [ 113.45070648, -8.02405834 ], [ 113.45040131, -8.02411842 ], [ 113.44993591, -8.02433109 ], [ 113.44952393, -8.02443886 ], [ 113.44926453, -8.02450752 ], [ 113.44903564, -8.02457237 ], [ 113.44863892, -8.02467346 ], [ 113.44819641, -8.02467632 ], [ 113.44789124, -8.02473831 ], [ 113.44763947, -8.02475929 ], [ 113.44744873, -8.02466869 ], [ 113.44726563, -8.02466965 ], [ 113.44700623, -8.0247221 ], [ 113.44647217, -8.02472496 ], [ 113.44625854, -8.02466869 ], [ 113.4460144, -8.02460384 ], [ 113.44557953, -8.02454281 ], [ 113.44529724, -8.02454472 ], [ 113.44487, -8.02441025 ], [ 113.44443512, -8.02437115 ], [ 113.4442215, -8.02426434 ], [ 113.44411469, -8.02420807 ], [ 113.44393921, -8.02406597 ], [ 113.44390869, -8.0238409 ], [ 113.44389343, -8.02371502 ], [ 113.44386292, -8.02345085 ], [ 113.4438858, -8.02314854 ], [ 113.44393921, -8.02286816 ], [ 113.44399261, -8.02260971 ], [ 113.44404602, -8.02234459 ], [ 113.44416809, -8.02207279 ], [ 113.44431305, -8.02180481 ], [ 113.44438171, -8.02156258 ], [ 113.44449615, -8.021348 ], [ 113.44454956, -8.02114391 ], [ 113.4446106, -8.02085972 ], [ 113.444664, -8.02068424 ], [ 113.44457245, -8.02038574 ], [ 113.44431305, -8.0200491 ], [ 113.44411469, -8.01981449 ], [ 113.44385529, -8.01950073 ], [ 113.44368744, -8.01931381 ], [ 113.4434433, -8.01906109 ], [ 113.44313812, -8.01873112 ], [ 113.44295502, -8.0185194 ], [ 113.44281769, -8.01834774 ], [ 113.44256592, -8.01801205 ], [ 113.44248199, -8.01778984 ], [ 113.442276, -8.01758385 ], [ 113.44205475, -8.01729965 ], [ 113.4419632, -8.01719093 ], [ 113.44176483, -8.01692772 ], [ 113.4414978, -8.01661968 ], [ 113.44129944, -8.01660824 ], [ 113.44107056, -8.01661015 ], [ 113.44071198, -8.01685143 ], [ 113.44062805, -8.01690865 ], [ 113.44034576, -8.01705551 ], [ 113.44023132, -8.01722813 ], [ 113.44018555, -8.01750088 ], [ 113.44000244, -8.01787472 ], [ 113.44001007, -8.01806259 ], [ 113.43997192, -8.01827621 ], [ 113.43985748, -8.0185957 ], [ 113.43969727, -8.01908112 ], [ 113.43963623, -8.01931381 ], [ 113.4394989, -8.01960754 ], [ 113.4394455, -8.01979256 ], [ 113.43938446, -8.02000046 ], [ 113.43937683, -8.02019501 ], [ 113.43923187, -8.02040577 ], [ 113.43906403, -8.02060413 ], [ 113.43893433, -8.02073574 ], [ 113.43876648, -8.02084541 ], [ 113.43851471, -8.02103806 ], [ 113.43825531, -8.02113438 ], [ 113.43782043, -8.02130032 ], [ 113.43740082, -8.02132511 ], [ 113.4367981, -8.02139187 ], [ 113.43624115, -8.0214529 ], [ 113.43574524, -8.02147198 ], [ 113.43482971, -8.0214777 ], [ 113.43425751, -8.02143002 ], [ 113.43391418, -8.02136898 ], [ 113.4336319, -8.02130699 ], [ 113.43333435, -8.02113724 ], [ 113.43310547, -8.02107716 ], [ 113.43297577, -8.0208807 ], [ 113.4327774, -8.02069283 ], [ 113.43241119, -8.02051735 ], [ 113.43225098, -8.02018929 ], [ 113.43213654, -8.0199461 ], [ 113.43211365, -8.01947117 ], [ 113.43211365, -8.01939011 ], [ 113.43211365, -8.01927376 ], [ 113.43215179, -8.01906967 ], [ 113.43234253, -8.01859093 ], [ 113.43243408, -8.01817894 ], [ 113.43254089, -8.01791382 ], [ 113.43264008, -8.01747704 ], [ 113.43282318, -8.01706791 ], [ 113.43287659, -8.01678085 ], [ 113.43292999, -8.01644325 ], [ 113.43292999, -8.01622963 ], [ 113.4327774, -8.01600742 ], [ 113.43239594, -8.01575184 ], [ 113.43210602, -8.01550198 ], [ 113.43170166, -8.0151825 ], [ 113.43132782, -8.01501274 ], [ 113.4309082, -8.01477718 ], [ 113.43055725, -8.01455879 ], [ 113.43022919, -8.01430321 ], [ 113.43005371, -8.01417351 ], [ 113.42965698, -8.01369858 ], [ 113.42942047, -8.01355648 ], [ 113.42889404, -8.0131197 ], [ 113.42840576, -8.0128746 ], [ 113.42816162, -8.01266575 ], [ 113.42770386, -8.01237583 ], [ 113.42739868, -8.01218319 ], [ 113.42694855, -8.01190186 ], [ 113.42661285, -8.01172256 ], [ 113.42619324, -8.01159477 ], [ 113.42578125, -8.01133251 ], [ 113.42536926, -8.01118565 ], [ 113.42505646, -8.01118088 ], [ 113.42477417, -8.01118279 ], [ 113.42449951, -8.01126766 ], [ 113.42410278, -8.01133919 ], [ 113.42382813, -8.01141071 ], [ 113.4234848, -8.0114851 ], [ 113.42279053, -8.01150036 ], [ 113.42234802, -8.01156044 ], [ 113.42211151, -8.01156235 ], [ 113.42188263, -8.01144886 ], [ 113.42166901, -8.01138687 ], [ 113.42115784, -8.0112524 ], [ 113.42058563, -8.0111227 ], [ 113.42025757, -8.01098728 ], [ 113.41988373, -8.01088142 ], [ 113.41962433, -8.01088333 ], [ 113.41928864, -8.01080894 ], [ 113.41921234, -8.01079273 ], [ 113.41880035, -8.01079559 ], [ 113.41848755, -8.01082611 ], [ 113.41829681, -8.01086903 ], [ 113.41770172, -8.01087284 ], [ 113.41733551, -8.01094151 ], [ 113.41699982, -8.01094341 ], [ 113.41660309, -8.01101017 ], [ 113.41573334, -8.01112366 ], [ 113.41550446, -8.01112461 ], [ 113.41532135, -8.01115417 ], [ 113.41519928, -8.01114464 ], [ 113.41506958, -8.01113415 ], [ 113.41496277, -8.01105785 ], [ 113.414711, -8.01092911 ], [ 113.41454315, -8.01081562 ], [ 113.41436768, -8.01063442 ], [ 113.41417694, -8.01045704 ], [ 113.41400909, -8.01029301 ], [ 113.4138031, -8.01032448 ], [ 113.41358185, -8.0103178 ], [ 113.41329193, -8.01051998 ], [ 113.41301727, -8.01076031 ], [ 113.41273499, -8.01099873 ], [ 113.41246033, -8.01128006 ], [ 113.41222382, -8.01153374 ], [ 113.41181946, -8.01167297 ], [ 113.41155243, -8.01176167 ], [ 113.41098785, -8.01196098 ], [ 113.41049194, -8.0121069 ], [ 113.41021729, -8.0122366 ], [ 113.40994263, -8.01240444 ], [ 113.40966034, -8.0126133 ], [ 113.40949249, -8.01270962 ], [ 113.40922546, -8.0129528 ], [ 113.40898895, -8.01313591 ], [ 113.40871429, -8.01323032 ], [ 113.40847778, -8.01308823 ], [ 113.4082489, -8.01267242 ], [ 113.40795898, -8.0121069 ], [ 113.40776825, -8.01176739 ], [ 113.40758514, -8.01144981 ], [ 113.4074707, -8.01115799 ], [ 113.40726471, -8.01081467 ], [ 113.40708923, -8.01038551 ], [ 113.40693665, -8.01013851 ], [ 113.40667725, -8.00977325 ], [ 113.40653992, -8.00954533 ], [ 113.40636444, -8.00923729 ], [ 113.40625763, -8.00908756 ], [ 113.40609741, -8.00896454 ], [ 113.40576935, -8.00863838 ], [ 113.40561676, -8.00854111 ], [ 113.40525818, -8.00828171 ], [ 113.40493011, -8.00804043 ], [ 113.40467834, -8.00799179 ], [ 113.40442657, -8.0079174 ], [ 113.40402222, -8.00778294 ], [ 113.40373993, -8.0076189 ], [ 113.40327454, -8.0073061 ], [ 113.40301514, -8.00720596 ], [ 113.40280151, -8.00701618 ], [ 113.40261078, -8.00682259 ], [ 113.40247345, -8.00662327 ], [ 113.40220642, -8.00628662 ], [ 113.40197754, -8.00593758 ], [ 113.40183258, -8.00578213 ], [ 113.40164948, -8.00553799 ], [ 113.40145874, -8.00530338 ], [ 113.40118408, -8.00495148 ], [ 113.40101624, -8.0048027 ], [ 113.40074921, -8.00458145 ], [ 113.40044403, -8.00435734 ], [ 113.40020752, -8.0041647 ], [ 113.39990997, -8.00395012 ], [ 113.39958191, -8.00376034 ], [ 113.399086, -8.00355339 ], [ 113.39871979, -8.00353336 ], [ 113.39834595, -8.00344276 ], [ 113.39801025, -8.00334835 ], [ 113.39767456, -8.00325298 ], [ 113.39743805, -8.00313282 ], [ 113.39716339, -8.00300121 ], [ 113.39698792, -8.00293541 ], [ 113.39672852, -8.00278091 ], [ 113.3964386, -8.00255299 ], [ 113.39627075, -8.00234413 ], [ 113.39606476, -8.00217628 ], [ 113.39591217, -8.0021286 ], [ 113.39577484, -8.00202847 ], [ 113.39565277, -8.00128937 ], [ 113.39564514, -8.00086308 ], [ 113.39566803, -8.00011349 ], [ 113.39554596, -7.9999752 ], [ 113.39540863, -7.99993706 ], [ 113.39531708, -7.9999218 ], [ 113.39524841, -7.9998827 ], [ 113.39501953, -7.9997611 ], [ 113.39461517, -7.99944305 ], [ 113.39280701, -7.99823904 ], [ 113.39233398, -7.99794197 ], [ 113.39163208, -7.99744129 ], [ 113.39128876, -7.99727488 ], [ 113.39110565, -7.99739742 ], [ 113.3910141, -7.99745035 ], [ 113.39099121, -7.99774504 ], [ 113.39080811, -7.9989872 ], [ 113.39059448, -7.99965572 ], [ 113.39050293, -7.99990988 ], [ 113.39047241, -8.00000095 ], [ 113.39038086, -8.0002594 ], [ 113.39009094, -8.00109863 ], [ 113.38980103, -8.00187778 ], [ 113.38948059, -8.00245571 ], [ 113.38924408, -8.002882 ], [ 113.38906097, -8.0032711 ], [ 113.38896179, -8.00349426 ], [ 113.38863373, -8.00409317 ], [ 113.38866425, -8.00426579 ], [ 113.38871002, -8.00457764 ], [ 113.38864899, -8.00479794 ], [ 113.38850403, -8.00515938 ], [ 113.38834381, -8.00571251 ], [ 113.38833618, -8.00582695 ], [ 113.38832855, -8.00607109 ], [ 113.38828278, -8.0063448 ], [ 113.38816071, -8.0066452 ], [ 113.38793945, -8.00717831 ], [ 113.38809967, -8.00760841 ], [ 113.38816071, -8.00783062 ], [ 113.38809967, -8.00817394 ], [ 113.38802338, -8.00844479 ], [ 113.38806915, -8.00870895 ], [ 113.38816071, -8.00909901 ], [ 113.38811493, -8.00925255 ], [ 113.38795471, -8.00981045 ], [ 113.38803864, -8.01017189 ], [ 113.38800049, -8.01066017 ], [ 113.38796997, -8.01086807 ], [ 113.38790894, -8.01114178 ], [ 113.38796234, -8.01181698 ], [ 113.38784027, -8.01200294 ], [ 113.38774872, -8.01226616 ], [ 113.38764954, -8.01255608 ], [ 113.38754272, -8.01286411 ], [ 113.38716888, -8.01365662 ], [ 113.38703918, -8.01377296 ], [ 113.38697052, -8.01383495 ], [ 113.38674927, -8.0139637 ], [ 113.3866272, -8.01399612 ], [ 113.38641357, -8.01404095 ], [ 113.38625336, -8.01403809 ], [ 113.38611603, -8.01403618 ], [ 113.38599396, -8.01395226 ], [ 113.38570404, -8.01373768 ], [ 113.38550568, -8.01377296 ], [ 113.38530731, -8.01387787 ], [ 113.38493347, -8.01403618 ], [ 113.38471985, -8.01395321 ], [ 113.38440704, -8.01379395 ], [ 113.3841095, -8.0138092 ], [ 113.38365173, -8.01384735 ], [ 113.38323975, -8.01379108 ], [ 113.38302612, -8.01387787 ], [ 113.38287354, -8.01401806 ], [ 113.38276672, -8.01425171 ], [ 113.38260651, -8.01454067 ], [ 113.38245392, -8.01474571 ], [ 113.38233948, -8.01489639 ], [ 113.38219452, -8.01497841 ], [ 113.3817749, -8.01516819 ], [ 113.38170624, -8.01521301 ], [ 113.38111115, -8.01556683 ], [ 113.38078308, -8.01587296 ], [ 113.38062286, -8.01603222 ], [ 113.38045502, -8.01619816 ], [ 113.38022614, -8.01623631 ], [ 113.37992096, -8.01631832 ], [ 113.37980652, -8.01644897 ], [ 113.37979889, -8.01663113 ], [ 113.37976074, -8.01680946 ], [ 113.3796463, -8.01699829 ], [ 113.3794632, -8.01725769 ], [ 113.3793335, -8.01737499 ], [ 113.37910461, -8.01747608 ], [ 113.37871552, -8.01761341 ], [ 113.37864685, -8.01775932 ], [ 113.37864685, -8.01789379 ], [ 113.37872314, -8.01805019 ], [ 113.37890625, -8.01817608 ], [ 113.3790741, -8.01821613 ], [ 113.37942505, -8.01830482 ], [ 113.37966919, -8.01846981 ], [ 113.37970734, -8.01853561 ], [ 113.37966156, -8.01867962 ], [ 113.3795166, -8.01877022 ], [ 113.37932587, -8.01884747 ], [ 113.37893677, -8.0189991 ], [ 113.37880707, -8.01912594 ], [ 113.37876892, -8.01927471 ], [ 113.37876129, -8.0195713 ], [ 113.37883759, -8.01984596 ], [ 113.37895966, -8.02027607 ], [ 113.37889862, -8.02044106 ], [ 113.37878418, -8.02050495 ], [ 113.37838745, -8.02058315 ], [ 113.37805939, -8.02067184 ], [ 113.37760925, -8.02086926 ], [ 113.37713623, -8.02105713 ], [ 113.37654114, -8.02131557 ], [ 113.37640381, -8.02139378 ], [ 113.37609863, -8.02157211 ], [ 113.37586212, -8.02176952 ], [ 113.37574005, -8.02195549 ], [ 113.37564087, -8.02221966 ], [ 113.37545013, -8.02272892 ], [ 113.37529755, -8.02288246 ], [ 113.37517548, -8.02287579 ], [ 113.37509918, -8.02283573 ], [ 113.37496948, -8.0226841 ], [ 113.37486267, -8.0224781 ], [ 113.37459564, -8.0218401 ], [ 113.37440491, -8.02171516 ], [ 113.37420654, -8.0216732 ], [ 113.37404633, -8.02170753 ], [ 113.37333679, -8.02192402 ], [ 113.37290955, -8.02206516 ], [ 113.37245178, -8.02221966 ], [ 113.37234497, -8.0221529 ], [ 113.37224579, -8.02200508 ], [ 113.37197113, -8.02154255 ], [ 113.37184906, -8.02147865 ], [ 113.3717041, -8.02161503 ], [ 113.37168884, -8.02175903 ], [ 113.3717041, -8.02222252 ], [ 113.37171173, -8.02232265 ], [ 113.37174225, -8.02311802 ], [ 113.37160492, -8.02332878 ], [ 113.37153625, -8.02338791 ], [ 113.37136841, -8.02344799 ], [ 113.37124634, -8.02342796 ], [ 113.37104034, -8.02323914 ], [ 113.37078857, -8.02296352 ], [ 113.37058258, -8.02283001 ], [ 113.37029266, -8.02274323 ], [ 113.37004089, -8.02272701 ], [ 113.36980438, -8.02277088 ], [ 113.36966705, -8.02284622 ], [ 113.36962128, -8.02294827 ], [ 113.36961365, -8.02314663 ], [ 113.36921692, -8.02355194 ], [ 113.36907959, -8.02370548 ], [ 113.36901093, -8.02390194 ], [ 113.3690033, -8.02470398 ], [ 113.36898804, -8.02488422 ], [ 113.36888885, -8.02495289 ], [ 113.36843872, -8.02488232 ], [ 113.36817932, -8.02484608 ], [ 113.36802673, -8.02486038 ], [ 113.36769867, -8.02520657 ], [ 113.36750031, -8.02541828 ], [ 113.36726379, -8.02556896 ], [ 113.36698151, -8.02564907 ], [ 113.36677551, -8.02569103 ], [ 113.36666107, -8.02575397 ], [ 113.36658478, -8.02589512 ], [ 113.36677551, -8.02703285 ], [ 113.36681366, -8.02733898 ], [ 113.3667984, -8.02748013 ], [ 113.36672211, -8.0276022 ], [ 113.36653137, -8.02772903 ], [ 113.3664093, -8.02777004 ], [ 113.36624908, -8.02782345 ], [ 113.36593628, -8.02783108 ], [ 113.36526489, -8.02784729 ], [ 113.3633728, -8.02771282 ], [ 113.36304474, -8.02768135 ], [ 113.36290741, -8.02751446 ], [ 113.36277771, -8.02726078 ], [ 113.36273193, -8.02703094 ], [ 113.36279297, -8.02684498 ], [ 113.36309814, -8.02628899 ], [ 113.3632431, -8.02600861 ], [ 113.3635025, -8.02572632 ], [ 113.36421967, -8.02539921 ], [ 113.36448669, -8.02526665 ], [ 113.36477661, -8.02504635 ], [ 113.36496735, -8.02483463 ], [ 113.36509705, -8.02458096 ], [ 113.36545563, -8.02366924 ], [ 113.36562347, -8.0232687 ], [ 113.36588287, -8.02290154 ], [ 113.36628723, -8.02245235 ], [ 113.36634827, -8.02238655 ], [ 113.36663818, -8.02207088 ], [ 113.36681366, -8.02181721 ], [ 113.36685181, -8.02173805 ], [ 113.36709595, -8.02145386 ], [ 113.36710358, -8.02125454 ], [ 113.3670578, -8.02095318 ], [ 113.36693573, -8.02037144 ], [ 113.36688995, -8.02015114 ], [ 113.3669281, -8.01992416 ], [ 113.36689758, -8.01953506 ], [ 113.36679077, -8.0191021 ], [ 113.36654663, -8.01848698 ], [ 113.36638641, -8.01810932 ], [ 113.36603546, -8.01759434 ], [ 113.36592865, -8.01741409 ], [ 113.36579895, -8.01720142 ], [ 113.365448, -8.01645184 ], [ 113.3653183, -8.01629543 ], [ 113.36520386, -8.01607704 ], [ 113.36507416, -8.01555347 ], [ 113.36497498, -8.01528835 ], [ 113.36474609, -8.01497459 ], [ 113.36452484, -8.01480484 ], [ 113.36394501, -8.01436615 ], [ 113.3638916, -8.01419353 ], [ 113.36393738, -8.01402569 ], [ 113.36412811, -8.01339054 ], [ 113.36414337, -8.0129118 ], [ 113.36416626, -8.01225281 ], [ 113.36425781, -8.01201153 ], [ 113.36446381, -8.01171494 ], [ 113.36457825, -8.01145172 ], [ 113.36454773, -8.01128292 ], [ 113.36438751, -8.0109911 ], [ 113.36428833, -8.0107708 ], [ 113.36422729, -8.01064587 ], [ 113.36418152, -8.01056671 ], [ 113.36392975, -8.01032734 ], [ 113.36346436, -8.00992107 ], [ 113.36341858, -8.00984859 ], [ 113.36339569, -8.0096941 ], [ 113.36338806, -8.00943661 ], [ 113.36335754, -8.00927258 ], [ 113.36326599, -8.00899696 ], [ 113.36322021, -8.00890446 ], [ 113.36305237, -8.00866604 ], [ 113.36277771, -8.00829983 ], [ 113.3625946, -8.00795269 ], [ 113.36251068, -8.00763702 ], [ 113.36244965, -8.00726223 ], [ 113.36239624, -8.0067234 ], [ 113.36239624, -8.00630283 ], [ 113.36238861, -8.00575829 ], [ 113.36231232, -8.00523186 ], [ 113.36226654, -8.00489521 ], [ 113.36223602, -8.00467682 ], [ 113.36214447, -8.00414753 ], [ 113.36206055, -8.00363636 ], [ 113.36203766, -8.00323009 ], [ 113.36190033, -8.00272369 ], [ 113.36162567, -8.00201607 ], [ 113.3615799, -8.00165749 ], [ 113.36154175, -8.00139999 ], [ 113.36154938, -8.00128651 ], [ 113.36161804, -8.00091171 ], [ 113.36167145, -8.00054741 ], [ 113.36165619, -7.99999952 ], [ 113.36164856, -7.99984407 ], [ 113.3616333, -7.99956751 ], [ 113.36154175, -7.99880552 ], [ 113.36154175, -7.99858236 ], [ 113.36154175, -7.99830723 ], [ 113.3615799, -7.99757338 ], [ 113.36155701, -7.99709558 ], [ 113.36155701, -7.99681711 ], [ 113.36151123, -7.99615145 ], [ 113.36130524, -7.99582195 ], [ 113.36123657, -7.99577427 ], [ 113.36109161, -7.99537468 ], [ 113.36103058, -7.99518633 ], [ 113.36101532, -7.99502182 ], [ 113.3609848, -7.99476719 ], [ 113.36091614, -7.99440575 ], [ 113.36089325, -7.99426889 ], [ 113.36089325, -7.99408245 ], [ 113.36083221, -7.99375677 ], [ 113.36079407, -7.99337959 ], [ 113.36074829, -7.99310875 ], [ 113.36065674, -7.9927845 ], [ 113.3605957, -7.9926796 ], [ 113.36029053, -7.99226093 ], [ 113.36009979, -7.99196386 ], [ 113.3599472, -7.99169779 ], [ 113.35986328, -7.99149466 ], [ 113.35974121, -7.99118471 ], [ 113.3596344, -7.99100542 ], [ 113.35951996, -7.9908514 ], [ 113.359375, -7.99062443 ], [ 113.35928345, -7.99046659 ], [ 113.35921478, -7.99025154 ], [ 113.35919189, -7.99012804 ], [ 113.35917664, -7.99001646 ], [ 113.35910034, -7.9897871 ], [ 113.35908508, -7.98965311 ], [ 113.35905457, -7.98958015 ], [ 113.35892487, -7.98935509 ], [ 113.35868835, -7.98906326 ], [ 113.35847473, -7.98863888 ], [ 113.35831451, -7.98804569 ], [ 113.35824585, -7.98714733 ], [ 113.3582077, -7.98657799 ], [ 113.3582077, -7.98641062 ], [ 113.35817719, -7.98623085 ], [ 113.35811615, -7.98604298 ], [ 113.35808563, -7.98594999 ], [ 113.35801697, -7.98579884 ], [ 113.35781097, -7.98556185 ], [ 113.3576355, -7.98531103 ], [ 113.35753632, -7.98511314 ], [ 113.35743713, -7.98490143 ], [ 113.35734558, -7.98464918 ], [ 113.35723114, -7.98445559 ], [ 113.35709381, -7.9842453 ], [ 113.35700226, -7.98416805 ], [ 113.35694122, -7.98411274 ], [ 113.35680389, -7.98401022 ], [ 113.3567276, -7.98393488 ], [ 113.35658264, -7.9838295 ], [ 113.35647583, -7.98373461 ], [ 113.35638428, -7.98369217 ], [ 113.35613251, -7.98355055 ], [ 113.35597229, -7.98344755 ], [ 113.35587311, -7.98339272 ], [ 113.35569, -7.98326111 ], [ 113.35542297, -7.98312187 ], [ 113.35530853, -7.98305225 ], [ 113.35507965, -7.98298454 ], [ 113.35493469, -7.98288536 ], [ 113.35485077, -7.9828229 ], [ 113.35457611, -7.98262835 ], [ 113.35440063, -7.98252535 ], [ 113.35300446, -7.98173857 ], [ 113.35240936, -7.98151827 ], [ 113.35176849, -7.98109055 ], [ 113.3509903, -7.98050499 ], [ 113.35031891, -7.979918 ], [ 113.34967041, -7.97925091 ], [ 113.34868622, -7.97818708 ], [ 113.34799194, -7.97742462 ], [ 113.34741211, -7.97674179 ], [ 113.34690094, -7.97615385 ], [ 113.34668732, -7.97580385 ], [ 113.3465271, -7.97550011 ], [ 113.34650421, -7.97518206 ], [ 113.34654999, -7.97422409 ], [ 113.34661102, -7.97320223 ], [ 113.34664917, -7.97230768 ], [ 113.34669495, -7.9716692 ], [ 113.34673309, -7.9711113 ], [ 113.3467865, -7.97035933 ], [ 113.34679413, -7.969769 ], [ 113.34682465, -7.96929932 ], [ 113.3468399, -7.96853924 ], [ 113.34684753, -7.96789026 ], [ 113.34686279, -7.96705437 ], [ 113.34675598, -7.96601725 ], [ 113.34667969, -7.96513891 ], [ 113.34657288, -7.96443796 ], [ 113.34650421, -7.96354675 ], [ 113.34646606, -7.9629221 ], [ 113.34642792, -7.96191645 ], [ 113.34635925, -7.96065569 ], [ 113.34619141, -7.95966673 ], [ 113.34604645, -7.95891762 ], [ 113.34587097, -7.95833731 ], [ 113.34558868, -7.95769072 ], [ 113.34528351, -7.95686245 ], [ 113.34495544, -7.95606613 ], [ 113.34459686, -7.95538139 ], [ 113.34420013, -7.95472622 ], [ 113.34365845, -7.95393419 ], [ 113.34351349, -7.95374346 ], [ 113.34333801, -7.95350504 ], [ 113.34281921, -7.95299864 ], [ 113.34191132, -7.95216608 ], [ 113.34077454, -7.95129108 ], [ 113.34003448, -7.95049047 ], [ 113.33942413, -7.94967985 ], [ 113.33864594, -7.9484868 ], [ 113.33805084, -7.94762802 ], [ 113.33735657, -7.94675398 ], [ 113.33673859, -7.94608688 ], [ 113.33625793, -7.94561052 ], [ 113.33572388, -7.94500685 ], [ 113.33551788, -7.94472361 ], [ 113.33534241, -7.94414616 ], [ 113.33526611, -7.94390821 ], [ 113.3349762, -7.94338274 ], [ 113.3346405, -7.9429698 ], [ 113.33415222, -7.94247723 ], [ 113.33365631, -7.94198561 ], [ 113.33323669, -7.9415884 ], [ 113.33237457, -7.94102526 ], [ 113.33197784, -7.94052601 ], [ 113.33165741, -7.94003296 ], [ 113.33115387, -7.93931723 ], [ 113.33071899, -7.93863344 ], [ 113.33052826, -7.93831587 ], [ 113.33039856, -7.93809223 ], [ 113.33005524, -7.93745565 ], [ 113.32891846, -7.93600988 ], [ 113.32875061, -7.93579721 ], [ 113.32861328, -7.93559694 ], [ 113.32855988, -7.93538046 ], [ 113.32855225, -7.93517113 ], [ 113.32852936, -7.9346118 ], [ 113.32853699, -7.9343071 ], [ 113.3285141, -7.93406439 ], [ 113.3285141, -7.9338212 ], [ 113.32849884, -7.93351364 ], [ 113.32843018, -7.93314886 ], [ 113.32839966, -7.9330821 ], [ 113.3282547, -7.93274736 ], [ 113.32826996, -7.93258333 ], [ 113.32827759, -7.93223953 ], [ 113.32818604, -7.93196297 ], [ 113.32805634, -7.93185902 ], [ 113.32794952, -7.93185806 ], [ 113.32783508, -7.93181229 ], [ 113.3277359, -7.93169451 ], [ 113.32738495, -7.93116951 ], [ 113.32727051, -7.93099308 ], [ 113.32698059, -7.93075323 ], [ 113.32666779, -7.93052959 ], [ 113.32647705, -7.93042326 ], [ 113.3263855, -7.93030214 ], [ 113.32637787, -7.93019772 ], [ 113.32637024, -7.93002748 ], [ 113.32627869, -7.92985535 ], [ 113.32614136, -7.92976093 ], [ 113.32595062, -7.92969704 ], [ 113.32568359, -7.92957687 ], [ 113.32550049, -7.92941284 ], [ 113.32545471, -7.92927265 ], [ 113.32535553, -7.92897606 ], [ 113.32518005, -7.92874908 ], [ 113.32501984, -7.92872238 ], [ 113.32433319, -7.92865467 ], [ 113.32424164, -7.92864561 ], [ 113.32415009, -7.92869139 ], [ 113.32392883, -7.92871618 ], [ 113.32374573, -7.9286375 ], [ 113.3234024, -7.92840528 ], [ 113.32273865, -7.92806149 ], [ 113.32215118, -7.9278574 ], [ 113.32157135, -7.92768526 ], [ 113.32146454, -7.92765808 ], [ 113.32062531, -7.92745066 ], [ 113.3196106, -7.9272809 ], [ 113.31874847, -7.92715788 ], [ 113.3179245, -7.92709875 ], [ 113.31694794, -7.92716646 ], [ 113.31590271, -7.92730618 ], [ 113.31529999, -7.92738485 ], [ 113.3147049, -7.92740393 ], [ 113.3143692, -7.92736816 ], [ 113.31381226, -7.92731333 ], [ 113.3132019, -7.92720461 ], [ 113.31233215, -7.92705011 ], [ 113.31159973, -7.92695808 ], [ 113.31069946, -7.92680359 ], [ 113.3105545, -7.92678165 ], [ 113.31005096, -7.9267025 ], [ 113.30930328, -7.92658806 ], [ 113.30828857, -7.92649746 ], [ 113.30742645, -7.92651844 ], [ 113.30645752, -7.92657995 ], [ 113.3066864, -7.92580986 ], [ 113.30683136, -7.92511988 ], [ 113.30684662, -7.92463017 ], [ 113.30680084, -7.92412996 ], [ 113.30658722, -7.92359018 ], [ 113.30635834, -7.92325926 ], [ 113.30612183, -7.92291021 ], [ 113.30596161, -7.9227581 ], [ 113.30549622, -7.92231989 ], [ 113.30465698, -7.92174006 ], [ 113.30400848, -7.92141008 ], [ 113.30364227, -7.92134142 ], [ 113.30354309, -7.92130995 ], [ 113.30342102, -7.92122555 ], [ 113.30332184, -7.92113018 ], [ 113.30303955, -7.92078018 ], [ 113.30290222, -7.92045021 ], [ 113.30293274, -7.92020988 ], [ 113.30267334, -7.91989994 ], [ 113.30220032, -7.91929007 ], [ 113.30207825, -7.91907978 ], [ 113.30197144, -7.9186902 ], [ 113.30191803, -7.91843557 ], [ 113.30182648, -7.91804981 ], [ 113.30178833, -7.91770983 ], [ 113.30174255, -7.91735983 ], [ 113.30171204, -7.91729021 ], [ 113.30162048, -7.91711998 ], [ 113.30107117, -7.91662979 ], [ 113.30075073, -7.91651011 ], [ 113.30042267, -7.91646004 ], [ 113.30019379, -7.91634989 ], [ 113.30001831, -7.91615009 ], [ 113.29994965, -7.91599989 ], [ 113.29994202, -7.91575003 ], [ 113.29994965, -7.91507006 ], [ 113.29997253, -7.91492987 ], [ 113.3000412, -7.91466999 ], [ 113.30030823, -7.91357994 ], [ 113.30042267, -7.91312981 ], [ 113.30043793, -7.91298008 ], [ 113.30045319, -7.91289997 ], [ 113.30049896, -7.91266012 ], [ 113.30062866, -7.9114399 ], [ 113.30059052, -7.91079998 ], [ 113.30057526, -7.91072273 ], [ 113.30049896, -7.91026211 ], [ 113.30065155, -7.90957403 ], [ 113.30072784, -7.9088645 ], [ 113.3006897, -7.90832472 ], [ 113.30062103, -7.9078021 ], [ 113.30062866, -7.90762663 ], [ 113.30063629, -7.9073801 ], [ 113.30063629, -7.90690756 ], [ 113.30068207, -7.90650225 ], [ 113.30064392, -7.90592909 ], [ 113.30064392, -7.90565872 ], [ 113.30064392, -7.90527105 ], [ 113.30063629, -7.9048152 ], [ 113.30060577, -7.90435982 ], [ 113.30059814, -7.90388727 ], [ 113.30064392, -7.90327978 ], [ 113.30066681, -7.90311241 ], [ 113.30069733, -7.90287447 ], [ 113.30072784, -7.90246916 ], [ 113.30092621, -7.9019618 ], [ 113.30097961, -7.90172529 ], [ 113.30104065, -7.90133667 ], [ 113.30105591, -7.90094852 ], [ 113.30104828, -7.90069199 ], [ 113.30106354, -7.90057993 ], [ 113.30101776, -7.90036011 ], [ 113.30101013, -7.90010977 ], [ 113.30095673, -7.89968014 ], [ 113.30065918, -7.89854002 ], [ 113.30063629, -7.89820004 ], [ 113.3006897, -7.89748001 ], [ 113.30075836, -7.89728022 ], [ 113.30092621, -7.89699984 ], [ 113.3010788, -7.89673996 ], [ 113.30113983, -7.89659977 ], [ 113.30106354, -7.89625978 ], [ 113.30106354, -7.8961401 ], [ 113.3010025, -7.89574003 ], [ 113.30091858, -7.89529991 ], [ 113.30098724, -7.89505005 ], [ 113.30103302, -7.89471006 ], [ 113.30098724, -7.89414978 ], [ 113.30092621, -7.89400005 ], [ 113.3008194, -7.89386988 ], [ 113.30053711, -7.89362001 ], [ 113.30049133, -7.89346981 ], [ 113.30049133, -7.89331007 ], [ 113.30052948, -7.89307022 ], [ 113.30065155, -7.89262009 ], [ 113.3009491, -7.89229012 ], [ 113.30117798, -7.89211988 ], [ 113.30152893, -7.89189005 ], [ 113.30196381, -7.89164019 ], [ 113.30252075, -7.89132023 ], [ 113.30304718, -7.89105988 ], [ 113.30343628, -7.89089012 ], [ 113.30393982, -7.89070988 ], [ 113.30448914, -7.89054012 ], [ 113.30496216, -7.89039993 ], [ 113.30519867, -7.89034081 ], [ 113.30548859, -7.89027023 ], [ 113.30583191, -7.89019012 ], [ 113.30634308, -7.89006996 ], [ 113.30683899, -7.88998985 ], [ 113.30732727, -7.88993979 ], [ 113.30818176, -7.88986015 ], [ 113.30937195, -7.88985014 ], [ 113.31021881, -7.88986015 ], [ 113.3110733, -7.89006996 ], [ 113.31128693, -7.89023018 ], [ 113.31160736, -7.89048004 ], [ 113.31240845, -7.89073992 ], [ 113.31345367, -7.89068985 ], [ 113.31401825, -7.8905201 ], [ 113.31417084, -7.89041948 ], [ 113.31450653, -7.89020014 ], [ 113.31497955, -7.88993979 ], [ 113.31533051, -7.88973999 ], [ 113.31565094, -7.88944006 ], [ 113.31562805, -7.88913012 ], [ 113.3155899, -7.88855982 ], [ 113.31559753, -7.88829994 ], [ 113.31561279, -7.88816977 ], [ 113.31552887, -7.88804007 ], [ 113.31546783, -7.88799 ], [ 113.31539154, -7.88795996 ], [ 113.31510162, -7.88785982 ], [ 113.31459045, -7.88767004 ], [ 113.31450653, -7.88764 ], [ 113.31400299, -7.88739014 ], [ 113.31388855, -7.88741016 ], [ 113.31356812, -7.8874898 ], [ 113.3134079, -7.8874402 ], [ 113.3132782, -7.88734007 ], [ 113.31324005, -7.88721991 ], [ 113.31311035, -7.88686991 ], [ 113.31286621, -7.88657999 ], [ 113.31272125, -7.88646984 ], [ 113.31242371, -7.88641024 ], [ 113.31208801, -7.8863802 ], [ 113.31201935, -7.88633013 ], [ 113.31186676, -7.88618994 ], [ 113.31156158, -7.88585997 ], [ 113.31118774, -7.88567019 ], [ 113.31082916, -7.88547277 ], [ 113.31157684, -7.88406038 ], [ 113.31373596, -7.88171482 ], [ 113.31380463, -7.88166428 ], [ 113.31541443, -7.88045788 ], [ 113.31590271, -7.87984085 ], [ 113.31628418, -7.87936783 ], [ 113.31638336, -7.87913609 ], [ 113.31648254, -7.87892103 ], [ 113.31697845, -7.87778997 ], [ 113.31716156, -7.87708235 ], [ 113.31729889, -7.87654018 ], [ 113.3174057, -7.87545443 ], [ 113.31750488, -7.87409735 ], [ 113.31749725, -7.87344599 ], [ 113.31747437, -7.87257624 ], [ 113.31743622, -7.87149334 ], [ 113.3170929, -7.86921597 ], [ 113.31642914, -7.86683226 ], [ 113.31532288, -7.86417913 ], [ 113.31336975, -7.86213875 ], [ 113.31378937, -7.86201 ], [ 113.31443787, -7.86184978 ], [ 113.31519318, -7.8617301 ], [ 113.31555176, -7.86175013 ], [ 113.31627655, -7.8618598 ], [ 113.31652832, -7.86203003 ], [ 113.31690216, -7.86214018 ], [ 113.31706238, -7.86223984 ], [ 113.31726074, -7.86234999 ], [ 113.31728363, -7.86245012 ], [ 113.31797028, -7.86280012 ], [ 113.31846619, -7.86310005 ], [ 113.31873322, -7.86317015 ], [ 113.31964111, -7.86327982 ], [ 113.32010651, -7.86331987 ], [ 113.32084656, -7.86337996 ], [ 113.3212738, -7.86337996 ], [ 113.32123566, -7.86391401 ], [ 113.32121277, -7.86424017 ], [ 113.32141876, -7.8645401 ], [ 113.3214035, -7.86477995 ], [ 113.32138824, -7.86517 ], [ 113.32135773, -7.86555004 ], [ 113.32128906, -7.86579227 ], [ 113.32124329, -7.86595011 ], [ 113.32122803, -7.86616898 ], [ 113.32111359, -7.86605406 ], [ 113.32103729, -7.86601305 ], [ 113.32093048, -7.86597252 ], [ 113.32079315, -7.86594009 ], [ 113.32062531, -7.86592436 ], [ 113.3203125, -7.86592627 ], [ 113.32006836, -7.8659277 ], [ 113.3199234, -7.86598635 ], [ 113.31987, -7.86606932 ], [ 113.31983185, -7.86619377 ], [ 113.31981659, -7.86630964 ], [ 113.31981659, -7.86639214 ], [ 113.31980896, -7.86658287 ], [ 113.31990051, -7.86672735 ], [ 113.31990051, -7.86680412 ], [ 113.31997681, -7.86701441 ], [ 113.32000732, -7.86717939 ], [ 113.32008362, -7.86758566 ], [ 113.32012177, -7.86800671 ], [ 113.32009125, -7.86836815 ], [ 113.32009125, -7.86874437 ], [ 113.32009125, -7.86900043 ], [ 113.31997681, -7.86951256 ], [ 113.31991577, -7.8697238 ], [ 113.31988525, -7.86982918 ], [ 113.31978607, -7.87056732 ], [ 113.31996918, -7.87074661 ], [ 113.32015228, -7.870821 ], [ 113.32026672, -7.87094069 ], [ 113.32048035, -7.87111998 ], [ 113.32080078, -7.87123871 ], [ 113.32128143, -7.87132645 ], [ 113.32141876, -7.87132549 ], [ 113.32161713, -7.87149 ], [ 113.32162476, -7.87156439 ], [ 113.32163239, -7.87172365 ], [ 113.3216629, -7.87203169 ], [ 113.32167053, -7.87230253 ], [ 113.32165527, -7.87249851 ], [ 113.32165527, -7.87291956 ], [ 113.32159424, -7.87315273 ], [ 113.32159424, -7.87347698 ], [ 113.32185364, -7.87376165 ], [ 113.32211304, -7.87393427 ], [ 113.32232666, -7.87402964 ], [ 113.32306671, -7.87425137 ], [ 113.32315063, -7.87431622 ], [ 113.3234024, -7.87450552 ], [ 113.32377625, -7.87490988 ], [ 113.32392883, -7.87516356 ], [ 113.3241272, -7.87550116 ], [ 113.3243103, -7.87582159 ], [ 113.32437897, -7.87589073 ], [ 113.32429504, -7.87645721 ], [ 113.32416534, -7.87680674 ], [ 113.32398224, -7.87771082 ], [ 113.32308197, -7.87899208 ], [ 113.32280731, -7.87948132 ], [ 113.32280731, -7.8797698 ], [ 113.32279205, -7.87991953 ], [ 113.32276154, -7.88022995 ], [ 113.32283783, -7.88036013 ], [ 113.32302094, -7.88044977 ], [ 113.3230896, -7.88053989 ], [ 113.32334137, -7.88060999 ], [ 113.32366943, -7.88056469 ], [ 113.32466125, -7.88073444 ], [ 113.32587433, -7.88082838 ], [ 113.32596588, -7.88083553 ], [ 113.32720947, -7.88082838 ], [ 113.32748413, -7.88082695 ], [ 113.32810211, -7.88082361 ], [ 113.32930756, -7.88074446 ], [ 113.33009338, -7.88071632 ], [ 113.33172607, -7.88059902 ], [ 113.33224487, -7.88036728 ], [ 113.33291626, -7.87995386 ], [ 113.33358002, -7.87949276 ], [ 113.3338089, -7.87920237 ], [ 113.333992, -7.87876987 ], [ 113.33426666, -7.8787899 ], [ 113.3345108, -7.87889004 ], [ 113.33470154, -7.87905979 ], [ 113.33498383, -7.87938833 ], [ 113.33503723, -7.87944984 ], [ 113.33531952, -7.87977982 ], [ 113.33551788, -7.87989998 ], [ 113.33579254, -7.87997007 ], [ 113.33609009, -7.8800602 ], [ 113.33624268, -7.88017988 ], [ 113.3363266, -7.88035011 ], [ 113.33638763, -7.88059998 ], [ 113.33651733, -7.8812499 ], [ 113.33659363, -7.88150978 ], [ 113.33654785, -7.88167 ], [ 113.33637238, -7.88225985 ], [ 113.33637238, -7.88255978 ], [ 113.33643341, -7.88298988 ], [ 113.3365097, -7.88314247 ], [ 113.33670807, -7.88332987 ], [ 113.33679962, -7.88345003 ], [ 113.33680725, -7.88359022 ], [ 113.33676147, -7.88373995 ], [ 113.33661652, -7.88404989 ], [ 113.33660889, -7.88446999 ], [ 113.33690643, -7.88476992 ], [ 113.3370285, -7.88491011 ], [ 113.33706665, -7.8849802 ], [ 113.33714294, -7.88500977 ], [ 113.33722687, -7.88513994 ], [ 113.33734894, -7.88534021 ], [ 113.33738708, -7.88557005 ], [ 113.33746338, -7.88600016 ], [ 113.33750916, -7.88626003 ], [ 113.33747864, -7.88654995 ], [ 113.33746338, -7.88667011 ], [ 113.33750153, -7.88683987 ], [ 113.33765411, -7.88703632 ], [ 113.33770752, -7.88711023 ], [ 113.33786011, -7.88727999 ], [ 113.33798981, -7.88753986 ], [ 113.33818054, -7.88794994 ], [ 113.33821106, -7.88808012 ], [ 113.33823395, -7.88841009 ], [ 113.33824921, -7.88873005 ], [ 113.33824921, -7.8888998 ], [ 113.33824921, -7.88897467 ], [ 113.33827209, -7.88915825 ], [ 113.33834076, -7.88928986 ], [ 113.33853149, -7.88951015 ], [ 113.33872223, -7.88963985 ], [ 113.33892059, -7.88972998 ], [ 113.33899689, -7.88976002 ], [ 113.33927155, -7.88998985 ], [ 113.3395462, -7.89042997 ], [ 113.33966827, -7.89073992 ], [ 113.33969116, -7.89092016 ], [ 113.33968353, -7.89127016 ], [ 113.33972168, -7.89134979 ], [ 113.33998108, -7.89145994 ], [ 113.34059906, -7.89141989 ], [ 113.34126282, -7.89133978 ], [ 113.34205627, -7.89120007 ], [ 113.34238434, -7.89113522 ], [ 113.34280396, -7.89105606 ], [ 113.34346771, -7.89098978 ], [ 113.3443985, -7.89099979 ], [ 113.34528351, -7.89108992 ], [ 113.34584045, -7.89108992 ], [ 113.34632111, -7.89104986 ], [ 113.34658051, -7.8910203 ], [ 113.34684753, -7.89098978 ], [ 113.34705353, -7.8908 ], [ 113.34738922, -7.89063978 ], [ 113.34783173, -7.89042997 ], [ 113.34854126, -7.88972998 ], [ 113.34963226, -7.88948011 ], [ 113.35060883, -7.88922977 ], [ 113.35086823, -7.88918352 ], [ 113.35150909, -7.88906765 ], [ 113.35166168, -7.88903999 ], [ 113.35218811, -7.88898754 ], [ 113.35221863, -7.88849735 ], [ 113.3518219, -7.88838816 ], [ 113.3518219, -7.88772154 ], [ 113.35232544, -7.88766336 ], [ 113.35237122, -7.88699627 ], [ 113.35192871, -7.88677692 ], [ 113.35186768, -7.88622189 ], [ 113.35158539, -7.88589001 ], [ 113.35177612, -7.88540649 ], [ 113.35191345, -7.88505507 ], [ 113.3536911, -7.88609076 ], [ 113.35695648, -7.88799953 ], [ 113.35693359, -7.88829994 ], [ 113.35681915, -7.8888402 ], [ 113.35665131, -7.88957024 ], [ 113.35749817, -7.8898201 ], [ 113.35793304, -7.88995981 ], [ 113.35827637, -7.89006996 ], [ 113.35932922, -7.89039993 ], [ 113.36047363, -7.89070988 ], [ 113.36128235, -7.89086676 ], [ 113.36155701, -7.89092016 ], [ 113.36269379, -7.89112997 ], [ 113.36367798, -7.89127016 ], [ 113.36386871, -7.89129019 ], [ 113.36470795, -7.89139986 ], [ 113.36540985, -7.89144993 ], [ 113.3658905, -7.89145994 ], [ 113.36595154, -7.89131021 ], [ 113.36624146, -7.89087009 ], [ 113.36641693, -7.8906827 ], [ 113.366539, -7.89055014 ], [ 113.36720276, -7.89015007 ], [ 113.36768341, -7.8899498 ], [ 113.36785126, -7.88995981 ], [ 113.36815643, -7.88995981 ], [ 113.36878967, -7.8898201 ], [ 113.36895752, -7.8896699 ], [ 113.369133, -7.88945007 ], [ 113.36933899, -7.88906002 ], [ 113.36943054, -7.8888998 ], [ 113.36958313, -7.88882017 ], [ 113.36969757, -7.88885021 ], [ 113.37030792, -7.88895988 ], [ 113.37056732, -7.88883018 ], [ 113.37064362, -7.88870001 ], [ 113.37062836, -7.8884902 ], [ 113.37065887, -7.88837004 ], [ 113.37075806, -7.88805389 ], [ 113.37091064, -7.88758993 ], [ 113.37114716, -7.88711977 ], [ 113.37140656, -7.88676023 ], [ 113.37162018, -7.88639021 ], [ 113.37195587, -7.88553858 ], [ 113.37202454, -7.88526773 ], [ 113.37223053, -7.88448 ], [ 113.37256622, -7.88401985 ], [ 113.37299347, -7.88351011 ], [ 113.37320709, -7.88337994 ], [ 113.37339783, -7.88336992 ], [ 113.37364197, -7.88341999 ], [ 113.37419128, -7.88359022 ], [ 113.37447357, -7.88352013 ], [ 113.3745575, -7.88346004 ], [ 113.37480164, -7.88360977 ], [ 113.375, -7.88373995 ], [ 113.37512207, -7.88382006 ], [ 113.37528992, -7.88403988 ], [ 113.37612915, -7.88507986 ], [ 113.37628174, -7.88525009 ], [ 113.37654114, -7.88539982 ], [ 113.37683105, -7.88552999 ], [ 113.37699127, -7.8856802 ], [ 113.37709045, -7.88600016 ], [ 113.37705994, -7.88649988 ], [ 113.37686157, -7.88698006 ], [ 113.37671661, -7.88730001 ], [ 113.37667084, -7.88746977 ], [ 113.37669373, -7.88762999 ], [ 113.37676239, -7.88769007 ], [ 113.37702179, -7.88770008 ], [ 113.37753296, -7.88764 ], [ 113.3784256, -7.88748503 ], [ 113.37850952, -7.88746977 ], [ 113.37917328, -7.88743019 ], [ 113.37937164, -7.88743019 ], [ 113.37982178, -7.88749981 ], [ 113.38040161, -7.88769007 ], [ 113.3806076, -7.88777018 ], [ 113.38072968, -7.88784981 ], [ 113.38079071, -7.88807011 ], [ 113.38078308, -7.88827991 ], [ 113.38076019, -7.88851023 ], [ 113.38076019, -7.88878012 ], [ 113.38070679, -7.88909006 ], [ 113.3807373, -7.88918018 ], [ 113.38089752, -7.88923979 ], [ 113.38128662, -7.88921022 ], [ 113.38146973, -7.88921022 ], [ 113.38191986, -7.88951015 ], [ 113.38210297, -7.88957977 ], [ 113.38227844, -7.8895402 ], [ 113.38252258, -7.88944006 ], [ 113.38259888, -7.88938999 ], [ 113.38285065, -7.8888402 ], [ 113.38339996, -7.88809013 ], [ 113.38378906, -7.88769007 ], [ 113.38394928, -7.8874898 ], [ 113.38391876, -7.88655996 ], [ 113.38398743, -7.88645983 ], [ 113.38419342, -7.88635015 ], [ 113.38477325, -7.88604021 ], [ 113.38500977, -7.88606024 ], [ 113.38510132, -7.8860898 ], [ 113.38527679, -7.88625002 ], [ 113.38551331, -7.88712978 ], [ 113.38572693, -7.88765001 ], [ 113.38578033, -7.88781977 ], [ 113.38580322, -7.88801003 ], [ 113.38585663, -7.88817978 ], [ 113.38614655, -7.88850021 ], [ 113.38635254, -7.8886199 ], [ 113.38658905, -7.8885498 ], [ 113.38687897, -7.88838005 ], [ 113.38703918, -7.88827991 ], [ 113.38748932, -7.88822985 ], [ 113.38768005, -7.88809633 ], [ 113.38789368, -7.88794994 ], [ 113.38803864, -7.88783979 ], [ 113.38822937, -7.88784981 ], [ 113.38864899, -7.8882699 ], [ 113.38886261, -7.88843012 ], [ 113.3889389, -7.88845015 ], [ 113.38912964, -7.88839006 ], [ 113.38954163, -7.88805008 ], [ 113.38970184, -7.88792992 ], [ 113.38987732, -7.88782978 ], [ 113.39016724, -7.88751984 ], [ 113.39031219, -7.88729 ], [ 113.39038849, -7.88711023 ], [ 113.39050293, -7.88700008 ], [ 113.39069366, -7.88689995 ], [ 113.39102173, -7.88687992 ], [ 113.3915329, -7.88705015 ], [ 113.39176941, -7.8871398 ], [ 113.39196014, -7.8871398 ], [ 113.39211273, -7.88707018 ], [ 113.39221191, -7.88697004 ], [ 113.39230347, -7.88662004 ], [ 113.39231873, -7.88636017 ], [ 113.39231873, -7.88618994 ], [ 113.39240265, -7.88609982 ], [ 113.39253998, -7.8860302 ], [ 113.39282227, -7.88602018 ], [ 113.39306641, -7.88610983 ], [ 113.39335632, -7.88654995 ], [ 113.39344025, -7.88665009 ], [ 113.39360809, -7.88672018 ], [ 113.39418793, -7.88669014 ], [ 113.3944397, -7.88670015 ], [ 113.3945694, -7.88673019 ], [ 113.39463806, -7.88676977 ], [ 113.39463806, -7.88704014 ], [ 113.39517212, -7.88780022 ], [ 113.3953476, -7.88797998 ], [ 113.39562225, -7.88816977 ], [ 113.39585876, -7.8882699 ], [ 113.39608002, -7.88828993 ], [ 113.39626312, -7.88822985 ], [ 113.39642334, -7.88867998 ], [ 113.39653778, -7.88902998 ], [ 113.39674377, -7.88957024 ], [ 113.39703369, -7.89037991 ], [ 113.39733124, -7.89118004 ], [ 113.39772034, -7.89214993 ], [ 113.39821625, -7.89319992 ], [ 113.39840698, -7.89394999 ], [ 113.39852142, -7.89409351 ], [ 113.39880371, -7.89446306 ], [ 113.39881134, -7.89503002 ], [ 113.39884186, -7.8951602 ], [ 113.39891052, -7.89529991 ], [ 113.39916992, -7.89552021 ], [ 113.3995285, -7.89581013 ], [ 113.39994049, -7.89634991 ], [ 113.40065765, -7.89830017 ], [ 113.40077972, -7.89870024 ], [ 113.40093994, -7.89926004 ], [ 113.40100098, -7.89945984 ], [ 113.40107727, -7.89985991 ], [ 113.40110016, -7.90002012 ], [ 113.40117645, -7.90016985 ], [ 113.40146637, -7.90038013 ], [ 113.40180969, -7.9014802 ], [ 113.40215302, -7.90229988 ], [ 113.40274811, -7.90318012 ], [ 113.40313721, -7.90477991 ], [ 113.40319824, -7.90491009 ], [ 113.40326691, -7.90497017 ], [ 113.40348816, -7.90498018 ], [ 113.40379333, -7.90492153 ], [ 113.40400696, -7.90488005 ], [ 113.40431213, -7.90478992 ], [ 113.40476227, -7.90472984 ], [ 113.404953, -7.90471983 ], [ 113.4052887, -7.90473986 ], [ 113.40582275, -7.90471983 ], [ 113.40608215, -7.90474987 ], [ 113.40641785, -7.90487003 ], [ 113.40656281, -7.90495014 ], [ 113.40661621, -7.90514994 ], [ 113.40655518, -7.90542984 ], [ 113.40646362, -7.90585995 ], [ 113.40615845, -7.90656996 ], [ 113.40608978, -7.90676022 ], [ 113.40609741, -7.90686989 ], [ 113.40628052, -7.90706015 ], [ 113.40643311, -7.9073 ], [ 113.40660095, -7.90754986 ], [ 113.40711212, -7.90788984 ], [ 113.40724182, -7.90826988 ], [ 113.40734863, -7.90860987 ], [ 113.4074173, -7.90883017 ], [ 113.40753937, -7.90909004 ], [ 113.40775299, -7.90930986 ], [ 113.40805817, -7.90952015 ], [ 113.40892029, -7.90983009 ], [ 113.40930176, -7.90997982 ], [ 113.40947723, -7.91009998 ], [ 113.40956116, -7.91020012 ], [ 113.40959167, -7.91035986 ], [ 113.40955353, -7.91055012 ], [ 113.40943146, -7.91092014 ], [ 113.4094162, -7.91110992 ], [ 113.40946198, -7.91125011 ], [ 113.41002655, -7.91189003 ], [ 113.41020203, -7.91204023 ], [ 113.4105072, -7.9122901 ], [ 113.41065216, -7.91243982 ], [ 113.41072083, -7.91290998 ], [ 113.41053009, -7.91305017 ], [ 113.41042328, -7.91313982 ], [ 113.41023254, -7.91332006 ], [ 113.41014099, -7.91341019 ], [ 113.41004181, -7.91352987 ], [ 113.4098587, -7.91378021 ], [ 113.40978241, -7.9138999 ], [ 113.40969849, -7.91403008 ], [ 113.40892792, -7.91442013 ], [ 113.40923309, -7.91492987 ], [ 113.40950775, -7.91531992 ], [ 113.41001129, -7.91597509 ], [ 113.41021729, -7.91625023 ], [ 113.41055298, -7.9169898 ], [ 113.41066742, -7.91726017 ], [ 113.41091919, -7.91772985 ], [ 113.41117096, -7.91823006 ], [ 113.41163635, -7.91901016 ], [ 113.41259766, -7.9200902 ], [ 113.4131012, -7.92090988 ], [ 113.41332245, -7.92128992 ], [ 113.4134903, -7.92154741 ], [ 113.41387177, -7.92212009 ], [ 113.41436005, -7.92287016 ], [ 113.41452026, -7.9236002 ], [ 113.41468811, -7.92424011 ], [ 113.41474915, -7.92461872 ], [ 113.41484833, -7.92521 ], [ 113.41509247, -7.92620993 ], [ 113.41560364, -7.92705107 ], [ 113.41589355, -7.9275198 ], [ 113.41651917, -7.92858982 ], [ 113.41710663, -7.92958021 ], [ 113.41748047, -7.93056011 ], [ 113.41770935, -7.93141985 ], [ 113.41786194, -7.93201017 ], [ 113.41790771, -7.93265009 ], [ 113.41819, -7.93324995 ], [ 113.41876984, -7.93420982 ], [ 113.41928864, -7.93486977 ], [ 113.41969299, -7.93577003 ], [ 113.41983032, -7.93627977 ], [ 113.41993713, -7.93665981 ], [ 113.42002869, -7.93741608 ], [ 113.42003632, -7.93748999 ], [ 113.4201889, -7.93832016 ], [ 113.42034149, -7.93899012 ], [ 113.42050171, -7.93943977 ], [ 113.42092896, -7.94034004 ], [ 113.42118073, -7.94051981 ], [ 113.4213562, -7.9409399 ], [ 113.42140198, -7.94114017 ], [ 113.4214325, -7.9412899 ], [ 113.42159271, -7.94156981 ], [ 113.42179871, -7.94178009 ], [ 113.42199707, -7.94215012 ], [ 113.42289734, -7.94351006 ], [ 113.42371368, -7.94497013 ], [ 113.42388153, -7.94567013 ], [ 113.42417908, -7.94639015 ], [ 113.42415619, -7.94663811 ], [ 113.42411804, -7.94692326 ], [ 113.42411041, -7.94702005 ], [ 113.42398071, -7.94766998 ], [ 113.42395782, -7.94822979 ], [ 113.42420959, -7.94862986 ], [ 113.42440033, -7.94936991 ], [ 113.42456818, -7.94995022 ], [ 113.42456055, -7.95059013 ], [ 113.42459106, -7.9513998 ], [ 113.42459106, -7.95163012 ], [ 113.42481995, -7.9520998 ], [ 113.42534637, -7.95263004 ], [ 113.42569733, -7.95318985 ], [ 113.4258194, -7.95338011 ], [ 113.42614746, -7.95382977 ], [ 113.42648315, -7.95430994 ], [ 113.42671967, -7.95493984 ], [ 113.42716217, -7.95577002 ], [ 113.42756653, -7.95672989 ], [ 113.427742, -7.9573102 ], [ 113.42788696, -7.95780993 ], [ 113.42814636, -7.95913982 ], [ 113.4282608, -7.95986986 ], [ 113.42829895, -7.96046019 ], [ 113.42832947, -7.96136999 ], [ 113.42838287, -7.96170998 ], [ 113.42839813, -7.96183014 ], [ 113.4285202, -7.96202993 ], [ 113.4287262, -7.96240997 ], [ 113.42902374, -7.96271992 ], [ 113.42904663, -7.96285009 ], [ 113.42906189, -7.96296978 ], [ 113.42935944, -7.96351337 ], [ 113.42978668, -7.96429014 ], [ 113.42993164, -7.96448994 ], [ 113.43013, -7.96491003 ], [ 113.43066406, -7.96594858 ], [ 113.43096161, -7.966362 ], [ 113.43148041, -7.96706009 ], [ 113.43222809, -7.96822023 ], [ 113.43273163, -7.96899986 ], [ 113.43286133, -7.96921015 ], [ 113.43315125, -7.96962976 ], [ 113.4332428, -7.96981001 ], [ 113.43334961, -7.9700799 ], [ 113.4336319, -7.97080231 ], [ 113.43383789, -7.97135019 ], [ 113.43398285, -7.97187996 ], [ 113.43409729, -7.97217989 ], [ 113.43419647, -7.9724102 ], [ 113.43473816, -7.9730401 ], [ 113.43489075, -7.9731102 ], [ 113.43489838, -7.9732399 ], [ 113.43489075, -7.97337008 ], [ 113.43496704, -7.97342014 ], [ 113.43543243, -7.97349977 ], [ 113.43590546, -7.97342634 ], [ 113.43601227, -7.97341013 ], [ 113.43618774, -7.97340012 ], [ 113.4363327, -7.9735198 ], [ 113.4365387, -7.97379017 ], [ 113.4365387, -7.97405005 ], [ 113.43654633, -7.97422981 ], [ 113.43663025, -7.97435999 ], [ 113.43681335, -7.97445011 ], [ 113.43733978, -7.97426987 ], [ 113.43753052, -7.97420979 ], [ 113.43771362, -7.97427988 ], [ 113.4377594, -7.97446012 ], [ 113.43778992, -7.97455978 ], [ 113.43797302, -7.97468996 ], [ 113.43830872, -7.97464991 ], [ 113.4386673, -7.97478008 ], [ 113.43936157, -7.9753232 ], [ 113.43942261, -7.97536993 ], [ 113.43994141, -7.97596979 ], [ 113.44059753, -7.97684669 ], [ 113.4408493, -7.97719002 ], [ 113.44158936, -7.97836018 ], [ 113.44207764, -7.97932005 ], [ 113.44210052, -7.97941017 ], [ 113.44225311, -7.9799304 ], [ 113.44241333, -7.98049021 ], [ 113.44255066, -7.98091412 ], [ 113.44296265, -7.98213005 ], [ 113.44425201, -7.98378992 ], [ 113.44445801, -7.98421001 ], [ 113.44470978, -7.98553991 ], [ 113.44477081, -7.98601007 ], [ 113.44484711, -7.98669004 ], [ 113.4447937, -7.98731995 ], [ 113.44477081, -7.98774004 ], [ 113.44480896, -7.98791981 ], [ 113.44486237, -7.98818016 ], [ 113.44496918, -7.98873997 ], [ 113.44570923, -7.9889698 ], [ 113.44589996, -7.98901987 ], [ 113.44628143, -7.98894978 ], [ 113.44693756, -7.98898983 ], [ 113.44728088, -7.98906994 ], [ 113.44753265, -7.98912001 ], [ 113.44772339, -7.98918009 ], [ 113.44814301, -7.98944998 ], [ 113.44834137, -7.98960018 ], [ 113.44904327, -7.98967981 ], [ 113.44924927, -7.98971987 ], [ 113.44944, -7.98979998 ], [ 113.44965363, -7.98998022 ], [ 113.4496994, -7.99003983 ], [ 113.44976044, -7.99012995 ], [ 113.45002747, -7.99046993 ], [ 113.45050812, -7.99085999 ], [ 113.45079041, -7.9910202 ], [ 113.45121765, -7.99110985 ], [ 113.45139313, -7.99109983 ], [ 113.45191956, -7.99064016 ], [ 113.45204163, -7.99054003 ], [ 113.45230103, -7.99033022 ], [ 113.4524231, -7.9902401 ], [ 113.45297241, -7.99014997 ], [ 113.45319366, -7.99018002 ], [ 113.45340729, -7.99027014 ], [ 113.45362091, -7.99038982 ], [ 113.45401001, -7.99053001 ], [ 113.45417786, -7.99054003 ], [ 113.45465088, -7.9902091 ], [ 113.45487976, -7.99004984 ], [ 113.45496368, -7.99000978 ], [ 113.45513153, -7.98994017 ], [ 113.45523071, -7.98993015 ], [ 113.45546722, -7.98999977 ], [ 113.45552826, -7.99003983 ], [ 113.45632935, -7.99039984 ], [ 113.45664215, -7.99049997 ], [ 113.45690918, -7.9905901 ], [ 113.45722961, -7.99060011 ], [ 113.45757294, -7.99056005 ], [ 113.45773315, -7.99061012 ], [ 113.45787811, -7.99076986 ], [ 113.45793152, -7.99097013 ], [ 113.45799255, -7.99120998 ], [ 113.45802307, -7.99129009 ], [ 113.45807648, -7.99139023 ], [ 113.4581604, -7.9914999 ], [ 113.45835876, -7.99171019 ], [ 113.45858002, -7.99179983 ], [ 113.4588089, -7.99187994 ], [ 113.45886993, -7.99196005 ], [ 113.45932007, -7.99301004 ], [ 113.45950317, -7.99339008 ], [ 113.45957184, -7.99350977 ], [ 113.45983124, -7.99358988 ], [ 113.4599762, -7.99369001 ], [ 113.46002197, -7.99416018 ], [ 113.46013641, -7.99444008 ], [ 113.46022034, -7.99461985 ], [ 113.46034241, -7.99490023 ], [ 113.46080017, -7.99525023 ], [ 113.46099091, -7.99533987 ], [ 113.46130371, -7.99530983 ], [ 113.46141815, -7.99529982 ], [ 113.46172333, -7.9952302 ], [ 113.46189117, -7.99525023 ], [ 113.46231842, -7.9953599 ], [ 113.46251678, -7.99538994 ], [ 113.46279907, -7.99544001 ], [ 113.46295929, -7.9955101 ], [ 113.46302795, -7.99554014 ], [ 113.46315765, -7.9956398 ], [ 113.46330261, -7.99590015 ], [ 113.46337891, -7.99611998 ], [ 113.46350098, -7.99626017 ], [ 113.46357727, -7.99630022 ], [ 113.46392822, -7.99623013 ], [ 113.4641037, -7.99620008 ], [ 113.46443176, -7.99646997 ], [ 113.4646225, -7.99665022 ], [ 113.4647522, -7.99670982 ], [ 113.46494293, -7.9966898 ], [ 113.46530914, -7.99631023 ], [ 113.46573639, -7.99592018 ], [ 113.4659729, -7.99576998 ], [ 113.46630096, -7.99566984 ], [ 113.46640778, -7.99567986 ], [ 113.46672058, -7.99579 ], [ 113.46710968, -7.99592018 ], [ 113.4673996, -7.99596024 ], [ 113.46755219, -7.99594021 ], [ 113.467659, -7.9958601 ], [ 113.46777344, -7.99566984 ], [ 113.46782684, -7.99553013 ], [ 113.46804047, -7.99531984 ], [ 113.46820831, -7.99519539 ], [ 113.46826935, -7.99515009 ], [ 113.46888733, -7.9949398 ], [ 113.46906281, -7.99487019 ], [ 113.46946716, -7.99435997 ], [ 113.46963501, -7.99412441 ], [ 113.4699173, -7.99388981 ], [ 113.4701767, -7.99381018 ], [ 113.47058868, -7.9938798 ], [ 113.47097778, -7.99407005 ], [ 113.47162628, -7.99445009 ], [ 113.47184753, -7.99456978 ], [ 113.47212982, -7.99460983 ], [ 113.47238159, -7.99459982 ], [ 113.47257996, -7.9945302 ], [ 113.47270203, -7.99439001 ], [ 113.47280121, -7.99396992 ], [ 113.47289276, -7.99350023 ], [ 113.47273254, -7.99311829 ], [ 113.47267914, -7.99300003 ], [ 113.47255707, -7.99256992 ], [ 113.47254181, -7.99234009 ], [ 113.47260284, -7.99216986 ], [ 113.47277069, -7.99191999 ], [ 113.47297668, -7.99171019 ], [ 113.47316742, -7.99152994 ], [ 113.47354126, -7.99129009 ], [ 113.47367859, -7.99122 ], [ 113.47389984, -7.99113989 ], [ 113.47406006, -7.99107981 ], [ 113.47420502, -7.9910326 ], [ 113.47427368, -7.99101019 ], [ 113.47440338, -7.99081993 ], [ 113.47444916, -7.9907198 ], [ 113.47479248, -7.99054003 ], [ 113.47509003, -7.99048996 ], [ 113.47583008, -7.99033022 ], [ 113.47627258, -7.99033022 ], [ 113.47660065, -7.99035978 ], [ 113.47686768, -7.99037981 ], [ 113.47731781, -7.99040985 ], [ 113.47779846, -7.99073982 ], [ 113.47821808, -7.99097013 ], [ 113.47870636, -7.99144983 ], [ 113.47894287, -7.99168015 ], [ 113.4793396, -7.99191999 ], [ 113.4797821, -7.99205017 ], [ 113.48001862, -7.99211979 ], [ 113.48042297, -7.99240303 ], [ 113.47989655, -7.99278975 ], [ 113.47920227, -7.9938364 ], [ 113.47865295, -7.99457073 ], [ 113.47795105, -7.99522114 ], [ 113.47732544, -7.9957509 ], [ 113.47666931, -7.99618149 ], [ 113.47636414, -7.99654007 ], [ 113.47627258, -7.99693012 ], [ 113.47634888, -7.99744081 ], [ 113.47660065, -7.99786568 ], [ 113.47719574, -7.99856234 ], [ 113.47802734, -7.9994278 ], [ 113.47826385, -7.99972677 ], [ 113.47848511, -8.00000095 ], [ 113.47919464, -8.00089645 ], [ 113.47968292, -8.00206661 ], [ 113.48014069, -8.00326633 ], [ 113.48066711, -8.00485706 ], [ 113.48079681, -8.00517082 ], [ 113.48121643, -8.00617695 ], [ 113.48146057, -8.00680637 ], [ 113.48167419, -8.00725651 ], [ 113.4818573, -8.00776196 ], [ 113.48192596, -8.00795269 ], [ 113.48200989, -8.00824833 ], [ 113.48205566, -8.00855446 ], [ 113.48205566, -8.00869942 ], [ 113.48205566, -8.00877666 ], [ 113.48207092, -8.00899982 ], [ 113.48209381, -8.00942993 ], [ 113.48204803, -8.0096817 ], [ 113.48195648, -8.00995922 ], [ 113.48178864, -8.01022148 ], [ 113.48150635, -8.01043034 ], [ 113.48117828, -8.01050282 ], [ 113.4809494, -8.01060009 ], [ 113.48066711, -8.01067829 ], [ 113.48030853, -8.01080132 ], [ 113.47999573, -8.01096249 ], [ 113.4799118, -8.0111227 ], [ 113.47984314, -8.01137161 ], [ 113.4797821, -8.01166821 ], [ 113.4797287, -8.01198387 ], [ 113.47970581, -8.01231766 ], [ 113.47971344, -8.01272869 ], [ 113.47970581, -8.01329899 ], [ 113.47976685, -8.01368713 ], [ 113.47979736, -8.01404381 ], [ 113.47975159, -8.01436901 ], [ 113.4797287, -8.01466274 ], [ 113.4797287, -8.01490784 ], [ 113.47975922, -8.01509857 ], [ 113.47982788, -8.01545143 ], [ 113.47989655, -8.01589394 ], [ 113.47989655, -8.01619339 ], [ 113.47988129, -8.01646805 ], [ 113.47979736, -8.01683426 ], [ 113.47964478, -8.01720142 ], [ 113.47956848, -8.01738071 ], [ 113.47939301, -8.01764011 ], [ 113.47924805, -8.01779652 ], [ 113.47901154, -8.01810741 ], [ 113.47887421, -8.01829338 ], [ 113.47872162, -8.01845932 ], [ 113.47858429, -8.01860332 ], [ 113.47843933, -8.01874161 ], [ 113.47815704, -8.01893806 ], [ 113.47794342, -8.01905727 ], [ 113.47774506, -8.01922035 ], [ 113.4774704, -8.01937199 ], [ 113.47714996, -8.0195303 ], [ 113.47679901, -8.01969814 ], [ 113.47650909, -8.01987839 ], [ 113.47625732, -8.02000999 ], [ 113.47595215, -8.02016163 ], [ 113.4756012, -8.02033615 ], [ 113.47529602, -8.02043056 ], [ 113.47505188, -8.02057552 ], [ 113.47484589, -8.02069092 ], [ 113.47454834, -8.0208807 ], [ 113.47423553, -8.0210619 ], [ 113.47402191, -8.02116489 ], [ 113.47371674, -8.02130699 ], [ 113.47345734, -8.02144527 ], [ 113.4731369, -8.02164173 ], [ 113.47283173, -8.02177429 ], [ 113.47239685, -8.02199078 ], [ 113.47208405, -8.02209091 ], [ 113.4717865, -8.02221107 ], [ 113.47124481, -8.02232552 ] ] ] ] } }
]
}
