{
"type": "FeatureCollection",
"name": "Kecamatan Bantaran",
"crs": { "type": "name", "properties": { "name": "urn:ogc:def:crs:OGC:1.3:CRS84" } },
"features": [
{ "type": "Feature", "properties": { "GID_0": "IDN", "NAME_0": "Indonesia", "GID_1": "IDN.11_1", "NAME_1": "Jawa Timur", "NL_NAME_1": null, "GID_2": "IDN.11.30_1", "NAME_2": "Probolinggo", "NL_NAME_2": null, "GID_3": "IDN.11.30.1_1", "NAME_3": "Bantaran", "VARNAME_3": null, "NL_NAME_3": null, "TYPE_3": "Kecamatan", "ENGTYPE_3": "Sub-district", "CC_3": "3513040", "HASC_3": null }, "geometry": { "type": "MultiPolygon", "coordinates": [ [ [ [ 113.20569611, -7.92711115 ], [ 113.20506287, -7.92724609 ], [ 113.20477295, -7.9271946 ], [ 113.20439148, -7.92704678 ], [ 113.20423126, -7.92703104 ], [ 113.20399475, -7.927104 ], [ 113.2037735, -7.92723989 ], [ 113.20359039, -7.92745018 ], [ 113.20352173, -7.92764044 ], [ 113.2035141, -7.92785263 ], [ 113.20349884, -7.92820549 ], [ 113.2033844, -7.92830467 ], [ 113.20320129, -7.92837524 ], [ 113.20308685, -7.92833281 ], [ 113.20281219, -7.92820072 ], [ 113.20249176, -7.92750978 ], [ 113.20207214, -7.92675018 ], [ 113.2015686, -7.92602015 ], [ 113.20120239, -7.92549992 ], [ 113.20063782, -7.92484999 ], [ 113.20005798, -7.9243598 ], [ 113.19917297, -7.92387009 ], [ 113.19864655, -7.92368984 ], [ 113.19820404, -7.92353725 ], [ 113.19744873, -7.92327976 ], [ 113.19689178, -7.92306995 ], [ 113.19634247, -7.92286015 ], [ 113.19622803, -7.92282009 ], [ 113.19532013, -7.92236996 ], [ 113.19436646, -7.92182779 ], [ 113.19420624, -7.92174006 ], [ 113.19315338, -7.92087984 ], [ 113.19235992, -7.92024994 ], [ 113.19208527, -7.92001057 ], [ 113.19142914, -7.91942978 ], [ 113.19046021, -7.91862011 ], [ 113.18965149, -7.91779995 ], [ 113.18917084, -7.91733646 ], [ 113.18910217, -7.91727018 ], [ 113.18893433, -7.91711283 ], [ 113.18846893, -7.91665983 ], [ 113.18744659, -7.91584015 ], [ 113.18739319, -7.91577339 ], [ 113.18681335, -7.91512012 ], [ 113.18627167, -7.91442013 ], [ 113.18618011, -7.91429567 ], [ 113.18572998, -7.91368341 ], [ 113.18537903, -7.9131999 ], [ 113.1849823, -7.91273022 ], [ 113.18431854, -7.91209984 ], [ 113.18366241, -7.91157007 ], [ 113.18360138, -7.91151094 ], [ 113.18299103, -7.91093016 ], [ 113.18247986, -7.91056013 ], [ 113.18187714, -7.91018009 ], [ 113.18180847, -7.91014004 ], [ 113.18103027, -7.90962982 ], [ 113.1803894, -7.90920019 ], [ 113.17974091, -7.90858984 ], [ 113.17931366, -7.90794992 ], [ 113.17893219, -7.90725994 ], [ 113.17888641, -7.90697002 ], [ 113.1789093, -7.90674019 ], [ 113.17893219, -7.90653992 ], [ 113.17900848, -7.90627003 ], [ 113.17906189, -7.9061923 ], [ 113.17920685, -7.90596008 ], [ 113.17964172, -7.90532017 ], [ 113.18005371, -7.90473986 ], [ 113.18065643, -7.90391016 ], [ 113.18063354, -7.90305996 ], [ 113.18067169, -7.90288019 ], [ 113.18080139, -7.90266991 ], [ 113.18106842, -7.90243006 ], [ 113.18141174, -7.90214014 ], [ 113.1815567, -7.90193987 ], [ 113.18170929, -7.90158987 ], [ 113.18177032, -7.90132999 ], [ 113.18179321, -7.90103006 ], [ 113.18186951, -7.90080976 ], [ 113.18203735, -7.90048981 ], [ 113.18241119, -7.9001298 ], [ 113.18256378, -7.89998007 ], [ 113.18261719, -7.89985991 ], [ 113.18238831, -7.8994298 ], [ 113.18234253, -7.89925003 ], [ 113.18226624, -7.89897013 ], [ 113.18224335, -7.89877987 ], [ 113.18224335, -7.89863014 ], [ 113.18231964, -7.89855003 ], [ 113.18250275, -7.89835978 ], [ 113.18251801, -7.89823008 ], [ 113.18254089, -7.89811993 ], [ 113.18266296, -7.89780998 ], [ 113.18271637, -7.89766979 ], [ 113.18292236, -7.89761019 ], [ 113.18300629, -7.89758015 ], [ 113.18305969, -7.89744997 ], [ 113.1831665, -7.89718008 ], [ 113.1831665, -7.89680672 ], [ 113.1831665, -7.89665985 ], [ 113.18321228, -7.89651012 ], [ 113.1833725, -7.89636993 ], [ 113.18350983, -7.89624977 ], [ 113.18367767, -7.89588022 ], [ 113.18380737, -7.89550018 ], [ 113.18413544, -7.89519835 ], [ 113.18425751, -7.89508009 ], [ 113.18473053, -7.8948102 ], [ 113.18462372, -7.89432716 ], [ 113.18466187, -7.8940177 ], [ 113.1848526, -7.8938899 ], [ 113.185112, -7.89386988 ], [ 113.18522644, -7.89383984 ], [ 113.18540192, -7.89363003 ], [ 113.18567657, -7.89326 ], [ 113.18588257, -7.89307022 ], [ 113.18628693, -7.89287996 ], [ 113.18644714, -7.89281988 ], [ 113.18652344, -7.89274979 ], [ 113.18652344, -7.89265013 ], [ 113.18640137, -7.89248991 ], [ 113.18627167, -7.89239979 ], [ 113.1860199, -7.8925128 ], [ 113.1857605, -7.89258385 ], [ 113.18560028, -7.89239502 ], [ 113.18572235, -7.89215469 ], [ 113.18547058, -7.89177656 ], [ 113.18548584, -7.89162683 ], [ 113.18553162, -7.89149666 ], [ 113.18592072, -7.89152479 ], [ 113.18625641, -7.89147282 ], [ 113.18642426, -7.89142227 ], [ 113.18662262, -7.8914113 ], [ 113.18667603, -7.89155054 ], [ 113.18673706, -7.89166021 ], [ 113.18668365, -7.89186001 ], [ 113.1867218, -7.89201021 ], [ 113.18681335, -7.89209986 ], [ 113.18689728, -7.89208984 ], [ 113.18695068, -7.89203739 ], [ 113.18699646, -7.89198017 ], [ 113.1870575, -7.89168072 ], [ 113.18704224, -7.89134979 ], [ 113.18695068, -7.89103985 ], [ 113.18695831, -7.89091206 ], [ 113.18697357, -7.89077044 ], [ 113.1871109, -7.89054012 ], [ 113.18730164, -7.89048004 ], [ 113.18731689, -7.89036989 ], [ 113.18714905, -7.89024019 ], [ 113.18697357, -7.88998127 ], [ 113.18684387, -7.88962698 ], [ 113.18675232, -7.88939333 ], [ 113.18682098, -7.88894367 ], [ 113.18701935, -7.8888402 ], [ 113.18711853, -7.88867998 ], [ 113.18714905, -7.88855982 ], [ 113.18704224, -7.88838005 ], [ 113.1867981, -7.88813019 ], [ 113.18654633, -7.88803673 ], [ 113.18645477, -7.88777733 ], [ 113.1864624, -7.88766766 ], [ 113.18653107, -7.88758755 ], [ 113.18703461, -7.88763475 ], [ 113.18757629, -7.88762188 ], [ 113.18771362, -7.88746977 ], [ 113.18772125, -7.88739157 ], [ 113.1873703, -7.88717365 ], [ 113.18704987, -7.88688564 ], [ 113.18688965, -7.88647699 ], [ 113.1867981, -7.88601828 ], [ 113.18667603, -7.88553953 ], [ 113.18675995, -7.88502979 ], [ 113.18715668, -7.88452864 ], [ 113.18734741, -7.88432789 ], [ 113.18736267, -7.88403845 ], [ 113.18735504, -7.88382435 ], [ 113.18733978, -7.8834691 ], [ 113.18735504, -7.88295984 ], [ 113.18717957, -7.88290453 ], [ 113.18708801, -7.88287592 ], [ 113.18326569, -7.88167191 ], [ 113.17736053, -7.8798399 ], [ 113.17727661, -7.87996006 ], [ 113.17710114, -7.88008022 ], [ 113.17601776, -7.88079023 ], [ 113.17577362, -7.88109016 ], [ 113.17558289, -7.8812499 ], [ 113.17536926, -7.88129997 ], [ 113.17516327, -7.88127995 ], [ 113.17500305, -7.88120985 ], [ 113.17484283, -7.88106012 ], [ 113.17472076, -7.88094282 ], [ 113.17453003, -7.88076019 ], [ 113.17436981, -7.88077021 ], [ 113.17415619, -7.88083982 ], [ 113.17366791, -7.88110018 ], [ 113.17369843, -7.88118982 ], [ 113.17376709, -7.88140011 ], [ 113.17371368, -7.88149023 ], [ 113.17356873, -7.88156986 ], [ 113.17340088, -7.88157988 ], [ 113.17310333, -7.88151979 ], [ 113.17281342, -7.88149977 ], [ 113.17263031, -7.88155985 ], [ 113.17250824, -7.88168001 ], [ 113.17247772, -7.8818202 ], [ 113.1725235, -7.88193989 ], [ 113.1725769, -7.88216019 ], [ 113.17250061, -7.88225985 ], [ 113.17227173, -7.88242006 ], [ 113.17196655, -7.8825798 ], [ 113.17179871, -7.88259983 ], [ 113.17170715, -7.88253021 ], [ 113.17150116, -7.88235998 ], [ 113.17131805, -7.88230991 ], [ 113.1711731, -7.88233995 ], [ 113.17095947, -7.8824501 ], [ 113.17035675, -7.88279009 ], [ 113.17008972, -7.8828702 ], [ 113.16998291, -7.88290977 ], [ 113.16983795, -7.88298988 ], [ 113.16973114, -7.88316011 ], [ 113.1696701, -7.88338995 ], [ 113.16847992, -7.88418055 ], [ 113.16783905, -7.88386583 ], [ 113.16745758, -7.8842864 ], [ 113.16632843, -7.88385725 ], [ 113.16490173, -7.88352966 ], [ 113.16412354, -7.88298893 ], [ 113.16403961, -7.88293123 ], [ 113.1641922, -7.88259554 ], [ 113.16365051, -7.88243103 ], [ 113.16252899, -7.88218355 ], [ 113.16239166, -7.88215303 ], [ 113.16166687, -7.88207293 ], [ 113.16101837, -7.88254499 ], [ 113.1602478, -7.88269997 ], [ 113.15982819, -7.88307047 ], [ 113.15930939, -7.88389349 ], [ 113.15908051, -7.88404512 ], [ 113.15849304, -7.88433266 ], [ 113.15790558, -7.88493872 ], [ 113.15751648, -7.88494062 ], [ 113.1574173, -7.88522577 ], [ 113.15713501, -7.8849926 ], [ 113.15750122, -7.88420391 ], [ 113.15653992, -7.88322115 ], [ 113.15603638, -7.88301325 ], [ 113.15599823, -7.88294983 ], [ 113.15595245, -7.88284159 ], [ 113.15589142, -7.88271999 ], [ 113.15557861, -7.8822999 ], [ 113.15531921, -7.88204002 ], [ 113.15509796, -7.88178015 ], [ 113.15473938, -7.88146019 ], [ 113.15418243, -7.88098001 ], [ 113.1541214, -7.88092995 ], [ 113.15351868, -7.88039017 ], [ 113.1530838, -7.87999344 ], [ 113.15289307, -7.87981987 ], [ 113.15235901, -7.87947989 ], [ 113.1517334, -7.87927008 ], [ 113.15110016, -7.87905979 ], [ 113.15065765, -7.87895012 ], [ 113.15054321, -7.87892008 ], [ 113.15006256, -7.87887001 ], [ 113.14951324, -7.87887001 ], [ 113.14907074, -7.87894011 ], [ 113.14859009, -7.87908983 ], [ 113.14824677, -7.87912989 ], [ 113.14788818, -7.87909985 ], [ 113.14743042, -7.8790102 ], [ 113.14677429, -7.87877846 ], [ 113.14666748, -7.87873983 ], [ 113.14656067, -7.87871456 ], [ 113.14591217, -7.87856007 ], [ 113.14577484, -7.87851667 ], [ 113.14517975, -7.87838984 ], [ 113.14469147, -7.87829018 ], [ 113.14438629, -7.87824011 ], [ 113.14395905, -7.87823009 ], [ 113.14349365, -7.87814999 ], [ 113.14305878, -7.87800074 ], [ 113.14292145, -7.87795019 ], [ 113.1424408, -7.87769985 ], [ 113.14199066, -7.87734985 ], [ 113.14176178, -7.87696981 ], [ 113.1415329, -7.87635994 ], [ 113.14144135, -7.87593985 ], [ 113.14128113, -7.87526989 ], [ 113.14131165, -7.875 ], [ 113.14134216, -7.87478018 ], [ 113.14137268, -7.87457991 ], [ 113.14143372, -7.87428999 ], [ 113.14163971, -7.87383986 ], [ 113.14196777, -7.87315989 ], [ 113.14207458, -7.87295485 ], [ 113.14218903, -7.87272978 ], [ 113.1425705, -7.87193012 ], [ 113.14276123, -7.87159014 ], [ 113.14306641, -7.87124014 ], [ 113.14350891, -7.87090015 ], [ 113.14363098, -7.87082005 ], [ 113.14394379, -7.87017012 ], [ 113.14413452, -7.86929941 ], [ 113.14421844, -7.86890984 ], [ 113.14437103, -7.86831999 ], [ 113.14453125, -7.86744022 ], [ 113.14467621, -7.86685991 ], [ 113.14485168, -7.86646986 ], [ 113.14499664, -7.86620998 ], [ 113.14512634, -7.86607981 ], [ 113.1452713, -7.86603022 ], [ 113.14550781, -7.86607981 ], [ 113.14588165, -7.86630011 ], [ 113.14617157, -7.86651993 ], [ 113.14643097, -7.86664009 ], [ 113.14674377, -7.86674023 ], [ 113.1468811, -7.86682987 ], [ 113.14704895, -7.86709976 ], [ 113.1472168, -7.86748981 ], [ 113.14739227, -7.86771011 ], [ 113.14756775, -7.86785984 ], [ 113.14775848, -7.86791992 ], [ 113.14801025, -7.86791992 ], [ 113.14833832, -7.86780024 ], [ 113.14923859, -7.86715984 ], [ 113.14933014, -7.86710644 ], [ 113.14952087, -7.86699009 ], [ 113.15029907, -7.86668015 ], [ 113.15054321, -7.86662006 ], [ 113.15119934, -7.86674023 ], [ 113.15135956, -7.86676979 ], [ 113.15145874, -7.8667202 ], [ 113.1516037, -7.86624336 ], [ 113.15164948, -7.86611986 ], [ 113.15174103, -7.86604977 ], [ 113.15181732, -7.86596584 ], [ 113.15193176, -7.86568022 ], [ 113.15219879, -7.8653698 ], [ 113.15234375, -7.86528015 ], [ 113.15257263, -7.86523008 ], [ 113.15312195, -7.86534977 ], [ 113.15399933, -7.86526012 ], [ 113.15471649, -7.86517 ], [ 113.1550827, -7.86510992 ], [ 113.15532684, -7.86502981 ], [ 113.15561676, -7.86484003 ], [ 113.15572357, -7.86472988 ], [ 113.1558075, -7.86457014 ], [ 113.15590668, -7.86450005 ], [ 113.15614319, -7.86473989 ], [ 113.15625, -7.86487007 ], [ 113.15640259, -7.86492014 ], [ 113.15653229, -7.86490011 ], [ 113.15686798, -7.86464977 ], [ 113.1570282, -7.86447001 ], [ 113.15714264, -7.86428022 ], [ 113.15730286, -7.86415005 ], [ 113.1574707, -7.86408997 ], [ 113.15782166, -7.86413002 ], [ 113.15821838, -7.8642602 ], [ 113.15847778, -7.86433983 ], [ 113.15879822, -7.86436987 ], [ 113.15921783, -7.86429977 ], [ 113.15966797, -7.86415005 ], [ 113.16004944, -7.86398983 ], [ 113.16020203, -7.86396027 ], [ 113.16036224, -7.86393023 ], [ 113.1605072, -7.86393976 ], [ 113.16072845, -7.86406994 ], [ 113.16082764, -7.8641901 ], [ 113.16085052, -7.86433983 ], [ 113.16082001, -7.8645401 ], [ 113.16088104, -7.86468983 ], [ 113.16100311, -7.86479998 ], [ 113.16116333, -7.86487007 ], [ 113.16140747, -7.86488008 ], [ 113.16166687, -7.86478996 ], [ 113.16201782, -7.86464024 ], [ 113.16233063, -7.86456013 ], [ 113.16282654, -7.86450005 ], [ 113.16310883, -7.86453009 ], [ 113.16398621, -7.86482382 ], [ 113.16409302, -7.86486006 ], [ 113.16424561, -7.86486721 ], [ 113.16477203, -7.8648901 ], [ 113.1652832, -7.86490011 ], [ 113.16573334, -7.86493015 ], [ 113.16612244, -7.8648901 ], [ 113.16654205, -7.86477995 ], [ 113.16773987, -7.86424017 ], [ 113.16812897, -7.86399984 ], [ 113.16835785, -7.8638401 ], [ 113.16845703, -7.86370993 ], [ 113.16850281, -7.86352015 ], [ 113.16848755, -7.86307001 ], [ 113.16851044, -7.86290979 ], [ 113.16873169, -7.86262989 ], [ 113.1688385, -7.86249018 ], [ 113.16887665, -7.86233997 ], [ 113.16887665, -7.86211014 ], [ 113.16903687, -7.86176014 ], [ 113.16919708, -7.86152983 ], [ 113.16937256, -7.8613801 ], [ 113.16951752, -7.86131001 ], [ 113.16963959, -7.86131001 ], [ 113.16977692, -7.86140013 ], [ 113.16989136, -7.86160994 ], [ 113.16999817, -7.86193991 ], [ 113.17008209, -7.86206007 ], [ 113.17028046, -7.86212015 ], [ 113.17067719, -7.8620801 ], [ 113.17098236, -7.86205006 ], [ 113.17114258, -7.86202002 ], [ 113.17127991, -7.86191988 ], [ 113.17144012, -7.86168003 ], [ 113.17149353, -7.86153984 ], [ 113.17149353, -7.86144018 ], [ 113.17137146, -7.86132002 ], [ 113.17108917, -7.86099005 ], [ 113.17092896, -7.86077976 ], [ 113.17089081, -7.86070013 ], [ 113.17076111, -7.86042976 ], [ 113.17066193, -7.86020994 ], [ 113.17044067, -7.85998011 ], [ 113.17036438, -7.85990953 ], [ 113.17027283, -7.85981989 ], [ 113.17021179, -7.85969019 ], [ 113.17037201, -7.85931015 ], [ 113.1704483, -7.85912991 ], [ 113.1704483, -7.85898018 ], [ 113.17037964, -7.85887003 ], [ 113.17015839, -7.85874987 ], [ 113.16999817, -7.85867977 ], [ 113.16989136, -7.85858011 ], [ 113.16980743, -7.85833979 ], [ 113.16979218, -7.85815001 ], [ 113.16986084, -7.85796022 ], [ 113.16998291, -7.85784006 ], [ 113.17012787, -7.85777998 ], [ 113.17044067, -7.8578701 ], [ 113.17059326, -7.85790014 ], [ 113.17102051, -7.85761023 ], [ 113.1711731, -7.85748005 ], [ 113.1712265, -7.85734987 ], [ 113.17118835, -7.85716009 ], [ 113.17108917, -7.85698986 ], [ 113.17095184, -7.85680008 ], [ 113.17088318, -7.85662985 ], [ 113.17088318, -7.85651016 ], [ 113.17095184, -7.85636997 ], [ 113.17105865, -7.85629988 ], [ 113.1711731, -7.85629988 ], [ 113.1713562, -7.85642004 ], [ 113.17140961, -7.85647011 ], [ 113.17167664, -7.85657978 ], [ 113.17201996, -7.85632038 ], [ 113.17218781, -7.8561902 ], [ 113.1727829, -7.85581017 ], [ 113.17311859, -7.85555983 ], [ 113.17324829, -7.85542011 ], [ 113.17327881, -7.85531998 ], [ 113.17324066, -7.85521984 ], [ 113.17311859, -7.85514021 ], [ 113.17260742, -7.85488987 ], [ 113.1725235, -7.85480022 ], [ 113.17246246, -7.85470009 ], [ 113.17211914, -7.85462999 ], [ 113.17183685, -7.85452986 ], [ 113.17176056, -7.85441017 ], [ 113.17178345, -7.85429001 ], [ 113.17180634, -7.85421991 ], [ 113.17186737, -7.85415983 ], [ 113.17224884, -7.85419989 ], [ 113.17253113, -7.85425997 ], [ 113.17266846, -7.85434008 ], [ 113.17272949, -7.85438013 ], [ 113.17297363, -7.85449982 ], [ 113.17310333, -7.8545599 ], [ 113.17324066, -7.85452986 ], [ 113.17337799, -7.85441017 ], [ 113.17350769, -7.85411978 ], [ 113.17353821, -7.85393 ], [ 113.17350006, -7.85381985 ], [ 113.1733017, -7.85388994 ], [ 113.17318726, -7.85394001 ], [ 113.17305756, -7.85391998 ], [ 113.17297363, -7.85382986 ], [ 113.17294312, -7.85370016 ], [ 113.17302704, -7.85342979 ], [ 113.17312622, -7.85291004 ], [ 113.17317963, -7.85274982 ], [ 113.17330933, -7.85253 ], [ 113.17333221, -7.85240984 ], [ 113.17328644, -7.85233021 ], [ 113.17314148, -7.85229015 ], [ 113.17297363, -7.8523798 ], [ 113.17282867, -7.85246992 ], [ 113.17269135, -7.85248995 ], [ 113.17259216, -7.85242987 ], [ 113.17254639, -7.85232019 ], [ 113.17256165, -7.85210991 ], [ 113.17263794, -7.85196018 ], [ 113.17276001, -7.85186005 ], [ 113.17307281, -7.85186005 ], [ 113.17327881, -7.85186005 ], [ 113.17344666, -7.85180998 ], [ 113.1735611, -7.85171986 ], [ 113.17360687, -7.85160017 ], [ 113.17352295, -7.85136986 ], [ 113.17344666, -7.8512001 ], [ 113.17344666, -7.85105991 ], [ 113.17350006, -7.85094976 ], [ 113.17363739, -7.85087013 ], [ 113.17392731, -7.85086012 ], [ 113.17395782, -7.85072994 ], [ 113.17359924, -7.85017014 ], [ 113.17353058, -7.85003996 ], [ 113.17353058, -7.8499198 ], [ 113.17363739, -7.84977007 ], [ 113.17378998, -7.84967995 ], [ 113.17397308, -7.84966993 ], [ 113.17453766, -7.85000992 ], [ 113.17466736, -7.85007 ], [ 113.17485809, -7.85004997 ], [ 113.17501831, -7.84997988 ], [ 113.17507935, -7.84989977 ], [ 113.17501831, -7.84970999 ], [ 113.17487335, -7.84950018 ], [ 113.17484283, -7.84906006 ], [ 113.17479706, -7.84888983 ], [ 113.17469025, -7.84873009 ], [ 113.1745224, -7.84863567 ], [ 113.17445374, -7.84859991 ], [ 113.17434692, -7.84847021 ], [ 113.17430115, -7.84824991 ], [ 113.17443085, -7.84785986 ], [ 113.17446899, -7.84770012 ], [ 113.17443085, -7.8475399 ], [ 113.17410278, -7.84727001 ], [ 113.1740036, -7.84716988 ], [ 113.1739502, -7.84705019 ], [ 113.17401123, -7.84681988 ], [ 113.17405701, -7.84661007 ], [ 113.17404938, -7.84646988 ], [ 113.17391968, -7.84630013 ], [ 113.17369843, -7.84609985 ], [ 113.1735611, -7.84583998 ], [ 113.17349243, -7.84562016 ], [ 113.17349243, -7.84541988 ], [ 113.17355347, -7.84524012 ], [ 113.17363739, -7.84514999 ], [ 113.17376709, -7.84514999 ], [ 113.17385101, -7.84514999 ], [ 113.17411804, -7.84445 ], [ 113.17440033, -7.84411001 ], [ 113.17450714, -7.84397984 ], [ 113.17453766, -7.84385014 ], [ 113.17447662, -7.84364986 ], [ 113.17429352, -7.84346008 ], [ 113.17417145, -7.84333992 ], [ 113.17411041, -7.84318018 ], [ 113.17415619, -7.84292984 ], [ 113.17418671, -7.84274006 ], [ 113.17394257, -7.84206009 ], [ 113.17359924, -7.84123993 ], [ 113.17355347, -7.84110022 ], [ 113.17359161, -7.84071016 ], [ 113.17359161, -7.84061003 ], [ 113.17359161, -7.84022999 ], [ 113.17359161, -7.83987999 ], [ 113.17363739, -7.83963013 ], [ 113.17371368, -7.8394599 ], [ 113.17388153, -7.83931017 ], [ 113.17417908, -7.83912992 ], [ 113.17462921, -7.83890009 ], [ 113.1749115, -7.83871984 ], [ 113.17518616, -7.8384614 ], [ 113.17524719, -7.83839989 ], [ 113.17537689, -7.83822012 ], [ 113.17546844, -7.83798981 ], [ 113.17543793, -7.83756018 ], [ 113.17539215, -7.83708 ], [ 113.17542267, -7.83678102 ], [ 113.17550659, -7.83653021 ], [ 113.17565155, -7.83631992 ], [ 113.1758728, -7.83616018 ], [ 113.17632294, -7.83600378 ], [ 113.17653656, -7.83592987 ], [ 113.17739105, -7.83521986 ], [ 113.17768097, -7.83500004 ], [ 113.17783356, -7.8348999 ], [ 113.17791748, -7.8347702 ], [ 113.17781067, -7.83429003 ], [ 113.17769623, -7.83395004 ], [ 113.17768097, -7.83375978 ], [ 113.17769623, -7.83368015 ], [ 113.17780304, -7.8336401 ], [ 113.17810822, -7.83369017 ], [ 113.1783905, -7.83379984 ], [ 113.1785965, -7.83396006 ], [ 113.17884827, -7.83436012 ], [ 113.17897797, -7.83459997 ], [ 113.17907715, -7.83470011 ], [ 113.17922211, -7.83473015 ], [ 113.17933655, -7.83471012 ], [ 113.17946625, -7.83456993 ], [ 113.17961121, -7.83439016 ], [ 113.17984772, -7.83423996 ], [ 113.18009186, -7.83406019 ], [ 113.18025208, -7.83395004 ], [ 113.18041229, -7.83393002 ], [ 113.18058014, -7.8339901 ], [ 113.18071747, -7.83410978 ], [ 113.18079376, -7.83424997 ], [ 113.18061066, -7.83468008 ], [ 113.1805191, -7.83491993 ], [ 113.18049622, -7.83509016 ], [ 113.18054962, -7.83521986 ], [ 113.1806488, -7.83532 ], [ 113.18074799, -7.83535004 ], [ 113.18094635, -7.83525991 ], [ 113.18108368, -7.83511019 ], [ 113.18121338, -7.83493996 ], [ 113.18136597, -7.83485556 ], [ 113.18147278, -7.83479977 ], [ 113.18157959, -7.83473015 ], [ 113.18173981, -7.83441019 ], [ 113.18183899, -7.83414984 ], [ 113.18183899, -7.8339901 ], [ 113.18173981, -7.8337698 ], [ 113.18154907, -7.83353996 ], [ 113.18138123, -7.83340979 ], [ 113.18110657, -7.83339977 ], [ 113.18084717, -7.83339977 ], [ 113.18068695, -7.8333602 ], [ 113.18060303, -7.83326006 ], [ 113.18058014, -7.83303022 ], [ 113.18056488, -7.83270884 ], [ 113.18054962, -7.83255005 ], [ 113.18068695, -7.83199978 ], [ 113.18074799, -7.83186007 ], [ 113.18087006, -7.83174992 ], [ 113.18132019, -7.83162022 ], [ 113.18144989, -7.83157015 ], [ 113.18153381, -7.83148003 ], [ 113.18154144, -7.83135986 ], [ 113.18128204, -7.83114004 ], [ 113.18112183, -7.83100986 ], [ 113.18106079, -7.83088017 ], [ 113.18105316, -7.83078003 ], [ 113.18119049, -7.83058977 ], [ 113.18153381, -7.8303299 ], [ 113.18160248, -7.83029127 ], [ 113.18196106, -7.83020306 ], [ 113.18224335, -7.82990026 ], [ 113.18218994, -7.82962847 ], [ 113.18199158, -7.8294425 ], [ 113.18199158, -7.82918692 ], [ 113.18226624, -7.82901859 ], [ 113.18234253, -7.82897091 ], [ 113.18258667, -7.82896948 ], [ 113.18286896, -7.82913399 ], [ 113.18309021, -7.82925749 ], [ 113.18331909, -7.8292284 ], [ 113.18341827, -7.82909679 ], [ 113.18350983, -7.82895565 ], [ 113.18349457, -7.8288269 ], [ 113.18321991, -7.8286624 ], [ 113.18270874, -7.82825708 ], [ 113.1825943, -7.82796049 ], [ 113.18264008, -7.82762861 ], [ 113.18273163, -7.82737255 ], [ 113.18280792, -7.82727003 ], [ 113.1831131, -7.82694006 ], [ 113.1831665, -7.82687998 ], [ 113.18348694, -7.82650995 ], [ 113.18374634, -7.82618999 ], [ 113.18405914, -7.82593012 ], [ 113.18428802, -7.82577991 ], [ 113.18457794, -7.82567978 ], [ 113.18491364, -7.82565022 ], [ 113.18515778, -7.82567978 ], [ 113.18537903, -7.8257699 ], [ 113.18560791, -7.8259902 ], [ 113.1857605, -7.82615995 ], [ 113.1859436, -7.8262701 ], [ 113.18612671, -7.82631016 ], [ 113.18639374, -7.82626009 ], [ 113.18669891, -7.8261199 ], [ 113.18694305, -7.82601023 ], [ 113.18713379, -7.82598019 ], [ 113.18733978, -7.82601976 ], [ 113.1875, -7.82609987 ], [ 113.18759918, -7.82623148 ], [ 113.18775177, -7.82643986 ], [ 113.18788147, -7.82660007 ], [ 113.18811035, -7.82672024 ], [ 113.18856812, -7.82675982 ], [ 113.18908691, -7.82682085 ], [ 113.18924713, -7.82683992 ], [ 113.18985748, -7.82691002 ], [ 113.19039154, -7.82695007 ], [ 113.19059753, -7.82694006 ], [ 113.19078064, -7.82685995 ], [ 113.19106293, -7.8266201 ], [ 113.19114685, -7.82651663 ], [ 113.19125366, -7.82638979 ], [ 113.19146729, -7.82561016 ], [ 113.19151306, -7.82535982 ], [ 113.19152832, -7.82512999 ], [ 113.19161224, -7.82454014 ], [ 113.19165039, -7.82440996 ], [ 113.19219208, -7.82429981 ], [ 113.19233704, -7.82425022 ], [ 113.19246674, -7.82414007 ], [ 113.19255829, -7.8239398 ], [ 113.19271088, -7.82326984 ], [ 113.19277954, -7.82310009 ], [ 113.19320679, -7.82271004 ], [ 113.19342041, -7.82252979 ], [ 113.19350433, -7.82241535 ], [ 113.19386292, -7.82281017 ], [ 113.19469452, -7.82331371 ], [ 113.19528961, -7.82276869 ], [ 113.19542694, -7.8227005 ], [ 113.19617462, -7.82305765 ], [ 113.19674683, -7.82327366 ], [ 113.19810486, -7.82059956 ], [ 113.19816589, -7.82048559 ], [ 113.19830322, -7.82022524 ], [ 113.1984024, -7.82005548 ], [ 113.19860077, -7.81968212 ], [ 113.19904327, -7.81886721 ], [ 113.19917297, -7.81862926 ], [ 113.19927216, -7.8184371 ], [ 113.19933319, -7.81832409 ], [ 113.19944763, -7.81817484 ], [ 113.20175171, -7.81965446 ], [ 113.20441437, -7.81984568 ], [ 113.20503235, -7.81993628 ], [ 113.20539856, -7.81998491 ], [ 113.20563507, -7.81866169 ], [ 113.20635986, -7.81733894 ], [ 113.20639801, -7.81726599 ], [ 113.20693207, -7.8168211 ], [ 113.20704651, -7.81645727 ], [ 113.20726776, -7.81631804 ], [ 113.2074585, -7.81607723 ], [ 113.20761871, -7.81592703 ], [ 113.20765686, -7.81583929 ], [ 113.20773315, -7.81568289 ], [ 113.2077713, -7.81558466 ], [ 113.20783997, -7.81548214 ], [ 113.207901, -7.81528139 ], [ 113.20800018, -7.81497478 ], [ 113.20802307, -7.81476879 ], [ 113.20831299, -7.81481743 ], [ 113.20872498, -7.81497812 ], [ 113.20900726, -7.81507635 ], [ 113.2088623, -7.81541681 ], [ 113.20809174, -7.81678963 ], [ 113.20972443, -7.81748438 ], [ 113.21005249, -7.81769753 ], [ 113.21131134, -7.81818533 ], [ 113.21213531, -7.81842327 ], [ 113.21213531, -7.81892824 ], [ 113.21242523, -7.81911612 ], [ 113.21285248, -7.81933212 ], [ 113.21333313, -7.81949091 ], [ 113.2137146, -7.81969118 ], [ 113.21408081, -7.8198266 ], [ 113.21442413, -7.81991339 ], [ 113.21474457, -7.8200655 ], [ 113.2148819, -7.82014942 ], [ 113.2148056, -7.82028532 ], [ 113.2147522, -7.82037592 ], [ 113.21473694, -7.82055235 ], [ 113.21479034, -7.82100105 ], [ 113.2149353, -7.82180691 ], [ 113.21495056, -7.82206774 ], [ 113.21497345, -7.82250786 ], [ 113.21508026, -7.82267284 ], [ 113.21525574, -7.82294226 ], [ 113.21535492, -7.82309294 ], [ 113.21550751, -7.82351971 ], [ 113.21551514, -7.8237915 ], [ 113.2154541, -7.82399845 ], [ 113.21542358, -7.82412434 ], [ 113.2154007, -7.82422495 ], [ 113.21536255, -7.82431936 ], [ 113.2153244, -7.82441235 ], [ 113.21520996, -7.82451677 ], [ 113.21489716, -7.82465792 ], [ 113.21453094, -7.82485008 ], [ 113.2144165, -7.82490873 ], [ 113.21398163, -7.82519007 ], [ 113.21389008, -7.8252821 ], [ 113.21382141, -7.82534981 ], [ 113.21376038, -7.82551003 ], [ 113.21365356, -7.82570744 ], [ 113.21373749, -7.82585669 ], [ 113.21396637, -7.82599545 ], [ 113.21456146, -7.82617187 ], [ 113.21470642, -7.82615995 ], [ 113.21482849, -7.82637978 ], [ 113.21482849, -7.82649994 ], [ 113.2147522, -7.82665014 ], [ 113.21470642, -7.82672024 ], [ 113.21452332, -7.82702732 ], [ 113.21424866, -7.82746506 ], [ 113.21405029, -7.82778978 ], [ 113.21360779, -7.82853985 ], [ 113.21330261, -7.82889986 ], [ 113.21307373, -7.82906008 ], [ 113.21286011, -7.82918644 ], [ 113.21257782, -7.82919788 ], [ 113.21250153, -7.82921743 ], [ 113.21233368, -7.82925892 ], [ 113.2121048, -7.82936001 ], [ 113.21187592, -7.82957125 ], [ 113.21138763, -7.83008289 ], [ 113.21117401, -7.83014393 ], [ 113.21096802, -7.830235 ], [ 113.21065521, -7.83023643 ], [ 113.21037292, -7.83023787 ], [ 113.2101059, -7.83025885 ], [ 113.20985413, -7.83044052 ], [ 113.20967865, -7.83081055 ], [ 113.20954895, -7.83113098 ], [ 113.2094574, -7.83147097 ], [ 113.20935822, -7.83171558 ], [ 113.20915985, -7.83221769 ], [ 113.20904541, -7.83251143 ], [ 113.20870209, -7.83340979 ], [ 113.20855713, -7.83370209 ], [ 113.2082901, -7.83380365 ], [ 113.20794678, -7.83390999 ], [ 113.20764923, -7.83416986 ], [ 113.20758057, -7.83438015 ], [ 113.20746613, -7.83445692 ], [ 113.20744324, -7.83470678 ], [ 113.20733643, -7.83518648 ], [ 113.20724487, -7.83545637 ], [ 113.20729828, -7.83576584 ], [ 113.2073822, -7.83616495 ], [ 113.20743561, -7.83640432 ], [ 113.2075119, -7.83651352 ], [ 113.20780182, -7.83651209 ], [ 113.20797729, -7.83657122 ], [ 113.20808411, -7.8366704 ], [ 113.20807648, -7.8367548 ], [ 113.20807648, -7.83684015 ], [ 113.20810699, -7.83702946 ], [ 113.20806885, -7.83718967 ], [ 113.20793915, -7.83749008 ], [ 113.20799255, -7.83772945 ], [ 113.20811462, -7.83823776 ], [ 113.20822144, -7.8384099 ], [ 113.20810699, -7.83865976 ], [ 113.20783234, -7.83886814 ], [ 113.20758057, -7.83932734 ], [ 113.20746613, -7.83952951 ], [ 113.20736694, -7.8396697 ], [ 113.20729065, -7.83990955 ], [ 113.20728302, -7.84026909 ], [ 113.20760345, -7.84046698 ], [ 113.20794678, -7.84054518 ], [ 113.20834351, -7.84066296 ], [ 113.20842743, -7.8407526 ], [ 113.20851135, -7.84085131 ], [ 113.20852661, -7.84098005 ], [ 113.20844269, -7.84120178 ], [ 113.20828247, -7.84131241 ], [ 113.20799255, -7.84139395 ], [ 113.2075882, -7.84144592 ], [ 113.20730591, -7.84150696 ], [ 113.20706177, -7.84176826 ], [ 113.20702362, -7.84210777 ], [ 113.20696259, -7.84271717 ], [ 113.20679474, -7.84296751 ], [ 113.20640564, -7.84312963 ], [ 113.20610046, -7.84341049 ], [ 113.20585632, -7.84358168 ], [ 113.20549011, -7.84381342 ], [ 113.20514679, -7.84414434 ], [ 113.2050705, -7.84450436 ], [ 113.20504761, -7.84499407 ], [ 113.20487976, -7.84567356 ], [ 113.20488739, -7.84601307 ], [ 113.20467377, -7.8462038 ], [ 113.20446777, -7.84631491 ], [ 113.20436859, -7.84653521 ], [ 113.2044754, -7.84672403 ], [ 113.20470428, -7.84683275 ], [ 113.2052536, -7.8468399 ], [ 113.20532227, -7.84695244 ], [ 113.20536041, -7.84710979 ], [ 113.20529175, -7.84721994 ], [ 113.20518494, -7.84736967 ], [ 113.2050705, -7.84747982 ], [ 113.20488739, -7.84759092 ], [ 113.20469666, -7.84756994 ], [ 113.20444489, -7.84760284 ], [ 113.20436096, -7.8477931 ], [ 113.20435333, -7.84789419 ], [ 113.20435333, -7.84814262 ], [ 113.20471191, -7.84831047 ], [ 113.20484161, -7.84844875 ], [ 113.20492554, -7.84852934 ], [ 113.20474243, -7.84874964 ], [ 113.20458221, -7.84873056 ], [ 113.204422, -7.84884119 ], [ 113.20422363, -7.84890223 ], [ 113.20393372, -7.84877396 ], [ 113.20388031, -7.8484745 ], [ 113.20371246, -7.8483758 ], [ 113.20355225, -7.8483367 ], [ 113.20333099, -7.8483777 ], [ 113.20316315, -7.84849834 ], [ 113.20309448, -7.84861851 ], [ 113.20307922, -7.84876871 ], [ 113.20301819, -7.84908009 ], [ 113.20291901, -7.84928989 ], [ 113.20272827, -7.84952021 ], [ 113.20200348, -7.85026979 ], [ 113.20166779, -7.85038328 ], [ 113.20163727, -7.85063314 ], [ 113.20166779, -7.85090256 ], [ 113.20188141, -7.85118103 ], [ 113.20187378, -7.85146093 ], [ 113.20167542, -7.85153151 ], [ 113.20134735, -7.85161352 ], [ 113.20095062, -7.85149574 ], [ 113.20071411, -7.85131693 ], [ 113.20044708, -7.85106897 ], [ 113.20026398, -7.8510499 ], [ 113.20001984, -7.85098124 ], [ 113.1998291, -7.85106993 ], [ 113.1996994, -7.85124016 ], [ 113.19937897, -7.85147381 ], [ 113.19948578, -7.8516531 ], [ 113.199646, -7.85184193 ], [ 113.19972229, -7.85200977 ], [ 113.19963837, -7.85217142 ], [ 113.19953918, -7.85238171 ], [ 113.19923401, -7.85247326 ], [ 113.19891357, -7.85245991 ], [ 113.19879913, -7.85254526 ], [ 113.19853973, -7.85270643 ], [ 113.19841003, -7.85282993 ], [ 113.19819641, -7.85301781 ], [ 113.19824219, -7.85329723 ], [ 113.1985321, -7.85374498 ], [ 113.19859314, -7.85398006 ], [ 113.19847107, -7.85429001 ], [ 113.19815063, -7.85506487 ], [ 113.19793701, -7.8552947 ], [ 113.19779205, -7.85576582 ], [ 113.19777679, -7.85585785 ], [ 113.19772339, -7.85621548 ], [ 113.19779205, -7.85635471 ], [ 113.19800568, -7.85639381 ], [ 113.19824219, -7.85625267 ], [ 113.19847107, -7.85608149 ], [ 113.1986618, -7.85610056 ], [ 113.19877625, -7.85615015 ], [ 113.19885254, -7.85626316 ], [ 113.19898987, -7.85660839 ], [ 113.19896698, -7.85692787 ], [ 113.19896698, -7.85708761 ], [ 113.1988678, -7.85719013 ], [ 113.19867706, -7.85727882 ], [ 113.19837952, -7.85733032 ], [ 113.19812012, -7.8572917 ], [ 113.19808197, -7.85743189 ], [ 113.19804382, -7.85762167 ], [ 113.19818115, -7.85788059 ], [ 113.19842529, -7.85808897 ], [ 113.19860077, -7.8582201 ], [ 113.1985321, -7.8583498 ], [ 113.19842529, -7.85855579 ], [ 113.19823456, -7.8586874 ], [ 113.19815063, -7.85875368 ], [ 113.19892883, -7.85886049 ], [ 113.19998932, -7.85900593 ], [ 113.20024109, -7.85902929 ], [ 113.20081329, -7.85911608 ], [ 113.20144653, -7.85922718 ], [ 113.20200348, -7.85940456 ], [ 113.20296478, -7.85960436 ], [ 113.20339966, -7.85966587 ], [ 113.20394135, -7.85976267 ], [ 113.20439911, -7.8598423 ], [ 113.20469666, -7.8599143 ], [ 113.20485687, -7.85991335 ], [ 113.20516205, -7.86009169 ], [ 113.20555115, -7.86008978 ], [ 113.20587921, -7.86010408 ], [ 113.20641327, -7.8601017 ], [ 113.20683289, -7.8601079 ], [ 113.20761108, -7.86017704 ], [ 113.20801544, -7.86024046 ], [ 113.20802307, -7.86033869 ], [ 113.20813751, -7.86035442 ], [ 113.2084198, -7.86038589 ], [ 113.20865631, -7.86043072 ], [ 113.20883179, -7.86046553 ], [ 113.2089386, -7.86048508 ], [ 113.2096405, -7.86061668 ], [ 113.21014404, -7.86048985 ], [ 113.21029663, -7.86051273 ], [ 113.21096802, -7.86053944 ], [ 113.21191406, -7.86073256 ], [ 113.2125473, -7.86086035 ], [ 113.21392059, -7.86116266 ], [ 113.21472168, -7.86126852 ], [ 113.2151413, -7.86138582 ], [ 113.21551514, -7.86142397 ], [ 113.21590424, -7.86146212 ], [ 113.21609497, -7.86144114 ], [ 113.21626282, -7.86205912 ], [ 113.21736145, -7.86209345 ], [ 113.21825409, -7.86209869 ], [ 113.21865082, -7.86206627 ], [ 113.2188797, -7.86206532 ], [ 113.22068024, -7.86223984 ], [ 113.22133636, -7.86258984 ], [ 113.22168732, -7.86277008 ], [ 113.2218399, -7.86290121 ], [ 113.22261047, -7.8635602 ], [ 113.22226715, -7.86407995 ], [ 113.22194672, -7.86434555 ], [ 113.22153473, -7.86486721 ], [ 113.22136688, -7.86534739 ], [ 113.22130585, -7.86570692 ], [ 113.22145081, -7.86605549 ], [ 113.22138214, -7.86624575 ], [ 113.22123718, -7.86645603 ], [ 113.22107697, -7.86666679 ], [ 113.22064972, -7.8668685 ], [ 113.22032928, -7.86710978 ], [ 113.2202301, -7.86733007 ], [ 113.2201004, -7.86754036 ], [ 113.2201767, -7.86786985 ], [ 113.22029877, -7.86815882 ], [ 113.22052765, -7.86845684 ], [ 113.22085571, -7.86855793 ], [ 113.22090912, -7.86872005 ], [ 113.22084808, -7.86884022 ], [ 113.22074127, -7.86893988 ], [ 113.22055817, -7.86898994 ], [ 113.2203598, -7.86907005 ], [ 113.22012329, -7.86918783 ], [ 113.21994019, -7.86939859 ], [ 113.21994781, -7.8696084 ], [ 113.22006226, -7.86972761 ], [ 113.22016907, -7.86983681 ], [ 113.2204895, -7.87001467 ], [ 113.22075653, -7.87008333 ], [ 113.22093964, -7.87019205 ], [ 113.22102356, -7.87040138 ], [ 113.22096252, -7.87060118 ], [ 113.2208786, -7.87072182 ], [ 113.2208252, -7.87087154 ], [ 113.22073364, -7.8712616 ], [ 113.22029877, -7.87153339 ], [ 113.22029114, -7.87203264 ], [ 113.22029877, -7.87234211 ], [ 113.22032166, -7.87268162 ], [ 113.22039032, -7.87294102 ], [ 113.22039795, -7.87316036 ], [ 113.22032166, -7.87338018 ], [ 113.22024536, -7.87355089 ], [ 113.22001648, -7.87361193 ], [ 113.21970367, -7.87356377 ], [ 113.2194519, -7.87358475 ], [ 113.2191925, -7.87347651 ], [ 113.21907806, -7.87357712 ], [ 113.21896362, -7.87368011 ], [ 113.21891022, -7.87378979 ], [ 113.21881104, -7.87377024 ], [ 113.21865845, -7.8736701 ], [ 113.21845245, -7.87362003 ], [ 113.21828461, -7.87366104 ], [ 113.21818542, -7.87363148 ], [ 113.21806335, -7.8737402 ], [ 113.21794891, -7.87388992 ], [ 113.21781158, -7.87400293 ], [ 113.21757507, -7.87402439 ], [ 113.21737671, -7.87392998 ], [ 113.21718597, -7.87396622 ], [ 113.21707153, -7.8741169 ], [ 113.21711731, -7.87434626 ], [ 113.21718597, -7.87457561 ], [ 113.21723938, -7.87477493 ], [ 113.21730804, -7.87495422 ], [ 113.21736145, -7.87524366 ], [ 113.21741486, -7.87553263 ], [ 113.21751404, -7.87580204 ], [ 113.21777344, -7.87598991 ], [ 113.21782684, -7.87622023 ], [ 113.21780396, -7.87633801 ], [ 113.21768951, -7.87645006 ], [ 113.21757507, -7.87647295 ], [ 113.21736145, -7.87663126 ], [ 113.21720123, -7.87679195 ], [ 113.21705627, -7.87699986 ], [ 113.21691132, -7.87704992 ], [ 113.21669006, -7.87709188 ], [ 113.21639252, -7.87710238 ], [ 113.21604919, -7.87703753 ], [ 113.21575165, -7.87700748 ], [ 113.2154541, -7.87706709 ], [ 113.21520233, -7.87716627 ], [ 113.21489716, -7.87731028 ], [ 113.21450806, -7.87751293 ], [ 113.21401978, -7.87767553 ], [ 113.21367645, -7.8777442 ], [ 113.21343231, -7.87778044 ], [ 113.21315765, -7.87787199 ], [ 113.21290588, -7.87797356 ], [ 113.21273041, -7.87803888 ], [ 113.21237946, -7.87820005 ], [ 113.21217346, -7.87840986 ], [ 113.21201324, -7.87865019 ], [ 113.21188354, -7.87881851 ], [ 113.21169281, -7.87894011 ], [ 113.21130371, -7.87910986 ], [ 113.21109009, -7.87919092 ], [ 113.21092224, -7.87942123 ], [ 113.21085358, -7.87991762 ], [ 113.21085358, -7.88007545 ], [ 113.21083832, -7.88030481 ], [ 113.21089172, -7.88054991 ], [ 113.21076202, -7.88068342 ], [ 113.21059418, -7.88072443 ], [ 113.21047974, -7.88075161 ], [ 113.21038818, -7.88085461 ], [ 113.21040344, -7.88107681 ], [ 113.21047211, -7.88127232 ], [ 113.21045685, -7.88141918 ], [ 113.21031189, -7.88157558 ], [ 113.21021271, -7.88174105 ], [ 113.21025085, -7.88183403 ], [ 113.21034241, -7.88194036 ], [ 113.21043396, -7.88204241 ], [ 113.21057892, -7.88217068 ], [ 113.21065521, -7.88235712 ], [ 113.21066284, -7.88243008 ], [ 113.21053314, -7.88250923 ], [ 113.21035767, -7.88247013 ], [ 113.21022797, -7.88250017 ], [ 113.20999908, -7.88268995 ], [ 113.21014404, -7.8829298 ], [ 113.21026611, -7.88312054 ], [ 113.21029663, -7.88339186 ], [ 113.21031189, -7.88349819 ], [ 113.21029663, -7.88368988 ], [ 113.21016693, -7.88383007 ], [ 113.20993805, -7.8839674 ], [ 113.21001434, -7.88408279 ], [ 113.21022797, -7.88416195 ], [ 113.21045685, -7.8842721 ], [ 113.21053314, -7.88440084 ], [ 113.21051788, -7.88450289 ], [ 113.21041107, -7.88461018 ], [ 113.21029663, -7.88471317 ], [ 113.21012115, -7.88473225 ], [ 113.21007538, -7.88483047 ], [ 113.21019745, -7.88498974 ], [ 113.21035767, -7.88508224 ], [ 113.21048737, -7.88521528 ], [ 113.2105484, -7.88535309 ], [ 113.21056366, -7.88550854 ], [ 113.21059418, -7.88600683 ], [ 113.21061707, -7.88627386 ], [ 113.21060944, -7.88660765 ], [ 113.21063995, -7.8868165 ], [ 113.21068573, -7.88723898 ], [ 113.21077728, -7.88743448 ], [ 113.21080017, -7.88758993 ], [ 113.21077728, -7.88779497 ], [ 113.21054077, -7.88785839 ], [ 113.21052551, -7.88809443 ], [ 113.21057892, -7.88837433 ], [ 113.21058655, -7.88867283 ], [ 113.21057129, -7.88897562 ], [ 113.21052551, -7.88914061 ], [ 113.21044159, -7.88932323 ], [ 113.21028137, -7.88971138 ], [ 113.20996857, -7.89028692 ], [ 113.2095871, -7.89075613 ], [ 113.20937347, -7.89097977 ], [ 113.20921326, -7.89105988 ], [ 113.20897675, -7.89106655 ], [ 113.20891571, -7.89118242 ], [ 113.20896912, -7.89135599 ], [ 113.20903778, -7.89147139 ], [ 113.20903015, -7.89160919 ], [ 113.208992, -7.89171171 ], [ 113.20892334, -7.89177895 ], [ 113.20881653, -7.89182854 ], [ 113.20867157, -7.89178991 ], [ 113.20855713, -7.89177179 ], [ 113.20848846, -7.89184809 ], [ 113.20843506, -7.89204216 ], [ 113.20844269, -7.89229345 ], [ 113.20839691, -7.8927474 ], [ 113.20828247, -7.89292622 ], [ 113.20820618, -7.89302444 ], [ 113.20811462, -7.89309359 ], [ 113.20791626, -7.89321804 ], [ 113.20780945, -7.89330673 ], [ 113.20779419, -7.89340496 ], [ 113.20788574, -7.89353323 ], [ 113.20801544, -7.89362526 ], [ 113.20813751, -7.89368343 ], [ 113.20810699, -7.89376831 ], [ 113.20806122, -7.89385271 ], [ 113.20795441, -7.89393854 ], [ 113.20787811, -7.89409065 ], [ 113.20778656, -7.8942337 ], [ 113.20778656, -7.89448977 ], [ 113.20774841, -7.89455652 ], [ 113.20768738, -7.89473581 ], [ 113.20764923, -7.89494991 ], [ 113.20768738, -7.8951354 ], [ 113.20780182, -7.89535284 ], [ 113.20806122, -7.89570427 ], [ 113.20797729, -7.89575386 ], [ 113.20783234, -7.89574575 ], [ 113.20767212, -7.89569521 ], [ 113.20760345, -7.89579964 ], [ 113.20750427, -7.89595222 ], [ 113.20750427, -7.89620113 ], [ 113.20751953, -7.89651728 ], [ 113.20755768, -7.89677048 ], [ 113.20756531, -7.8969574 ], [ 113.20752716, -7.89704275 ], [ 113.20741272, -7.89722347 ], [ 113.20729065, -7.89728117 ], [ 113.20714569, -7.89731026 ], [ 113.2070694, -7.89735842 ], [ 113.20705414, -7.89743423 ], [ 113.20703125, -7.89751005 ], [ 113.20703125, -7.89758587 ], [ 113.20705414, -7.89767122 ], [ 113.20713806, -7.8977375 ], [ 113.20726776, -7.89783144 ], [ 113.20739746, -7.89784956 ], [ 113.20755005, -7.89794016 ], [ 113.20751953, -7.89804411 ], [ 113.2073822, -7.89818096 ], [ 113.20713043, -7.89844513 ], [ 113.2070694, -7.89858675 ], [ 113.20709229, -7.89870548 ], [ 113.20719147, -7.89880037 ], [ 113.2073288, -7.8988266 ], [ 113.20743561, -7.89889812 ], [ 113.20748138, -7.89901686 ], [ 113.20748901, -7.89926958 ], [ 113.20742798, -7.89953136 ], [ 113.20727539, -7.89969397 ], [ 113.20718384, -7.89986372 ], [ 113.20717621, -7.90000677 ], [ 113.20722961, -7.90019321 ], [ 113.20730591, -7.9005332 ], [ 113.20735931, -7.90065861 ], [ 113.20745087, -7.90069723 ], [ 113.20763397, -7.90078783 ], [ 113.20776367, -7.90094185 ], [ 113.20801544, -7.90128899 ], [ 113.20810699, -7.90142059 ], [ 113.20822906, -7.90146017 ], [ 113.20858765, -7.90152597 ], [ 113.20864868, -7.90165377 ], [ 113.20864868, -7.90182638 ], [ 113.20858765, -7.90207815 ], [ 113.20847321, -7.90226936 ], [ 113.20828247, -7.90257931 ], [ 113.20827484, -7.90273714 ], [ 113.20834351, -7.90290117 ], [ 113.20852661, -7.90313482 ], [ 113.20876312, -7.90339565 ], [ 113.20884705, -7.90348339 ], [ 113.20882416, -7.90360689 ], [ 113.20870209, -7.9037528 ], [ 113.20846558, -7.90408802 ], [ 113.2082901, -7.90446091 ], [ 113.2082901, -7.904634 ], [ 113.20835114, -7.90479469 ], [ 113.20843506, -7.90483999 ], [ 113.20851135, -7.90485668 ], [ 113.20900726, -7.90492678 ], [ 113.20910645, -7.90502405 ], [ 113.20918274, -7.9052 ], [ 113.20916748, -7.90534925 ], [ 113.20904541, -7.90570164 ], [ 113.20880127, -7.9063859 ], [ 113.20880127, -7.90667772 ], [ 113.2088623, -7.90687943 ], [ 113.20887756, -7.907022 ], [ 113.20880127, -7.90712166 ], [ 113.2087326, -7.90725422 ], [ 113.20876312, -7.90736389 ], [ 113.20888519, -7.90749073 ], [ 113.20903778, -7.90748072 ], [ 113.20977783, -7.90733337 ], [ 113.21007538, -7.9073534 ], [ 113.21053314, -7.9074769 ], [ 113.21082306, -7.90759659 ], [ 113.21096802, -7.90774918 ], [ 113.21111298, -7.90800619 ], [ 113.21111298, -7.90817022 ], [ 113.21103668, -7.90832329 ], [ 113.21070099, -7.90892506 ], [ 113.21069336, -7.90910816 ], [ 113.21076202, -7.9092555 ], [ 113.21085358, -7.90928268 ], [ 113.21096039, -7.90924072 ], [ 113.21112061, -7.90916586 ], [ 113.21144104, -7.90901709 ], [ 113.21153259, -7.90910149 ], [ 113.21156311, -7.90923166 ], [ 113.21167755, -7.9097414 ], [ 113.21181488, -7.9099102 ], [ 113.21182251, -7.91000223 ], [ 113.21174622, -7.91015244 ], [ 113.21164703, -7.91038656 ], [ 113.21166992, -7.91051722 ], [ 113.21176147, -7.91063595 ], [ 113.21194458, -7.91088152 ], [ 113.21195984, -7.91103554 ], [ 113.21189117, -7.9112196 ], [ 113.21175385, -7.91141558 ], [ 113.21154785, -7.9115591 ], [ 113.21131897, -7.91174316 ], [ 113.2111969, -7.91192532 ], [ 113.21098328, -7.91232538 ], [ 113.21083832, -7.91256094 ], [ 113.21078491, -7.91277933 ], [ 113.2108078, -7.91299391 ], [ 113.21092224, -7.91328955 ], [ 113.21102142, -7.91354942 ], [ 113.21095276, -7.91366291 ], [ 113.21068573, -7.91388464 ], [ 113.21045685, -7.91412497 ], [ 113.21043396, -7.91427422 ], [ 113.21046448, -7.9145112 ], [ 113.21046448, -7.91468287 ], [ 113.21038818, -7.914855 ], [ 113.210289, -7.91494226 ], [ 113.21017456, -7.91494465 ], [ 113.21005249, -7.91497517 ], [ 113.20991516, -7.91509295 ], [ 113.20968628, -7.91538811 ], [ 113.20962524, -7.91556787 ], [ 113.20954132, -7.91583061 ], [ 113.20941162, -7.91591501 ], [ 113.20927429, -7.91591644 ], [ 113.20845032, -7.91581917 ], [ 113.20803833, -7.91586733 ], [ 113.20777893, -7.91596651 ], [ 113.20767975, -7.91608 ], [ 113.20766449, -7.91620111 ], [ 113.2076416, -7.91643476 ], [ 113.20748138, -7.91659355 ], [ 113.20726013, -7.91686249 ], [ 113.20722961, -7.91701746 ], [ 113.20728302, -7.91719627 ], [ 113.20746613, -7.91747904 ], [ 113.20755768, -7.91770315 ], [ 113.20755005, -7.91783476 ], [ 113.20742798, -7.91801262 ], [ 113.20713806, -7.91830254 ], [ 113.20674133, -7.91869259 ], [ 113.20655823, -7.91886902 ], [ 113.20643616, -7.91920662 ], [ 113.20637512, -7.91935396 ], [ 113.20610046, -7.91977882 ], [ 113.20610809, -7.91989708 ], [ 113.20619202, -7.91999769 ], [ 113.20655823, -7.92038631 ], [ 113.20664215, -7.92061138 ], [ 113.20664215, -7.92082024 ], [ 113.20657349, -7.92098808 ], [ 113.2065506, -7.9211421 ], [ 113.206604, -7.92128134 ], [ 113.20674896, -7.92143917 ], [ 113.20697021, -7.92167759 ], [ 113.20700073, -7.92182875 ], [ 113.20695496, -7.92203903 ], [ 113.20674133, -7.92297506 ], [ 113.20677948, -7.9236517 ], [ 113.20683289, -7.92394304 ], [ 113.20680237, -7.92409849 ], [ 113.20662689, -7.92459965 ], [ 113.20657349, -7.9247551 ], [ 113.2064209, -7.9251771 ], [ 113.20629883, -7.92586994 ], [ 113.20620728, -7.92636347 ], [ 113.20607758, -7.92693186 ], [ 113.20595551, -7.9270196 ], [ 113.20569611, -7.92711115 ] ] ] ] } }
]
}
