{
"type": "FeatureCollection",
"name": "Kecamatan Leces",
"crs": { "type": "name", "properties": { "name": "urn:ogc:def:crs:OGC:1.3:CRS84" } },
"features": [
{ "type": "Feature", "properties": { "GID_0": "IDN", "NAME_0": "Indonesia", "GID_1": "IDN.11_1", "NAME_1": "Jawa Timur", "NL_NAME_1": null, "GID_2": "IDN.11.30_1", "NAME_2": "Probolinggo", "NL_NAME_2": null, "GID_3": "IDN.11.30.12_1", "NAME_3": "Leces", "VARNAME_3": null, "NL_NAME_3": null, "TYPE_3": "Kecamatan", "ENGTYPE_3": "Sub-district", "CC_3": "3513050", "HASC_3": null }, "geometry": { "type": "MultiPolygon", "coordinates": [ [ [ [ 113.25167847, -7.90660238 ], [ 113.25158691, -7.90655088 ], [ 113.25095367, -7.90642262 ], [ 113.25059509, -7.90641499 ], [ 113.25024414, -7.90648746 ], [ 113.25, -7.90662479 ], [ 113.24970245, -7.90686703 ], [ 113.24906158, -7.90744734 ], [ 113.24871826, -7.90764189 ], [ 113.24848938, -7.90777493 ], [ 113.24826813, -7.90802717 ], [ 113.24823761, -7.90793705 ], [ 113.24819183, -7.90786743 ], [ 113.24808502, -7.90782976 ], [ 113.24781799, -7.90782881 ], [ 113.24741364, -7.90779066 ], [ 113.24729919, -7.90768719 ], [ 113.24725342, -7.90755606 ], [ 113.24725342, -7.90723133 ], [ 113.24720001, -7.90683126 ], [ 113.24710846, -7.90675449 ], [ 113.24693298, -7.90672636 ], [ 113.2460022, -7.90665293 ], [ 113.24523926, -7.90650272 ], [ 113.24492645, -7.9064045 ], [ 113.24455261, -7.90628767 ], [ 113.24370575, -7.90602398 ], [ 113.24340057, -7.90590191 ], [ 113.24324036, -7.90583658 ], [ 113.24222565, -7.90543795 ], [ 113.24150085, -7.90523767 ], [ 113.24117279, -7.90511894 ], [ 113.24085236, -7.9049325 ], [ 113.24035645, -7.90486336 ], [ 113.23970795, -7.90478754 ], [ 113.23960114, -7.90477467 ], [ 113.23886871, -7.90463972 ], [ 113.2385025, -7.9045496 ], [ 113.23767853, -7.90434933 ], [ 113.23685455, -7.90407562 ], [ 113.23614502, -7.90385723 ], [ 113.23571777, -7.90364504 ], [ 113.23542786, -7.9034996 ], [ 113.2345047, -7.90306902 ], [ 113.23371887, -7.90272093 ], [ 113.23285675, -7.90246773 ], [ 113.23251343, -7.90236568 ], [ 113.23126221, -7.90206623 ], [ 113.23014069, -7.90186882 ], [ 113.2292099, -7.90173483 ], [ 113.22839355, -7.90161371 ], [ 113.22818756, -7.90158272 ], [ 113.22725677, -7.90155077 ], [ 113.22620392, -7.90150976 ], [ 113.22504425, -7.90145111 ], [ 113.22398376, -7.9013176 ], [ 113.22324371, -7.90116692 ], [ 113.22309875, -7.90113688 ], [ 113.22203064, -7.90087414 ], [ 113.22105408, -7.90056419 ], [ 113.21990204, -7.90032005 ], [ 113.21901703, -7.90014839 ], [ 113.21828461, -7.89993906 ], [ 113.21788788, -7.8998208 ], [ 113.21743011, -7.89973068 ], [ 113.21699524, -7.89971447 ], [ 113.21639252, -7.89968967 ], [ 113.21524811, -7.89957142 ], [ 113.21508789, -7.89955187 ], [ 113.21463776, -7.89949512 ], [ 113.21376038, -7.89936066 ], [ 113.21277618, -7.89916229 ], [ 113.2116394, -7.89876986 ], [ 113.21037292, -7.89814615 ], [ 113.2093811, -7.89791965 ], [ 113.20919037, -7.89791584 ], [ 113.20832062, -7.89789724 ], [ 113.20751953, -7.89804411 ], [ 113.20755005, -7.89794016 ], [ 113.20739746, -7.89784956 ], [ 113.20726776, -7.89783144 ], [ 113.20713806, -7.8977375 ], [ 113.20705414, -7.89767122 ], [ 113.20703125, -7.89758587 ], [ 113.20703125, -7.89751005 ], [ 113.20705414, -7.89743423 ], [ 113.2070694, -7.89735842 ], [ 113.20714569, -7.89731026 ], [ 113.20729065, -7.89728117 ], [ 113.20741272, -7.89722347 ], [ 113.20752716, -7.89704275 ], [ 113.20756531, -7.8969574 ], [ 113.20755768, -7.89677048 ], [ 113.20751953, -7.89651728 ], [ 113.20750427, -7.89620113 ], [ 113.20750427, -7.89595222 ], [ 113.20760345, -7.89579964 ], [ 113.20767212, -7.89569521 ], [ 113.20783234, -7.89574575 ], [ 113.20797729, -7.89575386 ], [ 113.20806122, -7.89570427 ], [ 113.20780182, -7.89535284 ], [ 113.20768738, -7.8951354 ], [ 113.20764923, -7.89494991 ], [ 113.20768738, -7.89473581 ], [ 113.20774841, -7.89455652 ], [ 113.20778656, -7.89448977 ], [ 113.20778656, -7.8942337 ], [ 113.20787811, -7.89409065 ], [ 113.20795441, -7.89393854 ], [ 113.20806122, -7.89385271 ], [ 113.20810699, -7.89376831 ], [ 113.20813751, -7.89368343 ], [ 113.20801544, -7.89362526 ], [ 113.20788574, -7.89353323 ], [ 113.20779419, -7.89340496 ], [ 113.20780945, -7.89330673 ], [ 113.20791626, -7.89321804 ], [ 113.20811462, -7.89309359 ], [ 113.20820618, -7.89302444 ], [ 113.20828247, -7.89292622 ], [ 113.20839691, -7.8927474 ], [ 113.20844269, -7.89229345 ], [ 113.20843506, -7.89204216 ], [ 113.20848846, -7.89184809 ], [ 113.20855713, -7.89177179 ], [ 113.20867157, -7.89178991 ], [ 113.20881653, -7.89182854 ], [ 113.20892334, -7.89177895 ], [ 113.208992, -7.89171171 ], [ 113.20903015, -7.89160919 ], [ 113.20903778, -7.89147139 ], [ 113.20896912, -7.89135599 ], [ 113.20891571, -7.89118242 ], [ 113.20897675, -7.89106655 ], [ 113.20921326, -7.89105988 ], [ 113.20937347, -7.89097977 ], [ 113.2095871, -7.89075613 ], [ 113.20996857, -7.89028692 ], [ 113.21028137, -7.88971138 ], [ 113.21044159, -7.88932323 ], [ 113.21052551, -7.88914061 ], [ 113.21057129, -7.88897562 ], [ 113.21058655, -7.88867283 ], [ 113.21057892, -7.88837433 ], [ 113.21052551, -7.88809443 ], [ 113.21054077, -7.88785839 ], [ 113.21077728, -7.88779497 ], [ 113.21080017, -7.88758993 ], [ 113.21077728, -7.88743448 ], [ 113.21068573, -7.88723898 ], [ 113.21063995, -7.8868165 ], [ 113.21060944, -7.88660765 ], [ 113.21061707, -7.88627386 ], [ 113.21059418, -7.88600683 ], [ 113.21056366, -7.88550854 ], [ 113.2105484, -7.88535309 ], [ 113.21048737, -7.88521528 ], [ 113.21035767, -7.88508224 ], [ 113.21019745, -7.88498974 ], [ 113.21007538, -7.88483047 ], [ 113.21012115, -7.88473225 ], [ 113.21029663, -7.88471317 ], [ 113.21041107, -7.88461018 ], [ 113.21051788, -7.88450289 ], [ 113.21053314, -7.88440084 ], [ 113.21045685, -7.8842721 ], [ 113.21022797, -7.88416195 ], [ 113.21001434, -7.88408279 ], [ 113.20993805, -7.8839674 ], [ 113.21016693, -7.88383007 ], [ 113.21029663, -7.88368988 ], [ 113.21031189, -7.88349819 ], [ 113.21029663, -7.88339186 ], [ 113.21026611, -7.88312054 ], [ 113.21014404, -7.8829298 ], [ 113.20999908, -7.88268995 ], [ 113.21022797, -7.88250017 ], [ 113.21035767, -7.88247013 ], [ 113.21053314, -7.88250923 ], [ 113.21066284, -7.88243008 ], [ 113.21065521, -7.88235712 ], [ 113.21057892, -7.88217068 ], [ 113.21043396, -7.88204241 ], [ 113.21034241, -7.88194036 ], [ 113.21025085, -7.88183403 ], [ 113.21021271, -7.88174105 ], [ 113.21031189, -7.88157558 ], [ 113.21045685, -7.88141918 ], [ 113.21047211, -7.88127232 ], [ 113.21040344, -7.88107681 ], [ 113.21038818, -7.88085461 ], [ 113.21047974, -7.88075161 ], [ 113.21059418, -7.88072443 ], [ 113.21076202, -7.88068342 ], [ 113.21089172, -7.88054991 ], [ 113.21083832, -7.88030481 ], [ 113.21085358, -7.88007545 ], [ 113.21085358, -7.87991762 ], [ 113.21092224, -7.87942123 ], [ 113.21109009, -7.87919092 ], [ 113.21130371, -7.87910986 ], [ 113.21169281, -7.87894011 ], [ 113.21188354, -7.87881851 ], [ 113.21201324, -7.87865019 ], [ 113.21217346, -7.87840986 ], [ 113.21237946, -7.87820005 ], [ 113.21273041, -7.87803888 ], [ 113.21290588, -7.87797356 ], [ 113.21315765, -7.87787199 ], [ 113.21343231, -7.87778044 ], [ 113.21367645, -7.8777442 ], [ 113.21401978, -7.87767553 ], [ 113.21450806, -7.87751293 ], [ 113.21489716, -7.87731028 ], [ 113.21520233, -7.87716627 ], [ 113.2154541, -7.87706709 ], [ 113.21575165, -7.87700748 ], [ 113.21604919, -7.87703753 ], [ 113.21639252, -7.87710238 ], [ 113.21669006, -7.87709188 ], [ 113.21691132, -7.87704992 ], [ 113.21705627, -7.87699986 ], [ 113.21720123, -7.87679195 ], [ 113.21736145, -7.87663126 ], [ 113.21757507, -7.87647295 ], [ 113.21768951, -7.87645006 ], [ 113.21780396, -7.87633801 ], [ 113.21782684, -7.87622023 ], [ 113.21777344, -7.87598991 ], [ 113.21751404, -7.87580204 ], [ 113.21741486, -7.87553263 ], [ 113.21736145, -7.87524366 ], [ 113.21730804, -7.87495422 ], [ 113.21723938, -7.87477493 ], [ 113.21718597, -7.87457561 ], [ 113.21711731, -7.87434626 ], [ 113.21707153, -7.8741169 ], [ 113.21718597, -7.87396622 ], [ 113.21737671, -7.87392998 ], [ 113.21757507, -7.87402439 ], [ 113.21781158, -7.87400293 ], [ 113.21794891, -7.87388992 ], [ 113.21806335, -7.8737402 ], [ 113.21818542, -7.87363148 ], [ 113.21828461, -7.87366104 ], [ 113.21845245, -7.87362003 ], [ 113.21865845, -7.8736701 ], [ 113.21881104, -7.87377024 ], [ 113.21891022, -7.87378979 ], [ 113.21896362, -7.87368011 ], [ 113.21907806, -7.87357712 ], [ 113.2191925, -7.87347651 ], [ 113.2194519, -7.87358475 ], [ 113.21970367, -7.87356377 ], [ 113.22001648, -7.87361193 ], [ 113.22024536, -7.87355089 ], [ 113.22032166, -7.87338018 ], [ 113.22039795, -7.87316036 ], [ 113.22039032, -7.87294102 ], [ 113.22032166, -7.87268162 ], [ 113.22029877, -7.87234211 ], [ 113.22029114, -7.87203264 ], [ 113.22029877, -7.87153339 ], [ 113.22073364, -7.8712616 ], [ 113.2208252, -7.87087154 ], [ 113.2208786, -7.87072182 ], [ 113.22096252, -7.87060118 ], [ 113.22102356, -7.87040138 ], [ 113.22093964, -7.87019205 ], [ 113.22075653, -7.87008333 ], [ 113.2204895, -7.87001467 ], [ 113.22016907, -7.86983681 ], [ 113.22006226, -7.86972761 ], [ 113.21994781, -7.8696084 ], [ 113.21994019, -7.86939859 ], [ 113.22012329, -7.86918783 ], [ 113.2203598, -7.86907005 ], [ 113.22055817, -7.86898994 ], [ 113.22074127, -7.86893988 ], [ 113.22084808, -7.86884022 ], [ 113.22090912, -7.86872005 ], [ 113.22085571, -7.86855793 ], [ 113.22052765, -7.86845684 ], [ 113.22029877, -7.86815882 ], [ 113.2201767, -7.86786985 ], [ 113.2201004, -7.86754036 ], [ 113.2202301, -7.86733007 ], [ 113.22032928, -7.86710978 ], [ 113.22064972, -7.8668685 ], [ 113.22107697, -7.86666679 ], [ 113.22123718, -7.86645603 ], [ 113.22138214, -7.86624575 ], [ 113.22145081, -7.86605549 ], [ 113.22130585, -7.86570692 ], [ 113.22136688, -7.86534739 ], [ 113.22153473, -7.86486721 ], [ 113.22194672, -7.86434555 ], [ 113.22226715, -7.86407995 ], [ 113.22261047, -7.8635602 ], [ 113.2218399, -7.86290121 ], [ 113.22168732, -7.86277008 ], [ 113.22133636, -7.86258984 ], [ 113.22068024, -7.86223984 ], [ 113.2188797, -7.86206532 ], [ 113.21865082, -7.86206627 ], [ 113.21825409, -7.86209869 ], [ 113.21736145, -7.86209345 ], [ 113.21626282, -7.86205912 ], [ 113.21609497, -7.86144114 ], [ 113.21590424, -7.86146212 ], [ 113.21551514, -7.86142397 ], [ 113.2151413, -7.86138582 ], [ 113.21472168, -7.86126852 ], [ 113.21392059, -7.86116266 ], [ 113.2125473, -7.86086035 ], [ 113.21191406, -7.86073256 ], [ 113.21096802, -7.86053944 ], [ 113.21029663, -7.86051273 ], [ 113.21014404, -7.86048985 ], [ 113.2096405, -7.86061668 ], [ 113.2089386, -7.86048508 ], [ 113.20883179, -7.86046553 ], [ 113.20865631, -7.86043072 ], [ 113.2084198, -7.86038589 ], [ 113.20813751, -7.86035442 ], [ 113.20802307, -7.86033869 ], [ 113.20801544, -7.86024046 ], [ 113.20761108, -7.86017704 ], [ 113.20683289, -7.8601079 ], [ 113.20641327, -7.8601017 ], [ 113.20587921, -7.86010408 ], [ 113.20555115, -7.86008978 ], [ 113.20516205, -7.86009169 ], [ 113.20485687, -7.85991335 ], [ 113.20469666, -7.8599143 ], [ 113.20439911, -7.8598423 ], [ 113.20394135, -7.85976267 ], [ 113.20339966, -7.85966587 ], [ 113.20296478, -7.85960436 ], [ 113.20200348, -7.85940456 ], [ 113.20144653, -7.85922718 ], [ 113.20081329, -7.85911608 ], [ 113.20024109, -7.85902929 ], [ 113.19998932, -7.85900593 ], [ 113.19892883, -7.85886049 ], [ 113.19815063, -7.85875368 ], [ 113.19823456, -7.8586874 ], [ 113.19842529, -7.85855579 ], [ 113.1985321, -7.8583498 ], [ 113.19860077, -7.8582201 ], [ 113.19842529, -7.85808897 ], [ 113.19818115, -7.85788059 ], [ 113.19804382, -7.85762167 ], [ 113.19808197, -7.85743189 ], [ 113.19812012, -7.8572917 ], [ 113.19837952, -7.85733032 ], [ 113.19867706, -7.85727882 ], [ 113.1988678, -7.85719013 ], [ 113.19896698, -7.85708761 ], [ 113.19896698, -7.85692787 ], [ 113.19898987, -7.85660839 ], [ 113.19885254, -7.85626316 ], [ 113.19877625, -7.85615015 ], [ 113.1986618, -7.85610056 ], [ 113.19847107, -7.85608149 ], [ 113.19824219, -7.85625267 ], [ 113.19800568, -7.85639381 ], [ 113.19779205, -7.85635471 ], [ 113.19772339, -7.85621548 ], [ 113.19777679, -7.85585785 ], [ 113.19779205, -7.85576582 ], [ 113.19793701, -7.8552947 ], [ 113.19815063, -7.85506487 ], [ 113.19847107, -7.85429001 ], [ 113.19859314, -7.85398006 ], [ 113.1985321, -7.85374498 ], [ 113.19824219, -7.85329723 ], [ 113.19819641, -7.85301781 ], [ 113.19841003, -7.85282993 ], [ 113.19853973, -7.85270643 ], [ 113.19879913, -7.85254526 ], [ 113.19891357, -7.85245991 ], [ 113.19923401, -7.85247326 ], [ 113.19953918, -7.85238171 ], [ 113.19963837, -7.85217142 ], [ 113.19972229, -7.85200977 ], [ 113.199646, -7.85184193 ], [ 113.19948578, -7.8516531 ], [ 113.19937897, -7.85147381 ], [ 113.1996994, -7.85124016 ], [ 113.1998291, -7.85106993 ], [ 113.20001984, -7.85098124 ], [ 113.20026398, -7.8510499 ], [ 113.20044708, -7.85106897 ], [ 113.20071411, -7.85131693 ], [ 113.20095062, -7.85149574 ], [ 113.20134735, -7.85161352 ], [ 113.20167542, -7.85153151 ], [ 113.20187378, -7.85146093 ], [ 113.20188141, -7.85118103 ], [ 113.20166779, -7.85090256 ], [ 113.20163727, -7.85063314 ], [ 113.20166779, -7.85038328 ], [ 113.20200348, -7.85026979 ], [ 113.20272827, -7.84952021 ], [ 113.20291901, -7.84928989 ], [ 113.20301819, -7.84908009 ], [ 113.20307922, -7.84876871 ], [ 113.20309448, -7.84861851 ], [ 113.20316315, -7.84849834 ], [ 113.20333099, -7.8483777 ], [ 113.20355225, -7.8483367 ], [ 113.20371246, -7.8483758 ], [ 113.20388031, -7.8484745 ], [ 113.20393372, -7.84877396 ], [ 113.20422363, -7.84890223 ], [ 113.204422, -7.84884119 ], [ 113.20458221, -7.84873056 ], [ 113.20474243, -7.84874964 ], [ 113.20492554, -7.84852934 ], [ 113.20484161, -7.84844875 ], [ 113.20471191, -7.84831047 ], [ 113.20435333, -7.84814262 ], [ 113.20435333, -7.84789419 ], [ 113.20436096, -7.8477931 ], [ 113.20444489, -7.84760284 ], [ 113.20469666, -7.84756994 ], [ 113.20488739, -7.84759092 ], [ 113.2050705, -7.84747982 ], [ 113.20518494, -7.84736967 ], [ 113.20529175, -7.84721994 ], [ 113.20536041, -7.84710979 ], [ 113.20532227, -7.84695244 ], [ 113.2052536, -7.8468399 ], [ 113.20470428, -7.84683275 ], [ 113.2044754, -7.84672403 ], [ 113.20436859, -7.84653521 ], [ 113.20446777, -7.84631491 ], [ 113.20467377, -7.8462038 ], [ 113.20488739, -7.84601307 ], [ 113.20487976, -7.84567356 ], [ 113.20504761, -7.84499407 ], [ 113.2050705, -7.84450436 ], [ 113.20514679, -7.84414434 ], [ 113.20549011, -7.84381342 ], [ 113.20585632, -7.84358168 ], [ 113.20610046, -7.84341049 ], [ 113.20640564, -7.84312963 ], [ 113.20679474, -7.84296751 ], [ 113.20696259, -7.84271717 ], [ 113.20702362, -7.84210777 ], [ 113.20706177, -7.84176826 ], [ 113.20730591, -7.84150696 ], [ 113.2075882, -7.84144592 ], [ 113.20799255, -7.84139395 ], [ 113.20828247, -7.84131241 ], [ 113.20844269, -7.84120178 ], [ 113.20852661, -7.84098005 ], [ 113.20851135, -7.84085131 ], [ 113.20842743, -7.8407526 ], [ 113.20834351, -7.84066296 ], [ 113.20794678, -7.84054518 ], [ 113.20760345, -7.84046698 ], [ 113.20728302, -7.84026909 ], [ 113.20729065, -7.83990955 ], [ 113.20736694, -7.8396697 ], [ 113.20746613, -7.83952951 ], [ 113.20758057, -7.83932734 ], [ 113.20783234, -7.83886814 ], [ 113.20810699, -7.83865976 ], [ 113.20822144, -7.8384099 ], [ 113.20811462, -7.83823776 ], [ 113.20799255, -7.83772945 ], [ 113.20793915, -7.83749008 ], [ 113.20806885, -7.83718967 ], [ 113.20810699, -7.83702946 ], [ 113.20807648, -7.83684015 ], [ 113.20807648, -7.8367548 ], [ 113.20808411, -7.8366704 ], [ 113.20797729, -7.83657122 ], [ 113.20780182, -7.83651209 ], [ 113.2075119, -7.83651352 ], [ 113.20743561, -7.83640432 ], [ 113.2073822, -7.83616495 ], [ 113.20729828, -7.83576584 ], [ 113.20724487, -7.83545637 ], [ 113.20733643, -7.83518648 ], [ 113.20744324, -7.83470678 ], [ 113.20746613, -7.83445692 ], [ 113.20758057, -7.83438015 ], [ 113.20764923, -7.83416986 ], [ 113.20794678, -7.83390999 ], [ 113.2082901, -7.83380365 ], [ 113.20855713, -7.83370209 ], [ 113.20870209, -7.83340979 ], [ 113.20904541, -7.83251143 ], [ 113.20915985, -7.83221769 ], [ 113.20935822, -7.83171558 ], [ 113.2094574, -7.83147097 ], [ 113.20954895, -7.83113098 ], [ 113.20967865, -7.83081055 ], [ 113.20985413, -7.83044052 ], [ 113.2101059, -7.83025885 ], [ 113.21037292, -7.83023787 ], [ 113.21065521, -7.83023643 ], [ 113.21096802, -7.830235 ], [ 113.21117401, -7.83014393 ], [ 113.21138763, -7.83008289 ], [ 113.21187592, -7.82957125 ], [ 113.2121048, -7.82936001 ], [ 113.21233368, -7.82925892 ], [ 113.21250153, -7.82921743 ], [ 113.21257782, -7.82919788 ], [ 113.21286011, -7.82918644 ], [ 113.21307373, -7.82906008 ], [ 113.21330261, -7.82889986 ], [ 113.21360779, -7.82853985 ], [ 113.21405029, -7.82778978 ], [ 113.21424866, -7.82746506 ], [ 113.21452332, -7.82702732 ], [ 113.21470642, -7.82672024 ], [ 113.2147522, -7.82665014 ], [ 113.21482849, -7.82649994 ], [ 113.21482849, -7.82637978 ], [ 113.21470642, -7.82615995 ], [ 113.21456146, -7.82617187 ], [ 113.21396637, -7.82599545 ], [ 113.21373749, -7.82585669 ], [ 113.21365356, -7.82570744 ], [ 113.21376038, -7.82551003 ], [ 113.21382141, -7.82534981 ], [ 113.21389008, -7.8252821 ], [ 113.21398163, -7.82519007 ], [ 113.2144165, -7.82490873 ], [ 113.21453094, -7.82485008 ], [ 113.21489716, -7.82465792 ], [ 113.21520996, -7.82451677 ], [ 113.2153244, -7.82441235 ], [ 113.21536255, -7.82431936 ], [ 113.2154007, -7.82422495 ], [ 113.21542358, -7.82412434 ], [ 113.2154541, -7.82399845 ], [ 113.21551514, -7.8237915 ], [ 113.21550751, -7.82351971 ], [ 113.21535492, -7.82309294 ], [ 113.21525574, -7.82294226 ], [ 113.21508026, -7.82267284 ], [ 113.21497345, -7.82250786 ], [ 113.21495056, -7.82206774 ], [ 113.2149353, -7.82180691 ], [ 113.21479034, -7.82100105 ], [ 113.21473694, -7.82055235 ], [ 113.2147522, -7.82037592 ], [ 113.2148056, -7.82028532 ], [ 113.2148819, -7.82014942 ], [ 113.2150116, -7.82004833 ], [ 113.21514893, -7.819839 ], [ 113.2153244, -7.81971121 ], [ 113.21547699, -7.81975746 ], [ 113.21559906, -7.81989717 ], [ 113.21576691, -7.82007742 ], [ 113.21595764, -7.8201766 ], [ 113.21611023, -7.82019997 ], [ 113.21631622, -7.82010078 ], [ 113.21647644, -7.81997871 ], [ 113.21664429, -7.81992054 ], [ 113.21686554, -7.8199091 ], [ 113.21700287, -7.81985474 ], [ 113.21709442, -7.81980419 ], [ 113.21711731, -7.81965113 ], [ 113.21710205, -7.81952524 ], [ 113.21701813, -7.81936789 ], [ 113.21669769, -7.81901598 ], [ 113.21611023, -7.81861734 ], [ 113.21595764, -7.81843138 ], [ 113.21588898, -7.81828594 ], [ 113.21594238, -7.81806517 ], [ 113.21605682, -7.81802988 ], [ 113.21643066, -7.81807089 ], [ 113.21659851, -7.81813478 ], [ 113.21670532, -7.81816483 ], [ 113.21694183, -7.81816769 ], [ 113.21708679, -7.81811285 ], [ 113.21711731, -7.81802797 ], [ 113.21711731, -7.81792736 ], [ 113.2170105, -7.81781864 ], [ 113.21684265, -7.81773329 ], [ 113.21660614, -7.81763649 ], [ 113.21652222, -7.81759977 ], [ 113.21627045, -7.8174367 ], [ 113.21609497, -7.81726217 ], [ 113.21607971, -7.81709957 ], [ 113.21620178, -7.81694221 ], [ 113.21636963, -7.81689787 ], [ 113.21646881, -7.81686687 ], [ 113.21656799, -7.81688976 ], [ 113.2168808, -7.81691885 ], [ 113.21707153, -7.81693649 ], [ 113.217453, -7.81685495 ], [ 113.21762085, -7.81673288 ], [ 113.21773529, -7.81661177 ], [ 113.21782684, -7.81651783 ], [ 113.21778107, -7.81641293 ], [ 113.21743011, -7.81625032 ], [ 113.21703339, -7.81608725 ], [ 113.21677399, -7.81596518 ], [ 113.2166214, -7.81568003 ], [ 113.21669006, -7.81552315 ], [ 113.21691895, -7.81534863 ], [ 113.2170639, -7.81527567 ], [ 113.2173996, -7.81503105 ], [ 113.21759796, -7.81487417 ], [ 113.21778107, -7.81464481 ], [ 113.21782684, -7.81454992 ], [ 113.21789551, -7.81441784 ], [ 113.2179718, -7.81402826 ], [ 113.21807861, -7.81358576 ], [ 113.21823883, -7.81331825 ], [ 113.21846771, -7.81307888 ], [ 113.21867371, -7.81286478 ], [ 113.21897888, -7.81254387 ], [ 113.21907043, -7.81243229 ], [ 113.21916962, -7.81230116 ], [ 113.2195816, -7.81177425 ], [ 113.2197876, -7.81157446 ], [ 113.22014618, -7.81135893 ], [ 113.22064972, -7.81110811 ], [ 113.22115326, -7.811131 ], [ 113.2212677, -7.81104994 ], [ 113.22136688, -7.81095695 ], [ 113.22151947, -7.81089258 ], [ 113.2216568, -7.81086349 ], [ 113.2217865, -7.81085777 ], [ 113.22203064, -7.81101465 ], [ 113.22212219, -7.81111383 ], [ 113.22215271, -7.8112998 ], [ 113.22221375, -7.81146288 ], [ 113.22223663, -7.81158495 ], [ 113.22224426, -7.81168985 ], [ 113.22242737, -7.81183529 ], [ 113.2230835, -7.81205606 ], [ 113.223526, -7.81216097 ], [ 113.22389221, -7.81238174 ], [ 113.22423553, -7.81234121 ], [ 113.22438812, -7.81223059 ], [ 113.22454071, -7.81207371 ], [ 113.22437286, -7.81183529 ], [ 113.22438049, -7.81155014 ], [ 113.22444916, -7.81130886 ], [ 113.22450256, -7.81112528 ], [ 113.22455597, -7.81059599 ], [ 113.22447968, -7.81012201 ], [ 113.22421265, -7.80972338 ], [ 113.22407532, -7.80934525 ], [ 113.22389221, -7.80918264 ], [ 113.22366333, -7.80914783 ], [ 113.22342682, -7.80902863 ], [ 113.2230835, -7.80900812 ], [ 113.2228241, -7.80889177 ], [ 113.22262573, -7.80858326 ], [ 113.22262573, -7.80814695 ], [ 113.22249603, -7.80796671 ], [ 113.22245789, -7.80788994 ], [ 113.22244263, -7.80764389 ], [ 113.22263336, -7.8074522 ], [ 113.22271729, -7.80737638 ], [ 113.22283936, -7.80723763 ], [ 113.22315216, -7.80710077 ], [ 113.2233429, -7.80704784 ], [ 113.22342682, -7.80695248 ], [ 113.22351074, -7.80668974 ], [ 113.22354889, -7.80647373 ], [ 113.22359467, -7.80637312 ], [ 113.22372437, -7.80630302 ], [ 113.22388458, -7.80629492 ], [ 113.22396851, -7.80638647 ], [ 113.2241745, -7.80653954 ], [ 113.22428894, -7.80651617 ], [ 113.2244339, -7.80637646 ], [ 113.22444153, -7.80626822 ], [ 113.22441864, -7.80614519 ], [ 113.22427368, -7.80586815 ], [ 113.22421265, -7.8057065 ], [ 113.22421265, -7.80556011 ], [ 113.22428894, -7.80546713 ], [ 113.22438049, -7.80544376 ], [ 113.22454071, -7.80541182 ], [ 113.22488403, -7.80541039 ], [ 113.22509003, -7.80543232 ], [ 113.22544861, -7.80539703 ], [ 113.22554779, -7.80533028 ], [ 113.22566223, -7.80522108 ], [ 113.22576904, -7.80505943 ], [ 113.22597504, -7.80484486 ], [ 113.22607422, -7.80463409 ], [ 113.22610474, -7.80452871 ], [ 113.22615051, -7.80443287 ], [ 113.22619629, -7.80423164 ], [ 113.22619629, -7.80410719 ], [ 113.22619629, -7.80392551 ], [ 113.22611237, -7.80383492 ], [ 113.22603607, -7.80373955 ], [ 113.22595978, -7.80370665 ], [ 113.22584534, -7.8036356 ], [ 113.22574615, -7.80353546 ], [ 113.22559357, -7.80339766 ], [ 113.22550201, -7.80331707 ], [ 113.22546387, -7.80325508 ], [ 113.22545624, -7.80313063 ], [ 113.22548676, -7.80303001 ], [ 113.22553253, -7.80296278 ], [ 113.22566223, -7.80292845 ], [ 113.22579956, -7.80294228 ], [ 113.22593689, -7.80295086 ], [ 113.22603607, -7.80295038 ], [ 113.22610474, -7.80291176 ], [ 113.22621918, -7.80282974 ], [ 113.22625732, -7.80268145 ], [ 113.22625732, -7.80260515 ], [ 113.22625732, -7.80252838 ], [ 113.22626495, -7.80243254 ], [ 113.22624969, -7.80231333 ], [ 113.22621918, -7.80216026 ], [ 113.22614288, -7.80209875 ], [ 113.22605133, -7.80208492 ], [ 113.22593689, -7.80204725 ], [ 113.22586823, -7.80195189 ], [ 113.22586823, -7.80179882 ], [ 113.22597504, -7.80165005 ], [ 113.22605896, -7.8015871 ], [ 113.22620392, -7.80150032 ], [ 113.22633362, -7.80149508 ], [ 113.22648621, -7.80152273 ], [ 113.22662354, -7.80154371 ], [ 113.22673798, -7.80155993 ], [ 113.22771454, -7.80186558 ], [ 113.22794342, -7.80196905 ], [ 113.22819519, -7.80197668 ], [ 113.22857666, -7.80210209 ], [ 113.22872925, -7.80215168 ], [ 113.22966766, -7.80231476 ], [ 113.23069763, -7.80249453 ], [ 113.23207092, -7.80287981 ], [ 113.23220825, -7.8034606 ], [ 113.23295593, -7.80379248 ], [ 113.23292542, -7.80415916 ], [ 113.23297882, -7.80438614 ], [ 113.233078, -7.80445242 ], [ 113.23317719, -7.80454159 ], [ 113.23318481, -7.80469513 ], [ 113.23304749, -7.8049984 ], [ 113.23300171, -7.80510902 ], [ 113.23299408, -7.80518913 ], [ 113.23304749, -7.80548096 ], [ 113.23323822, -7.80653191 ], [ 113.23330688, -7.80690002 ], [ 113.23491669, -7.80697012 ], [ 113.2365036, -7.80707455 ], [ 113.23685455, -7.80766821 ], [ 113.23690033, -7.80824423 ], [ 113.2371521, -7.80827951 ], [ 113.2371521, -7.80846834 ], [ 113.23716736, -7.80855274 ], [ 113.23716736, -7.80866528 ], [ 113.23716736, -7.80876398 ], [ 113.23718262, -7.80887651 ], [ 113.23713684, -7.80903196 ], [ 113.23711395, -7.8091445 ], [ 113.23711395, -7.80929947 ], [ 113.23711395, -7.80946875 ], [ 113.23706055, -7.80953932 ], [ 113.23704529, -7.80962372 ], [ 113.23707581, -7.80973625 ], [ 113.23719025, -7.80986261 ], [ 113.23719025, -7.81005955 ], [ 113.23715973, -7.81017256 ], [ 113.23737335, -7.81021357 ], [ 113.23742676, -7.8103261 ], [ 113.23742676, -7.81043863 ], [ 113.2375412, -7.81062126 ], [ 113.23765564, -7.81070518 ], [ 113.237854, -7.81095743 ], [ 113.23825836, -7.81143904 ], [ 113.23828125, -7.8115468 ], [ 113.23865509, -7.81274223 ], [ 113.2387619, -7.81345987 ], [ 113.23896027, -7.81434631 ], [ 113.23920441, -7.81473923 ], [ 113.23929596, -7.81530142 ], [ 113.23921967, -7.81545019 ], [ 113.23919678, -7.81559992 ], [ 113.2392807, -7.81583834 ], [ 113.23910522, -7.81583261 ], [ 113.23901367, -7.81582928 ], [ 113.23898315, -7.81612492 ], [ 113.2388916, -7.81640911 ], [ 113.2389679, -7.81675625 ], [ 113.2390976, -7.81699991 ], [ 113.23921967, -7.81722021 ], [ 113.23937225, -7.81751966 ], [ 113.23946381, -7.81777954 ], [ 113.23957825, -7.81820488 ], [ 113.23709106, -7.81783962 ], [ 113.23712921, -7.81742096 ], [ 113.23695374, -7.81739378 ], [ 113.23603821, -7.81725359 ], [ 113.23603821, -7.81708002 ], [ 113.23575592, -7.81646585 ], [ 113.23577118, -7.81618929 ], [ 113.23552704, -7.81615019 ], [ 113.23531342, -7.81614542 ], [ 113.23339081, -7.81620216 ], [ 113.23317719, -7.81620836 ], [ 113.23357391, -7.8166976 ], [ 113.2337265, -7.81690025 ], [ 113.23307037, -7.81680202 ], [ 113.23114014, -7.81651449 ], [ 113.22949219, -7.8162694 ], [ 113.22948456, -7.81648684 ], [ 113.2294693, -7.81669331 ], [ 113.22957611, -7.81714058 ], [ 113.22952271, -7.81813192 ], [ 113.22946167, -7.81834745 ], [ 113.22854614, -7.81727505 ], [ 113.22796631, -7.8165803 ], [ 113.22794342, -7.81725121 ], [ 113.22794342, -7.81751299 ], [ 113.22794342, -7.81863117 ], [ 113.22580719, -7.81845474 ], [ 113.22579193, -7.81886435 ], [ 113.22579956, -7.81917238 ], [ 113.2258606, -7.82003069 ], [ 113.22593689, -7.82114553 ], [ 113.22595215, -7.82136679 ], [ 113.22596741, -7.82171297 ], [ 113.2259903, -7.82180071 ], [ 113.22610474, -7.82186937 ], [ 113.2261734, -7.82189989 ], [ 113.22689819, -7.82205009 ], [ 113.22743988, -7.82223988 ], [ 113.22825623, -7.82247877 ], [ 113.22833252, -7.82250023 ], [ 113.22904968, -7.82269001 ], [ 113.22960663, -7.82276011 ], [ 113.23062134, -7.82305002 ], [ 113.23116302, -7.82320023 ], [ 113.23181152, -7.82335997 ], [ 113.23233032, -7.82348013 ], [ 113.2328186, -7.8235898 ], [ 113.23343658, -7.82376003 ], [ 113.23409271, -7.82391977 ], [ 113.2348175, -7.82410002 ], [ 113.23594666, -7.82434988 ], [ 113.2361145, -7.82436466 ], [ 113.23651123, -7.82439995 ], [ 113.23670197, -7.82442999 ], [ 113.23703766, -7.82450008 ], [ 113.23735809, -7.82458448 ], [ 113.2376709, -7.82465982 ], [ 113.23851013, -7.82479 ], [ 113.23931122, -7.82492018 ], [ 113.23970032, -7.8249402 ], [ 113.24011993, -7.82500982 ], [ 113.24040222, -7.82519007 ], [ 113.24056244, -7.8252902 ], [ 113.24057007, -7.82540989 ], [ 113.24063873, -7.82551003 ], [ 113.24080658, -7.82556009 ], [ 113.24099731, -7.82557011 ], [ 113.24115753, -7.82547998 ], [ 113.24124908, -7.82542992 ], [ 113.24140167, -7.82545996 ], [ 113.24163055, -7.82569265 ], [ 113.2417984, -7.82600307 ], [ 113.24195862, -7.82624054 ], [ 113.24201965, -7.82644129 ], [ 113.24187469, -7.8265996 ], [ 113.24172211, -7.82678699 ], [ 113.24157715, -7.82713223 ], [ 113.24157715, -7.8274765 ], [ 113.24183655, -7.82783413 ], [ 113.24198914, -7.82812023 ], [ 113.24209595, -7.82834101 ], [ 113.24217224, -7.82850647 ], [ 113.24250793, -7.82903576 ], [ 113.24294281, -7.82940674 ], [ 113.2435379, -7.82979107 ], [ 113.24370575, -7.82981873 ], [ 113.2436142, -7.82987785 ], [ 113.24373627, -7.83005857 ], [ 113.24375153, -7.8301816 ], [ 113.24381256, -7.83069134 ], [ 113.24382782, -7.83082199 ], [ 113.24375916, -7.83140945 ], [ 113.24372864, -7.83185244 ], [ 113.24356842, -7.83267403 ], [ 113.2434845, -7.83329725 ], [ 113.24337769, -7.83374262 ], [ 113.24341583, -7.83411598 ], [ 113.24354553, -7.83445358 ], [ 113.24353027, -7.83489847 ], [ 113.24333191, -7.8353467 ], [ 113.2432785, -7.83547926 ], [ 113.24320221, -7.83544207 ], [ 113.24311066, -7.83539391 ], [ 113.24260712, -7.8352499 ], [ 113.24249268, -7.83600998 ], [ 113.24243164, -7.83633327 ], [ 113.24223328, -7.83669281 ], [ 113.24198914, -7.83679008 ], [ 113.24172974, -7.83673143 ], [ 113.24180603, -7.83694458 ], [ 113.24169159, -7.83704996 ], [ 113.24159241, -7.83722019 ], [ 113.24150085, -7.83759022 ], [ 113.2414093, -7.83825016 ], [ 113.24143219, -7.83867979 ], [ 113.2414093, -7.83910036 ], [ 113.24147797, -7.83921003 ], [ 113.24153137, -7.83929014 ], [ 113.24147797, -7.83951998 ], [ 113.24141693, -7.83979988 ], [ 113.2414093, -7.84004021 ], [ 113.24149323, -7.84029007 ], [ 113.24157715, -7.84062004 ], [ 113.24154663, -7.84076977 ], [ 113.24146271, -7.84104013 ], [ 113.24134064, -7.84132004 ], [ 113.24131012, -7.84150982 ], [ 113.24137878, -7.84164 ], [ 113.24162292, -7.84210014 ], [ 113.24156952, -7.84225988 ], [ 113.24143982, -7.84239006 ], [ 113.24128723, -7.84246016 ], [ 113.24092102, -7.8426199 ], [ 113.24086761, -7.84273005 ], [ 113.24085999, -7.84291983 ], [ 113.24089813, -7.84322023 ], [ 113.24089813, -7.84343004 ], [ 113.24085236, -7.84348631 ], [ 113.24069977, -7.84357977 ], [ 113.24047852, -7.84362984 ], [ 113.240242, -7.84369993 ], [ 113.24005127, -7.84385014 ], [ 113.23985291, -7.8441 ], [ 113.23947906, -7.84461021 ], [ 113.23879242, -7.84505987 ], [ 113.23869324, -7.84512711 ], [ 113.23852539, -7.84531164 ], [ 113.23834229, -7.84545708 ], [ 113.23825073, -7.84558201 ], [ 113.23812103, -7.84568119 ], [ 113.23800659, -7.84575415 ], [ 113.23788452, -7.84580088 ], [ 113.23777008, -7.84589958 ], [ 113.23753357, -7.84603882 ], [ 113.23740387, -7.84609222 ], [ 113.23728943, -7.84621096 ], [ 113.23986053, -7.84786797 ], [ 113.24123383, -7.8486805 ], [ 113.24138641, -7.84866858 ], [ 113.24365234, -7.84961224 ], [ 113.24362946, -7.84970999 ], [ 113.24352264, -7.85028982 ], [ 113.24330902, -7.85047007 ], [ 113.24308014, -7.85070992 ], [ 113.24308014, -7.85082006 ], [ 113.24318695, -7.85103989 ], [ 113.24324036, -7.8512702 ], [ 113.24317932, -7.85143995 ], [ 113.24311066, -7.85163307 ], [ 113.24306488, -7.85177231 ], [ 113.24301147, -7.85193014 ], [ 113.24286652, -7.85244989 ], [ 113.2414093, -7.85234022 ], [ 113.23995209, -7.85236979 ], [ 113.23975372, -7.85235739 ], [ 113.23981476, -7.85272789 ], [ 113.23983765, -7.85297871 ], [ 113.23976898, -7.85336161 ], [ 113.23976135, -7.85370827 ], [ 113.23974609, -7.85406733 ], [ 113.23984528, -7.85443735 ], [ 113.24006653, -7.85521364 ], [ 113.2401886, -7.85579872 ], [ 113.24032593, -7.85619259 ], [ 113.24026489, -7.85649204 ], [ 113.240242, -7.85681486 ], [ 113.24023438, -7.85706615 ], [ 113.24027252, -7.85743666 ], [ 113.24047852, -7.85756683 ], [ 113.24065399, -7.85779333 ], [ 113.2405777, -7.85816431 ], [ 113.24056244, -7.858356 ], [ 113.24059296, -7.85859489 ], [ 113.24028778, -7.85854006 ], [ 113.23934174, -7.85840988 ], [ 113.23928833, -7.8585 ], [ 113.23603058, -7.85781002 ], [ 113.23604584, -7.8577075 ], [ 113.23590851, -7.85765123 ], [ 113.23591614, -7.85734034 ], [ 113.23570251, -7.85715008 ], [ 113.23564148, -7.85699511 ], [ 113.23566437, -7.8568511 ], [ 113.23561096, -7.85660028 ], [ 113.23558807, -7.85648108 ], [ 113.23553467, -7.8563447 ], [ 113.23338318, -7.85569286 ], [ 113.23366547, -7.85630322 ], [ 113.23370361, -7.85643244 ], [ 113.23392487, -7.85687399 ], [ 113.23342133, -7.85707998 ], [ 113.23358917, -7.85748482 ], [ 113.2339325, -7.85830879 ], [ 113.23342896, -7.85857296 ], [ 113.2335434, -7.85875893 ], [ 113.23400879, -7.85972738 ], [ 113.23416138, -7.86003876 ], [ 113.23477173, -7.86129999 ], [ 113.23506165, -7.86188221 ], [ 113.23531342, -7.86239195 ], [ 113.23564911, -7.86309958 ], [ 113.23603058, -7.86388779 ], [ 113.23634338, -7.86449051 ], [ 113.23666382, -7.86523247 ], [ 113.23677826, -7.86548328 ], [ 113.23690796, -7.8656683 ], [ 113.23692322, -7.86579084 ], [ 113.23696136, -7.86585426 ], [ 113.23709869, -7.86607647 ], [ 113.23720551, -7.86629915 ], [ 113.23722839, -7.86641073 ], [ 113.23726654, -7.86648464 ], [ 113.23757935, -7.86640882 ], [ 113.23796082, -7.86629486 ], [ 113.2381897, -7.86623812 ], [ 113.23854828, -7.86608744 ], [ 113.23873901, -7.86595821 ], [ 113.23887634, -7.86591816 ], [ 113.23937988, -7.86575699 ], [ 113.24020386, -7.86546373 ], [ 113.24065399, -7.86532593 ], [ 113.2408371, -7.86529207 ], [ 113.24108124, -7.86536551 ], [ 113.24130249, -7.8655324 ], [ 113.24163818, -7.86580086 ], [ 113.24211884, -7.86624622 ], [ 113.24274445, -7.86673737 ], [ 113.24346161, -7.86730242 ], [ 113.24391174, -7.8676548 ], [ 113.24456787, -7.86814547 ], [ 113.24511719, -7.86857414 ], [ 113.24517059, -7.86862707 ], [ 113.24557495, -7.86895847 ], [ 113.24617004, -7.86944294 ], [ 113.24660492, -7.86981344 ], [ 113.24677277, -7.8700738 ], [ 113.24713898, -7.87065029 ], [ 113.24750519, -7.87118959 ], [ 113.2477417, -7.87161732 ], [ 113.24824524, -7.87197828 ], [ 113.24865723, -7.87218142 ], [ 113.24936676, -7.87256956 ], [ 113.25002289, -7.87278032 ], [ 113.25068665, -7.87292004 ], [ 113.25059509, -7.8730011 ], [ 113.25075531, -7.87326145 ], [ 113.25085449, -7.87346649 ], [ 113.25109863, -7.87350225 ], [ 113.2512207, -7.87357616 ], [ 113.25125885, -7.87372541 ], [ 113.25128937, -7.87403297 ], [ 113.2513504, -7.87421942 ], [ 113.25157928, -7.87428999 ], [ 113.25171661, -7.87431002 ], [ 113.25190735, -7.87437487 ], [ 113.25202942, -7.87450457 ], [ 113.25208282, -7.87463522 ], [ 113.25205994, -7.87476587 ], [ 113.2519989, -7.87487984 ], [ 113.25193787, -7.87502003 ], [ 113.25196838, -7.87511015 ], [ 113.25225067, -7.87541771 ], [ 113.25235748, -7.87551975 ], [ 113.25235748, -7.8757 ], [ 113.25228882, -7.87582016 ], [ 113.25199127, -7.87593222 ], [ 113.2520752, -7.87616491 ], [ 113.25233459, -7.87625694 ], [ 113.25246429, -7.87642431 ], [ 113.25261688, -7.87659979 ], [ 113.25295258, -7.87690639 ], [ 113.25319672, -7.8771944 ], [ 113.25331116, -7.87734318 ], [ 113.25338745, -7.87775993 ], [ 113.25341797, -7.87802362 ], [ 113.253685, -7.8784976 ], [ 113.2539978, -7.87878513 ], [ 113.25396729, -7.8791399 ], [ 113.25408936, -7.87944984 ], [ 113.2542572, -7.8797636 ], [ 113.25444031, -7.87987423 ], [ 113.25469208, -7.87987995 ], [ 113.25475311, -7.8799901 ], [ 113.25486755, -7.88021708 ], [ 113.25476837, -7.88036013 ], [ 113.25461578, -7.88047028 ], [ 113.2546463, -7.88065672 ], [ 113.25473022, -7.88084316 ], [ 113.25508881, -7.88154078 ], [ 113.25509644, -7.88171768 ], [ 113.25513458, -7.88195086 ], [ 113.25524902, -7.88227654 ], [ 113.25537872, -7.88235998 ], [ 113.25550842, -7.88247108 ], [ 113.25553894, -7.88256454 ], [ 113.25551605, -7.88272285 ], [ 113.25550079, -7.8828001 ], [ 113.25548553, -7.88290071 ], [ 113.25535583, -7.88321829 ], [ 113.25528717, -7.88342381 ], [ 113.25537872, -7.88365984 ], [ 113.25538635, -7.88396502 ], [ 113.25537109, -7.88429022 ], [ 113.25527954, -7.88455009 ], [ 113.25517273, -7.88477993 ], [ 113.25514221, -7.88499212 ], [ 113.25518799, -7.88517809 ], [ 113.25521851, -7.88557911 ], [ 113.25514221, -7.88581276 ], [ 113.2551651, -7.88611126 ], [ 113.25521088, -7.88640928 ], [ 113.25524902, -7.88665199 ], [ 113.25556946, -7.88726997 ], [ 113.25563812, -7.88785315 ], [ 113.25584412, -7.88810396 ], [ 113.25611877, -7.88817692 ], [ 113.25609589, -7.8883729 ], [ 113.25603485, -7.88968849 ], [ 113.256073, -7.89008951 ], [ 113.25623322, -7.89068556 ], [ 113.25624847, -7.890975 ], [ 113.25627136, -7.89153337 ], [ 113.25627899, -7.89180994 ], [ 113.25624847, -7.89232016 ], [ 113.25623322, -7.8926301 ], [ 113.25566864, -7.89434004 ], [ 113.25556946, -7.89458847 ], [ 113.25550842, -7.8947401 ], [ 113.25562286, -7.8957901 ], [ 113.2558136, -7.89639997 ], [ 113.25611877, -7.89713001 ], [ 113.25631714, -7.89768982 ], [ 113.25640106, -7.8979578 ], [ 113.25644684, -7.89811993 ], [ 113.25657654, -7.89869022 ], [ 113.25666046, -7.89915991 ], [ 113.25670624, -7.89960003 ], [ 113.25688934, -7.90013981 ], [ 113.25708008, -7.90026999 ], [ 113.25733948, -7.90037012 ], [ 113.25756073, -7.90036583 ], [ 113.25789642, -7.90036011 ], [ 113.25786591, -7.90061522 ], [ 113.25790405, -7.90095568 ], [ 113.25795746, -7.90117645 ], [ 113.25801849, -7.90199375 ], [ 113.25798035, -7.90220261 ], [ 113.25788116, -7.90266657 ], [ 113.25780487, -7.90314817 ], [ 113.25761414, -7.90416479 ], [ 113.25759125, -7.90455914 ], [ 113.25759888, -7.90479851 ], [ 113.25759125, -7.90492392 ], [ 113.25749207, -7.90536928 ], [ 113.2574234, -7.90565729 ], [ 113.25727844, -7.9060564 ], [ 113.25676727, -7.90672684 ], [ 113.25658417, -7.90691328 ], [ 113.25647736, -7.90697241 ], [ 113.2563858, -7.90698576 ], [ 113.25630188, -7.90698195 ], [ 113.25618744, -7.9069767 ], [ 113.25598907, -7.90696096 ], [ 113.2554245, -7.90718222 ], [ 113.25502014, -7.90727139 ], [ 113.25441742, -7.90730762 ], [ 113.25429535, -7.90728807 ], [ 113.25404358, -7.90722704 ], [ 113.2537384, -7.90721607 ], [ 113.25311279, -7.90720177 ], [ 113.25259399, -7.90708876 ], [ 113.25234222, -7.90696144 ], [ 113.25167847, -7.90660238 ] ] ] ] } }
]
}
