{
"type": "FeatureCollection",
"name": "Kecamatan Dringu",
"crs": { "type": "name", "properties": { "name": "urn:ogc:def:crs:OGC:1.3:CRS84" } },
"features": [
{ "type": "Feature", "properties": { "GID_0": "IDN", "NAME_0": "Indonesia", "GID_1": "IDN.11_1", "NAME_1": "Jawa Timur", "NL_NAME_1": null, "GID_2": "IDN.11.30_1", "NAME_2": "Probolinggo", "NL_NAME_2": null, "GID_3": "IDN.11.30.4_1", "NAME_3": "Dringu", "VARNAME_3": null, "NL_NAME_3": null, "TYPE_3": "Kecamatan", "ENGTYPE_3": "Sub-district", "CC_3": "3513200", "HASC_3": null }, "geometry": { "type": "MultiPolygon", "coordinates": [ [ [ [ 113.28151703, -7.81849003 ], [ 113.28101349, -7.81870985 ], [ 113.28063965, -7.81894016 ], [ 113.280159, -7.81920004 ], [ 113.27953339, -7.81961012 ], [ 113.27934265, -7.81965017 ], [ 113.2791214, -7.81964016 ], [ 113.27870178, -7.81960011 ], [ 113.27832031, -7.81968021 ], [ 113.27758026, -7.81992006 ], [ 113.27687836, -7.82032013 ], [ 113.27532959, -7.8210144 ], [ 113.27484131, -7.8212347 ], [ 113.27445984, -7.82143021 ], [ 113.2741394, -7.82194996 ], [ 113.27403259, -7.82259989 ], [ 113.27384186, -7.82366991 ], [ 113.27368164, -7.82456017 ], [ 113.27362061, -7.82551003 ], [ 113.2735672, -7.82624006 ], [ 113.27352142, -7.82713985 ], [ 113.27348328, -7.82799006 ], [ 113.27337646, -7.8289299 ], [ 113.27333069, -7.8295002 ], [ 113.27324677, -7.83023024 ], [ 113.27295685, -7.83058977 ], [ 113.27198029, -7.83062983 ], [ 113.27134705, -7.83061981 ], [ 113.27002716, -7.83068991 ], [ 113.26907349, -7.83072996 ], [ 113.26809692, -7.83078003 ], [ 113.26737213, -7.83081007 ], [ 113.26715088, -7.83082008 ], [ 113.26696777, -7.83082008 ], [ 113.26686859, -7.83082008 ], [ 113.26541138, -7.83081007 ], [ 113.26470947, -7.83080006 ], [ 113.26257324, -7.83074999 ], [ 113.2624588, -7.83074999 ], [ 113.26165771, -7.83078003 ], [ 113.26147461, -7.8307724 ], [ 113.26119232, -7.83033991 ], [ 113.26114655, -7.83000994 ], [ 113.26113129, -7.82988977 ], [ 113.26151276, -7.82774019 ], [ 113.26165009, -7.82660007 ], [ 113.26183319, -7.82526016 ], [ 113.26222229, -7.82363987 ], [ 113.26215363, -7.82357979 ], [ 113.26126099, -7.82282019 ], [ 113.26046753, -7.82233 ], [ 113.25968933, -7.82195091 ], [ 113.25959015, -7.82189989 ], [ 113.25906372, -7.82164001 ], [ 113.25861359, -7.82142019 ], [ 113.25792694, -7.82095003 ], [ 113.25733948, -7.8207202 ], [ 113.2568512, -7.82053995 ], [ 113.25675201, -7.82041979 ], [ 113.25669861, -7.82036018 ], [ 113.25669098, -7.81993008 ], [ 113.25691986, -7.81847 ], [ 113.25702667, -7.81780005 ], [ 113.25701141, -7.81725979 ], [ 113.25679016, -7.81639004 ], [ 113.25668335, -7.81603003 ], [ 113.2565918, -7.81592989 ], [ 113.25649261, -7.8158102 ], [ 113.25639343, -7.81582022 ], [ 113.25630951, -7.81590986 ], [ 113.25623322, -7.81614017 ], [ 113.25617218, -7.81627989 ], [ 113.25605774, -7.81649017 ], [ 113.2558136, -7.8167901 ], [ 113.25566864, -7.8168602 ], [ 113.25518799, -7.81696987 ], [ 113.25453949, -7.81712008 ], [ 113.25454712, -7.81688023 ], [ 113.2545929, -7.8166399 ], [ 113.25460815, -7.81643009 ], [ 113.25450897, -7.81637001 ], [ 113.25434875, -7.81636 ], [ 113.25406647, -7.81631994 ], [ 113.2538681, -7.81644011 ], [ 113.253685, -7.81655502 ], [ 113.25328064, -7.81677008 ], [ 113.25287628, -7.81693983 ], [ 113.25279236, -7.81690979 ], [ 113.25258636, -7.81685019 ], [ 113.25144196, -7.81713009 ], [ 113.25133514, -7.81746531 ], [ 113.25124359, -7.81777 ], [ 113.25121307, -7.81858015 ], [ 113.25121307, -7.81926012 ], [ 113.251297, -7.81996012 ], [ 113.25135803, -7.82061005 ], [ 113.25128937, -7.82139015 ], [ 113.25095367, -7.82211018 ], [ 113.25086975, -7.82256985 ], [ 113.25099182, -7.82270002 ], [ 113.25110626, -7.82287979 ], [ 113.251091, -7.82296991 ], [ 113.25086212, -7.82342005 ], [ 113.25048828, -7.82401991 ], [ 113.25054169, -7.82421017 ], [ 113.25064087, -7.82462978 ], [ 113.25060272, -7.82475996 ], [ 113.25051117, -7.82490015 ], [ 113.25022125, -7.82528019 ], [ 113.25028229, -7.82537985 ], [ 113.25055695, -7.82562017 ], [ 113.2508316, -7.82590008 ], [ 113.25093842, -7.82607985 ], [ 113.25093079, -7.82620001 ], [ 113.25083923, -7.82626009 ], [ 113.25007629, -7.82660007 ], [ 113.25, -7.82664013 ], [ 113.24964142, -7.82680988 ], [ 113.24939728, -7.82693005 ], [ 113.24920654, -7.82707977 ], [ 113.24893188, -7.82741022 ], [ 113.24880981, -7.82748985 ], [ 113.24874115, -7.82745981 ], [ 113.24862671, -7.82734013 ], [ 113.2485199, -7.82711983 ], [ 113.24842834, -7.82695007 ], [ 113.24784851, -7.82659006 ], [ 113.24761963, -7.82632017 ], [ 113.24726105, -7.82559013 ], [ 113.24674225, -7.82528019 ], [ 113.246521, -7.82515001 ], [ 113.24627686, -7.82503986 ], [ 113.24623871, -7.82452011 ], [ 113.24639893, -7.82396984 ], [ 113.24652863, -7.82339001 ], [ 113.24658966, -7.82321262 ], [ 113.24674225, -7.82277012 ], [ 113.24668121, -7.82229996 ], [ 113.24675751, -7.82165003 ], [ 113.24681854, -7.82109022 ], [ 113.24685669, -7.82059002 ], [ 113.2469635, -7.82000017 ], [ 113.24698639, -7.81941986 ], [ 113.24701691, -7.81905985 ], [ 113.24700928, -7.81869984 ], [ 113.24688721, -7.81853008 ], [ 113.24636841, -7.81822014 ], [ 113.2456665, -7.81792021 ], [ 113.24513245, -7.81780005 ], [ 113.24459839, -7.81762981 ], [ 113.243927, -7.81751013 ], [ 113.24337769, -7.81736994 ], [ 113.24299622, -7.81712008 ], [ 113.24255371, -7.81697989 ], [ 113.24230194, -7.81683016 ], [ 113.24185944, -7.81676006 ], [ 113.24154663, -7.81669998 ], [ 113.2412262, -7.81654978 ], [ 113.24080658, -7.81640005 ], [ 113.2405014, -7.81626987 ], [ 113.24018097, -7.81614017 ], [ 113.23972321, -7.81600285 ], [ 113.23960876, -7.81596994 ], [ 113.23952484, -7.81593323 ], [ 113.2392807, -7.81583834 ], [ 113.23919678, -7.81559992 ], [ 113.23921967, -7.81545019 ], [ 113.23929596, -7.81530142 ], [ 113.23920441, -7.81473923 ], [ 113.23896027, -7.81434631 ], [ 113.2387619, -7.81345987 ], [ 113.23865509, -7.81274223 ], [ 113.23828125, -7.8115468 ], [ 113.23825836, -7.81143904 ], [ 113.237854, -7.81095743 ], [ 113.23765564, -7.81070518 ], [ 113.2375412, -7.81062126 ], [ 113.23742676, -7.81043863 ], [ 113.23742676, -7.8103261 ], [ 113.23737335, -7.81021357 ], [ 113.23715973, -7.81017256 ], [ 113.23719025, -7.81005955 ], [ 113.23719025, -7.80986261 ], [ 113.23707581, -7.80973625 ], [ 113.23704529, -7.80962372 ], [ 113.23706055, -7.80953932 ], [ 113.23711395, -7.80946875 ], [ 113.23711395, -7.80929947 ], [ 113.23711395, -7.8091445 ], [ 113.23713684, -7.80903196 ], [ 113.23718262, -7.80887651 ], [ 113.23716736, -7.80876398 ], [ 113.23716736, -7.80866528 ], [ 113.23716736, -7.80855274 ], [ 113.2371521, -7.80846834 ], [ 113.2371521, -7.80827951 ], [ 113.24001312, -7.80875063 ], [ 113.24020386, -7.80770302 ], [ 113.23986816, -7.80730152 ], [ 113.23974609, -7.80709219 ], [ 113.23976898, -7.80688238 ], [ 113.23948669, -7.80613184 ], [ 113.23955536, -7.80574799 ], [ 113.23943329, -7.80566072 ], [ 113.23912048, -7.80555582 ], [ 113.23898315, -7.80532885 ], [ 113.23892975, -7.80492735 ], [ 113.23859406, -7.80442095 ], [ 113.2379837, -7.80408955 ], [ 113.23809052, -7.80365276 ], [ 113.23836517, -7.80287981 ], [ 113.2383194, -7.80228043 ], [ 113.23703766, -7.80026817 ], [ 113.23723602, -7.79948044 ], [ 113.23707581, -7.79851294 ], [ 113.2374649, -7.79834175 ], [ 113.23826599, -7.79845047 ], [ 113.23843384, -7.7989707 ], [ 113.23838806, -7.79961777 ], [ 113.23920441, -7.79987478 ], [ 113.23984528, -7.80006981 ], [ 113.24008179, -7.80014038 ], [ 113.2401123, -7.80003309 ], [ 113.2403717, -7.79932308 ], [ 113.24050903, -7.7988615 ], [ 113.24053955, -7.79877424 ], [ 113.24100494, -7.79819202 ], [ 113.24088287, -7.79812717 ], [ 113.24082947, -7.79803228 ], [ 113.24085236, -7.79791641 ], [ 113.24107361, -7.79774046 ], [ 113.24115753, -7.79764032 ], [ 113.24120331, -7.79754925 ], [ 113.24125671, -7.79743958 ], [ 113.24130249, -7.79736567 ], [ 113.24150085, -7.79698133 ], [ 113.241539, -7.79677773 ], [ 113.24229431, -7.79555225 ], [ 113.24236298, -7.79534054 ], [ 113.24192047, -7.7953434 ], [ 113.24147034, -7.79527235 ], [ 113.24138641, -7.79525709 ], [ 113.24090576, -7.79516792 ], [ 113.24016571, -7.79500961 ], [ 113.23929596, -7.79486609 ], [ 113.23872375, -7.79459906 ], [ 113.23874664, -7.79440355 ], [ 113.23861694, -7.7942462 ], [ 113.23854065, -7.79405546 ], [ 113.23854065, -7.793787 ], [ 113.23828125, -7.79333162 ], [ 113.23797607, -7.79292822 ], [ 113.23787689, -7.79268026 ], [ 113.23771667, -7.79240847 ], [ 113.2376709, -7.7919364 ], [ 113.23735809, -7.79120016 ], [ 113.23719025, -7.79083586 ], [ 113.2371521, -7.79064083 ], [ 113.23709106, -7.79035473 ], [ 113.23705292, -7.79004526 ], [ 113.23693085, -7.78961611 ], [ 113.23703003, -7.78921413 ], [ 113.2371521, -7.7887001 ], [ 113.23714447, -7.78785944 ], [ 113.23725891, -7.78722382 ], [ 113.23722076, -7.78648281 ], [ 113.23734283, -7.78601027 ], [ 113.23742676, -7.78534031 ], [ 113.23742676, -7.78467846 ], [ 113.23756409, -7.78384733 ], [ 113.23744202, -7.78336287 ], [ 113.23751831, -7.78329945 ], [ 113.23752594, -7.78315735 ], [ 113.23729706, -7.78263569 ], [ 113.23720551, -7.78242731 ], [ 113.23713684, -7.78225422 ], [ 113.23710632, -7.78218603 ], [ 113.23708344, -7.78201056 ], [ 113.23730469, -7.78167725 ], [ 113.23712921, -7.78150845 ], [ 113.23701477, -7.78146791 ], [ 113.23674774, -7.78139687 ], [ 113.23596191, -7.78117561 ], [ 113.23582458, -7.78111792 ], [ 113.23538971, -7.78092575 ], [ 113.23525238, -7.78086233 ], [ 113.23483276, -7.78077602 ], [ 113.23439789, -7.7806797 ], [ 113.23401642, -7.78054237 ], [ 113.2339859, -7.78040695 ], [ 113.23403931, -7.77999544 ], [ 113.23408508, -7.77951574 ], [ 113.23417664, -7.77922487 ], [ 113.23419952, -7.7791543 ], [ 113.23430634, -7.77850485 ], [ 113.23453522, -7.77833128 ], [ 113.2346344, -7.77804327 ], [ 113.23478699, -7.77790403 ], [ 113.23498535, -7.77771854 ], [ 113.23508453, -7.77689981 ], [ 113.23511505, -7.77637529 ], [ 113.23519135, -7.77619314 ], [ 113.23524475, -7.77592564 ], [ 113.23548889, -7.77519894 ], [ 113.23574066, -7.77497005 ], [ 113.23593903, -7.77486038 ], [ 113.23628998, -7.77474594 ], [ 113.23658752, -7.77441216 ], [ 113.23667908, -7.77417231 ], [ 113.23693848, -7.773489 ], [ 113.23699188, -7.7732935 ], [ 113.23695374, -7.77320814 ], [ 113.23656464, -7.77238083 ], [ 113.23591614, -7.77183867 ], [ 113.23511505, -7.77117109 ], [ 113.23433685, -7.77040148 ], [ 113.23436737, -7.77030325 ], [ 113.23457336, -7.76965904 ], [ 113.23480988, -7.76891232 ], [ 113.23486328, -7.76847792 ], [ 113.23491669, -7.76808357 ], [ 113.23499298, -7.76753998 ], [ 113.23504639, -7.76712751 ], [ 113.23493958, -7.76706696 ], [ 113.23464203, -7.76689768 ], [ 113.23459625, -7.76675797 ], [ 113.23453522, -7.76656771 ], [ 113.23443604, -7.76654196 ], [ 113.23448181, -7.76639938 ], [ 113.23461151, -7.76597834 ], [ 113.23464966, -7.76583862 ], [ 113.23474884, -7.76550388 ], [ 113.23487091, -7.76519299 ], [ 113.23490906, -7.76510286 ], [ 113.23503876, -7.7650156 ], [ 113.23524475, -7.76489115 ], [ 113.23564148, -7.76465273 ], [ 113.23584747, -7.76456881 ], [ 113.23626709, -7.76440096 ], [ 113.23642731, -7.7638936 ], [ 113.23627472, -7.76364708 ], [ 113.2363739, -7.76336384 ], [ 113.23653412, -7.76291704 ], [ 113.23657227, -7.76271439 ], [ 113.23498535, -7.7620883 ], [ 113.2350235, -7.76201296 ], [ 113.23509216, -7.76126575 ], [ 113.23513031, -7.7609024 ], [ 113.23513794, -7.76077986 ], [ 113.23516846, -7.76033401 ], [ 113.23521423, -7.75996208 ], [ 113.23523712, -7.75983381 ], [ 113.2352829, -7.75955868 ], [ 113.2347641, -7.75941801 ], [ 113.23446655, -7.75933886 ], [ 113.23448944, -7.75925016 ], [ 113.23413086, -7.75900126 ], [ 113.23417664, -7.75877666 ], [ 113.23419952, -7.75858641 ], [ 113.23421478, -7.75834894 ], [ 113.23427582, -7.75830746 ], [ 113.23429871, -7.75820637 ], [ 113.234375, -7.75803518 ], [ 113.23440552, -7.75794077 ], [ 113.23442841, -7.7578249 ], [ 113.23445129, -7.75767136 ], [ 113.23448944, -7.75756311 ], [ 113.23451996, -7.75749207 ], [ 113.23455048, -7.75739527 ], [ 113.23460388, -7.75729132 ], [ 113.23465729, -7.75710535 ], [ 113.2346344, -7.75700188 ], [ 113.23468018, -7.7566967 ], [ 113.23455048, -7.75664711 ], [ 113.23394012, -7.75640774 ], [ 113.23345184, -7.75625086 ], [ 113.23325348, -7.75616455 ], [ 113.23290253, -7.7560482 ], [ 113.23274231, -7.75599432 ], [ 113.23215485, -7.75600338 ], [ 113.23229218, -7.75534487 ], [ 113.23214722, -7.75524426 ], [ 113.23242188, -7.75444841 ], [ 113.23269653, -7.75354385 ], [ 113.2326889, -7.75325918 ], [ 113.2327652, -7.75298023 ], [ 113.23304749, -7.75270033 ], [ 113.23316193, -7.75231647 ], [ 113.233078, -7.75230742 ], [ 113.23316193, -7.75204134 ], [ 113.2331543, -7.7518816 ], [ 113.23324585, -7.75166321 ], [ 113.23340607, -7.7514267 ], [ 113.23348236, -7.75115824 ], [ 113.23361206, -7.75079584 ], [ 113.23377228, -7.75045681 ], [ 113.23381805, -7.75020027 ], [ 113.23386383, -7.75002527 ], [ 113.23418427, -7.75015163 ], [ 113.23426056, -7.74977827 ], [ 113.23432922, -7.74943972 ], [ 113.2345047, -7.74931049 ], [ 113.23477936, -7.7490859 ], [ 113.23488617, -7.74889851 ], [ 113.23497772, -7.74868011 ], [ 113.23521423, -7.74853516 ], [ 113.23527527, -7.7484293 ], [ 113.23537445, -7.74825287 ], [ 113.235466, -7.74812746 ], [ 113.235672, -7.74786615 ], [ 113.23574829, -7.74773455 ], [ 113.23563385, -7.7471242 ], [ 113.2355957, -7.74682808 ], [ 113.23561859, -7.74659348 ], [ 113.23574066, -7.74626827 ], [ 113.23578644, -7.74617243 ], [ 113.23586273, -7.74600649 ], [ 113.23600006, -7.74540901 ], [ 113.23608398, -7.74518108 ], [ 113.23617554, -7.74422932 ], [ 113.2361908, -7.74403572 ], [ 113.23639679, -7.74348307 ], [ 113.23656464, -7.74308538 ], [ 113.23661804, -7.7427969 ], [ 113.23662567, -7.74219751 ], [ 113.23661041, -7.7420454 ], [ 113.23682404, -7.74118233 ], [ 113.23691559, -7.74076796 ], [ 113.23700714, -7.74048567 ], [ 113.23706055, -7.74040842 ], [ 113.23719788, -7.74030638 ], [ 113.23734283, -7.74045992 ], [ 113.23745728, -7.74083996 ], [ 113.23750305, -7.74096012 ], [ 113.23766327, -7.74107981 ], [ 113.23787689, -7.74125004 ], [ 113.2379837, -7.74139977 ], [ 113.2379837, -7.74167013 ], [ 113.23799133, -7.74181986 ], [ 113.23812866, -7.74201012 ], [ 113.23854828, -7.74223995 ], [ 113.23877716, -7.74234009 ], [ 113.23887634, -7.7423501 ], [ 113.23893738, -7.74214983 ], [ 113.2390976, -7.74162006 ], [ 113.23914337, -7.74147987 ], [ 113.23922729, -7.74138021 ], [ 113.24137115, -7.74173021 ], [ 113.24152374, -7.7417798 ], [ 113.24154663, -7.74189997 ], [ 113.24156189, -7.74201012 ], [ 113.24162292, -7.74209023 ], [ 113.24178314, -7.74210978 ], [ 113.24195862, -7.74201012 ], [ 113.24208069, -7.74193001 ], [ 113.24220276, -7.74191999 ], [ 113.2423172, -7.74199009 ], [ 113.24243927, -7.7421999 ], [ 113.24253845, -7.74290991 ], [ 113.24255371, -7.74336004 ], [ 113.2425766, -7.74349022 ], [ 113.24299622, -7.74378014 ], [ 113.24305725, -7.7438302 ], [ 113.24358368, -7.74406004 ], [ 113.2438736, -7.74417019 ], [ 113.24420166, -7.74406004 ], [ 113.24437714, -7.74400997 ], [ 113.24462128, -7.7440834 ], [ 113.24474335, -7.74412012 ], [ 113.24495697, -7.74431992 ], [ 113.24516296, -7.74460983 ], [ 113.24524689, -7.74479008 ], [ 113.2457962, -7.7449398 ], [ 113.24623871, -7.7452302 ], [ 113.24646759, -7.7453599 ], [ 113.24687958, -7.74545002 ], [ 113.24768829, -7.74547005 ], [ 113.24782562, -7.74547577 ], [ 113.24791718, -7.74548006 ], [ 113.24832916, -7.74553013 ], [ 113.24859619, -7.7455101 ], [ 113.24878693, -7.74544001 ], [ 113.24900055, -7.74527979 ], [ 113.24904633, -7.74521017 ], [ 113.24899292, -7.74510002 ], [ 113.24889374, -7.74498987 ], [ 113.24886322, -7.7448802 ], [ 113.24949646, -7.74394989 ], [ 113.24986267, -7.74329996 ], [ 113.24989319, -7.74322987 ], [ 113.25, -7.74298 ], [ 113.25007629, -7.74280977 ], [ 113.25015259, -7.74269009 ], [ 113.25026703, -7.74259996 ], [ 113.25055695, -7.74253988 ], [ 113.25112915, -7.74258995 ], [ 113.25167084, -7.74257994 ], [ 113.25224304, -7.74253988 ], [ 113.25243378, -7.74249983 ], [ 113.25328064, -7.74224997 ], [ 113.25363922, -7.7421298 ], [ 113.25376892, -7.7421298 ], [ 113.25398254, -7.74229002 ], [ 113.25402069, -7.74236012 ], [ 113.25411987, -7.74241018 ], [ 113.2542038, -7.74240017 ], [ 113.25428772, -7.74229002 ], [ 113.25435638, -7.74225998 ], [ 113.2545929, -7.7423501 ], [ 113.25480652, -7.74250984 ], [ 113.25498199, -7.74263 ], [ 113.25509644, -7.74339008 ], [ 113.25509644, -7.74529982 ], [ 113.25507355, -7.74566984 ], [ 113.25498962, -7.7462101 ], [ 113.25475311, -7.74727011 ], [ 113.25469971, -7.74771976 ], [ 113.25473022, -7.74840021 ], [ 113.25479126, -7.74882984 ], [ 113.25502777, -7.74961996 ], [ 113.25517273, -7.75 ], [ 113.25521088, -7.75011015 ], [ 113.25540161, -7.75052023 ], [ 113.25546265, -7.7506299 ], [ 113.25556183, -7.75081015 ], [ 113.25566101, -7.75098991 ], [ 113.25582123, -7.75138998 ], [ 113.25598145, -7.75180006 ], [ 113.25634003, -7.75262022 ], [ 113.25647736, -7.75298023 ], [ 113.25682068, -7.75407982 ], [ 113.25700378, -7.75444984 ], [ 113.2574234, -7.75528002 ], [ 113.25750732, -7.75544977 ], [ 113.25769043, -7.75575018 ], [ 113.25789642, -7.75608015 ], [ 113.2583313, -7.75654984 ], [ 113.25853729, -7.75678015 ], [ 113.25865936, -7.75691986 ], [ 113.2589035, -7.75720978 ], [ 113.2591095, -7.75748014 ], [ 113.2594223, -7.75793982 ], [ 113.2596817, -7.75825977 ], [ 113.25995636, -7.75867987 ], [ 113.26058197, -7.75936985 ], [ 113.26081848, -7.75981998 ], [ 113.26093292, -7.76011992 ], [ 113.26104736, -7.76028013 ], [ 113.26117706, -7.76037979 ], [ 113.26152802, -7.76057005 ], [ 113.26174927, -7.76074982 ], [ 113.26212311, -7.76139021 ], [ 113.26229858, -7.76161003 ], [ 113.26252747, -7.76191998 ], [ 113.26264191, -7.76206017 ], [ 113.26268005, -7.76231003 ], [ 113.26267242, -7.76260996 ], [ 113.26270294, -7.76271009 ], [ 113.26304626, -7.76302004 ], [ 113.26320648, -7.7631402 ], [ 113.26325226, -7.76324987 ], [ 113.26316071, -7.76374006 ], [ 113.26320648, -7.76406002 ], [ 113.26320648, -7.76420021 ], [ 113.2631073, -7.76433992 ], [ 113.26281738, -7.76452017 ], [ 113.2627182, -7.7645998 ], [ 113.26265717, -7.76468992 ], [ 113.26268768, -7.76476002 ], [ 113.26299286, -7.76480007 ], [ 113.2635498, -7.76493979 ], [ 113.26392365, -7.76500988 ], [ 113.2641983, -7.76508999 ], [ 113.2647171, -7.7654376 ], [ 113.26506042, -7.76566982 ], [ 113.26525116, -7.76586008 ], [ 113.26535034, -7.76601982 ], [ 113.26554108, -7.76644993 ], [ 113.26598358, -7.76706982 ], [ 113.26641846, -7.76771021 ], [ 113.26759338, -7.76961994 ], [ 113.26779938, -7.77000999 ], [ 113.26821136, -7.77102995 ], [ 113.26831055, -7.77139997 ], [ 113.26846313, -7.7719202 ], [ 113.26867676, -7.77270985 ], [ 113.26886749, -7.77311993 ], [ 113.26912689, -7.77353001 ], [ 113.26940155, -7.77383995 ], [ 113.26959229, -7.77401018 ], [ 113.26976776, -7.77408981 ], [ 113.26997375, -7.7740798 ], [ 113.27031708, -7.77396011 ], [ 113.27046204, -7.77391005 ], [ 113.27057648, -7.77393007 ], [ 113.27073669, -7.77406979 ], [ 113.27085114, -7.77427006 ], [ 113.27097321, -7.77475977 ], [ 113.27101898, -7.77516985 ], [ 113.27101135, -7.77549982 ], [ 113.27097321, -7.77599001 ], [ 113.27101135, -7.77642012 ], [ 113.27113342, -7.77680016 ], [ 113.27131653, -7.7771101 ], [ 113.27153778, -7.77728987 ], [ 113.27163696, -7.77738476 ], [ 113.27184296, -7.77757978 ], [ 113.2719574, -7.77769995 ], [ 113.27213287, -7.77776003 ], [ 113.27229309, -7.77771997 ], [ 113.27259827, -7.77755022 ], [ 113.27282715, -7.77742004 ], [ 113.27313995, -7.77734995 ], [ 113.27332306, -7.77734995 ], [ 113.27348328, -7.77740002 ], [ 113.27362061, -7.77754021 ], [ 113.27368927, -7.77769995 ], [ 113.2736969, -7.77805996 ], [ 113.27364349, -7.77855015 ], [ 113.27349854, -7.77922535 ], [ 113.27358246, -7.77939701 ], [ 113.27364349, -7.77948236 ], [ 113.27360535, -7.7796731 ], [ 113.2734375, -7.77965307 ], [ 113.27319336, -7.77961016 ], [ 113.2729187, -7.77959871 ], [ 113.27292633, -7.77983332 ], [ 113.27295685, -7.77992439 ], [ 113.27316284, -7.78015518 ], [ 113.27317047, -7.78023338 ], [ 113.27305603, -7.78032255 ], [ 113.27276611, -7.78056908 ], [ 113.27275085, -7.78071785 ], [ 113.2727356, -7.78082132 ], [ 113.27263641, -7.78101778 ], [ 113.27281189, -7.78212023 ], [ 113.27558899, -7.78722239 ], [ 113.2760849, -7.78827429 ], [ 113.27615356, -7.78889322 ], [ 113.27576447, -7.790205 ], [ 113.27526855, -7.79214573 ], [ 113.27567291, -7.79244471 ], [ 113.27557373, -7.79283047 ], [ 113.27581024, -7.7932477 ], [ 113.27584839, -7.79391718 ], [ 113.27581787, -7.7953105 ], [ 113.27592468, -7.7955575 ], [ 113.27626038, -7.79584026 ], [ 113.27631378, -7.79590654 ], [ 113.27610779, -7.79636002 ], [ 113.27606201, -7.7970295 ], [ 113.27615356, -7.7974143 ], [ 113.27650452, -7.79786444 ], [ 113.27661133, -7.79826546 ], [ 113.27638245, -7.79973984 ], [ 113.27635193, -7.8002758 ], [ 113.27643585, -7.80091143 ], [ 113.27674866, -7.80179691 ], [ 113.27713776, -7.80248117 ], [ 113.27735901, -7.80284834 ], [ 113.2780304, -7.80389929 ], [ 113.27866364, -7.80525208 ], [ 113.27923584, -7.80647087 ], [ 113.27980042, -7.80779028 ], [ 113.28018951, -7.80910587 ], [ 113.28025055, -7.80929756 ], [ 113.28027344, -7.8094244 ], [ 113.28012085, -7.80941677 ], [ 113.28011322, -7.80966616 ], [ 113.28013611, -7.80989408 ], [ 113.28009796, -7.81006289 ], [ 113.28005219, -7.810287 ], [ 113.28004456, -7.8105278 ], [ 113.28001404, -7.81072664 ], [ 113.28064728, -7.81077814 ], [ 113.2806778, -7.81122589 ], [ 113.28065491, -7.81149054 ], [ 113.28051758, -7.81169271 ], [ 113.28038025, -7.81194544 ], [ 113.28023529, -7.81216002 ], [ 113.28025818, -7.8122859 ], [ 113.28050232, -7.81249857 ], [ 113.28063965, -7.8126111 ], [ 113.28065491, -7.81274986 ], [ 113.28057861, -7.81286335 ], [ 113.28044891, -7.8128891 ], [ 113.28034973, -7.81290245 ], [ 113.28022003, -7.81290293 ], [ 113.28012848, -7.81428862 ], [ 113.28007507, -7.81457424 ], [ 113.27988434, -7.81562471 ], [ 113.2798233, -7.81634092 ], [ 113.27981567, -7.81641817 ], [ 113.27985382, -7.81665659 ], [ 113.27983856, -7.81676006 ], [ 113.27992249, -7.8172102 ], [ 113.2800293, -7.81722021 ], [ 113.28038025, -7.8172698 ], [ 113.28057098, -7.81740999 ], [ 113.28079987, -7.81759977 ], [ 113.28108215, -7.81781006 ], [ 113.2811203, -7.81795979 ], [ 113.2811203, -7.81829977 ], [ 113.28121948, -7.81838989 ], [ 113.28134918, -7.81843996 ], [ 113.28151703, -7.81849003 ] ] ] ] } }
]
}
