{
"type": "FeatureCollection",
"name": "Kecamatan Maron",
"crs": { "type": "name", "properties": { "name": "urn:ogc:def:crs:OGC:1.3:CRS84" } },
"features": [
{ "type": "Feature", "properties": { "GID_0": "IDN", "NAME_0": "Indonesia", "GID_1": "IDN.11_1", "NAME_1": "Jawa Timur", "NL_NAME_1": null, "GID_2": "IDN.11.30_1", "NAME_2": "Probolinggo", "NL_NAME_2": null, "GID_3": "IDN.11.30.14_1", "NAME_3": "Maron", "VARNAME_3": null, "NL_NAME_3": null, "TYPE_3": "Kecamatan", "ENGTYPE_3": "Sub-district", "CC_3": "3513180", "HASC_3": null }, "geometry": { "type": "MultiPolygon", "coordinates": [ [ [ [ 113.36702728, -7.86780024 ], [ 113.36726379, -7.86778021 ], [ 113.36756897, -7.86778021 ], [ 113.3677063, -7.86781979 ], [ 113.36794281, -7.86791992 ], [ 113.36807251, -7.86802006 ], [ 113.36820984, -7.86816978 ], [ 113.3682785, -7.86828995 ], [ 113.36829376, -7.86841011 ], [ 113.36830139, -7.86865997 ], [ 113.36826324, -7.86898994 ], [ 113.36823273, -7.86929989 ], [ 113.36824036, -7.8695302 ], [ 113.3682785, -7.86969995 ], [ 113.36843109, -7.86990023 ], [ 113.36885834, -7.8702302 ], [ 113.36929321, -7.87046003 ], [ 113.36955261, -7.8705802 ], [ 113.36975098, -7.87064981 ], [ 113.37017059, -7.87080002 ], [ 113.3707962, -7.87102985 ], [ 113.37104034, -7.87110996 ], [ 113.37120056, -7.87111998 ], [ 113.37136841, -7.87110996 ], [ 113.37155151, -7.87101984 ], [ 113.37171173, -7.87071991 ], [ 113.37180328, -7.87039995 ], [ 113.37188721, -7.87017012 ], [ 113.3719635, -7.87005997 ], [ 113.37206268, -7.8700099 ], [ 113.37213898, -7.87002993 ], [ 113.37232208, -7.87010002 ], [ 113.37249756, -7.87025023 ], [ 113.37296295, -7.87066984 ], [ 113.3731308, -7.87081003 ], [ 113.37333679, -7.87093019 ], [ 113.37355804, -7.87101984 ], [ 113.37384033, -7.87105989 ], [ 113.37419128, -7.87107992 ], [ 113.37457275, -7.87108994 ], [ 113.37489319, -7.87110996 ], [ 113.375, -7.87112999 ], [ 113.37516785, -7.87120008 ], [ 113.37528229, -7.87129021 ], [ 113.37529755, -7.87136984 ], [ 113.37521362, -7.87150002 ], [ 113.37509155, -7.87157011 ], [ 113.375, -7.87160015 ], [ 113.37490082, -7.87166023 ], [ 113.37477875, -7.87175989 ], [ 113.37467957, -7.8719101 ], [ 113.37467194, -7.87199926 ], [ 113.37471008, -7.87221003 ], [ 113.37480164, -7.87239981 ], [ 113.37490845, -7.87254 ], [ 113.375, -7.87262011 ], [ 113.37519836, -7.87285995 ], [ 113.37547302, -7.87300014 ], [ 113.37590027, -7.87320995 ], [ 113.37625122, -7.87341976 ], [ 113.3764801, -7.87365007 ], [ 113.3766098, -7.87390995 ], [ 113.37658691, -7.87413979 ], [ 113.37650299, -7.87440014 ], [ 113.37641144, -7.87478018 ], [ 113.3762207, -7.87503004 ], [ 113.37612152, -7.87523174 ], [ 113.37599945, -7.87548018 ], [ 113.37584686, -7.87593985 ], [ 113.37574768, -7.8762598 ], [ 113.37570953, -7.87641001 ], [ 113.37535095, -7.87725019 ], [ 113.37534332, -7.87742996 ], [ 113.37535858, -7.87751007 ], [ 113.37538147, -7.87760019 ], [ 113.37542725, -7.87775993 ], [ 113.37541962, -7.87833023 ], [ 113.37538147, -7.87849998 ], [ 113.37513733, -7.87932014 ], [ 113.37503052, -7.8796401 ], [ 113.37478638, -7.8801198 ], [ 113.37461853, -7.88051987 ], [ 113.37449646, -7.88088989 ], [ 113.37439728, -7.88107014 ], [ 113.3740921, -7.88128996 ], [ 113.37397766, -7.88136005 ], [ 113.37391663, -7.88153982 ], [ 113.37391663, -7.88176012 ], [ 113.37399292, -7.88196993 ], [ 113.37414551, -7.88216877 ], [ 113.3742981, -7.88235903 ], [ 113.37451172, -7.88263988 ], [ 113.3745575, -7.8828001 ], [ 113.37458801, -7.88314009 ], [ 113.37460327, -7.88335991 ], [ 113.3745575, -7.88346004 ], [ 113.37447357, -7.88352013 ], [ 113.37419128, -7.88359022 ], [ 113.37364197, -7.88341999 ], [ 113.37339783, -7.88336992 ], [ 113.37320709, -7.88337994 ], [ 113.37299347, -7.88351011 ], [ 113.37256622, -7.88401985 ], [ 113.37223053, -7.88448 ], [ 113.37202454, -7.88526773 ], [ 113.37195587, -7.88553858 ], [ 113.37162018, -7.88639021 ], [ 113.37140656, -7.88676023 ], [ 113.37114716, -7.88711977 ], [ 113.37091064, -7.88758993 ], [ 113.37075806, -7.88805389 ], [ 113.37065887, -7.88837004 ], [ 113.37062836, -7.8884902 ], [ 113.37064362, -7.88870001 ], [ 113.37056732, -7.88883018 ], [ 113.37030792, -7.88895988 ], [ 113.36969757, -7.88885021 ], [ 113.36958313, -7.88882017 ], [ 113.36943054, -7.8888998 ], [ 113.36933899, -7.88906002 ], [ 113.369133, -7.88945007 ], [ 113.36895752, -7.8896699 ], [ 113.36878967, -7.8898201 ], [ 113.36815643, -7.88995981 ], [ 113.36785126, -7.88995981 ], [ 113.36768341, -7.8899498 ], [ 113.36720276, -7.89015007 ], [ 113.366539, -7.89055014 ], [ 113.36641693, -7.8906827 ], [ 113.36624146, -7.89087009 ], [ 113.36595154, -7.89131021 ], [ 113.3658905, -7.89145994 ], [ 113.36540985, -7.89144993 ], [ 113.36470795, -7.89139986 ], [ 113.36386871, -7.89129019 ], [ 113.36367798, -7.89127016 ], [ 113.36269379, -7.89112997 ], [ 113.36155701, -7.89092016 ], [ 113.36128235, -7.89086676 ], [ 113.36047363, -7.89070988 ], [ 113.35932922, -7.89039993 ], [ 113.35827637, -7.89006996 ], [ 113.35793304, -7.88995981 ], [ 113.35749817, -7.8898201 ], [ 113.35665131, -7.88957024 ], [ 113.35681915, -7.8888402 ], [ 113.35693359, -7.88829994 ], [ 113.35695648, -7.88799953 ], [ 113.3536911, -7.88609076 ], [ 113.35191345, -7.88505507 ], [ 113.35177612, -7.88540649 ], [ 113.35158539, -7.88589001 ], [ 113.35186768, -7.88622189 ], [ 113.35192871, -7.88677692 ], [ 113.35237122, -7.88699627 ], [ 113.35232544, -7.88766336 ], [ 113.3518219, -7.88772154 ], [ 113.3518219, -7.88838816 ], [ 113.35221863, -7.88849735 ], [ 113.35218811, -7.88898754 ], [ 113.35166168, -7.88903999 ], [ 113.35150909, -7.88906765 ], [ 113.35086823, -7.88918352 ], [ 113.35060883, -7.88922977 ], [ 113.34963226, -7.88948011 ], [ 113.34854126, -7.88972998 ], [ 113.34893036, -7.88905001 ], [ 113.34909058, -7.88834 ], [ 113.34908295, -7.88746023 ], [ 113.34877777, -7.88673019 ], [ 113.34825134, -7.88592005 ], [ 113.34811401, -7.8857193 ], [ 113.34675598, -7.88619232 ], [ 113.34500122, -7.88637686 ], [ 113.34503937, -7.88608503 ], [ 113.34505463, -7.88563824 ], [ 113.34503937, -7.88546324 ], [ 113.34495544, -7.88528919 ], [ 113.34472656, -7.88515425 ], [ 113.34423065, -7.88469076 ], [ 113.34430695, -7.88410759 ], [ 113.34428406, -7.88381624 ], [ 113.34404755, -7.88335133 ], [ 113.34399414, -7.88309908 ], [ 113.34397888, -7.88295555 ], [ 113.34392548, -7.88243866 ], [ 113.34390259, -7.88193369 ], [ 113.34375, -7.88139057 ], [ 113.34345245, -7.88115883 ], [ 113.34326172, -7.88104343 ], [ 113.34294128, -7.88073444 ], [ 113.34292603, -7.88063955 ], [ 113.34290314, -7.88050127 ], [ 113.34280396, -7.88017178 ], [ 113.34260559, -7.88001728 ], [ 113.34237671, -7.87972689 ], [ 113.34231567, -7.87951374 ], [ 113.3421936, -7.8792944 ], [ 113.34207916, -7.87914085 ], [ 113.34184265, -7.87900448 ], [ 113.34199524, -7.87763071 ], [ 113.34188843, -7.87650442 ], [ 113.3418808, -7.87508631 ], [ 113.34574127, -7.87543249 ], [ 113.34588623, -7.8746295 ], [ 113.34692383, -7.87477684 ], [ 113.34700012, -7.8746233 ], [ 113.34707642, -7.87447023 ], [ 113.34706879, -7.87385941 ], [ 113.34706879, -7.87363005 ], [ 113.34706879, -7.87324858 ], [ 113.34702301, -7.87286663 ], [ 113.3470993, -7.87229347 ], [ 113.34702301, -7.87195015 ], [ 113.34644318, -7.87183905 ], [ 113.34625244, -7.87157297 ], [ 113.34648132, -7.87084627 ], [ 113.34651184, -7.86970043 ], [ 113.34647369, -7.8694334 ], [ 113.34635162, -7.86924314 ], [ 113.34631348, -7.86893749 ], [ 113.34638977, -7.86828804 ], [ 113.3463974, -7.86819983 ], [ 113.34645844, -7.86760044 ], [ 113.34653473, -7.86733532 ], [ 113.34668732, -7.86683559 ], [ 113.34664154, -7.86614847 ], [ 113.3465271, -7.86580515 ], [ 113.34648895, -7.86538553 ], [ 113.34621429, -7.86504316 ], [ 113.34621429, -7.86462355 ], [ 113.3451767, -7.86428547 ], [ 113.3451004, -7.86386585 ], [ 113.34455109, -7.86377573 ], [ 113.34490204, -7.86335993 ], [ 113.34506989, -7.86258984 ], [ 113.34519196, -7.86215019 ], [ 113.34529114, -7.86176014 ], [ 113.34535217, -7.86148977 ], [ 113.34542084, -7.86139011 ], [ 113.34532166, -7.86112022 ], [ 113.34529877, -7.86105013 ], [ 113.34461212, -7.86096001 ], [ 113.34397888, -7.86090994 ], [ 113.34401703, -7.86077976 ], [ 113.34410095, -7.86032009 ], [ 113.34406281, -7.86012983 ], [ 113.34396362, -7.86007023 ], [ 113.34375, -7.86002016 ], [ 113.34324646, -7.8599 ], [ 113.34322357, -7.85979986 ], [ 113.34322357, -7.8593998 ], [ 113.34319305, -7.85899019 ], [ 113.3431015, -7.85889006 ], [ 113.34288788, -7.85877991 ], [ 113.34266663, -7.85873985 ], [ 113.34233856, -7.85873985 ], [ 113.3420105, -7.85880995 ], [ 113.34143829, -7.85896015 ], [ 113.34111023, -7.85893011 ], [ 113.34091187, -7.85929012 ], [ 113.34076691, -7.85969019 ], [ 113.34069824, -7.86062002 ], [ 113.34065247, -7.86077976 ], [ 113.3405838, -7.86096001 ], [ 113.34031677, -7.86126995 ], [ 113.34005737, -7.86152983 ], [ 113.33963013, -7.86178017 ], [ 113.33912659, -7.86201 ], [ 113.33886719, -7.86209011 ], [ 113.33837128, -7.86224985 ], [ 113.33783722, -7.86240005 ], [ 113.33740234, -7.86246014 ], [ 113.33695984, -7.86253023 ], [ 113.33653259, -7.86257648 ], [ 113.33641052, -7.86258984 ], [ 113.33566284, -7.86268997 ], [ 113.33548737, -7.86271 ], [ 113.3343811, -7.86281013 ], [ 113.33383942, -7.86290979 ], [ 113.33334351, -7.86299992 ], [ 113.33235168, -7.8632102 ], [ 113.33139038, -7.86327982 ], [ 113.33123016, -7.86285019 ], [ 113.33119202, -7.86267853 ], [ 113.33100128, -7.86188984 ], [ 113.33071899, -7.86069012 ], [ 113.33061981, -7.86025 ], [ 113.33045959, -7.85938978 ], [ 113.33029938, -7.85853004 ], [ 113.33011627, -7.85743999 ], [ 113.33007813, -7.85718012 ], [ 113.33003998, -7.85693979 ], [ 113.33000946, -7.85679007 ], [ 113.32997894, -7.85671997 ], [ 113.32997131, -7.85664511 ], [ 113.32994843, -7.85648012 ], [ 113.32981873, -7.85588264 ], [ 113.32969666, -7.85531378 ], [ 113.32965851, -7.8551302 ], [ 113.32929993, -7.85386992 ], [ 113.32926178, -7.85373259 ], [ 113.32904816, -7.85297012 ], [ 113.32919312, -7.85298014 ], [ 113.3296814, -7.8530302 ], [ 113.32967377, -7.85323 ], [ 113.33045959, -7.85334015 ], [ 113.3312912, -7.85342598 ], [ 113.33152008, -7.85344982 ], [ 113.33144379, -7.85305023 ], [ 113.33145142, -7.85268021 ], [ 113.33151245, -7.85185003 ], [ 113.33154297, -7.85125017 ], [ 113.33174133, -7.85047007 ], [ 113.33178711, -7.85020018 ], [ 113.33181, -7.84977007 ], [ 113.33182526, -7.84954357 ], [ 113.33184052, -7.84925985 ], [ 113.33185577, -7.84895229 ], [ 113.33187866, -7.84849977 ], [ 113.33193207, -7.84809017 ], [ 113.33200073, -7.84791994 ], [ 113.3321991, -7.84768009 ], [ 113.33226776, -7.84761 ], [ 113.3330307, -7.84688997 ], [ 113.33338165, -7.84660006 ], [ 113.33384705, -7.84626007 ], [ 113.33418274, -7.84595013 ], [ 113.33448792, -7.84563017 ], [ 113.3351593, -7.84571981 ], [ 113.3360672, -7.84579992 ], [ 113.33734131, -7.84571981 ], [ 113.33847046, -7.84579992 ], [ 113.33889008, -7.84582376 ], [ 113.33917999, -7.84583998 ], [ 113.33979797, -7.84588003 ], [ 113.3409729, -7.84588003 ], [ 113.34207153, -7.84578991 ], [ 113.34277344, -7.84554005 ], [ 113.34274292, -7.84528017 ], [ 113.34288025, -7.84486008 ], [ 113.34282684, -7.8446002 ], [ 113.34288788, -7.84429979 ], [ 113.34291077, -7.84413004 ], [ 113.34282684, -7.84400988 ], [ 113.34274292, -7.84391022 ], [ 113.34274292, -7.84383011 ], [ 113.34287262, -7.84369993 ], [ 113.34300232, -7.84358978 ], [ 113.3430481, -7.84337997 ], [ 113.34300995, -7.84320021 ], [ 113.34288788, -7.84300995 ], [ 113.34279633, -7.84293985 ], [ 113.34262848, -7.84299994 ], [ 113.34243774, -7.84311008 ], [ 113.34230804, -7.84313011 ], [ 113.3421936, -7.84307003 ], [ 113.3421402, -7.84274006 ], [ 113.34197998, -7.84240675 ], [ 113.34188843, -7.84221983 ], [ 113.34184265, -7.84208012 ], [ 113.34183502, -7.84192371 ], [ 113.34181976, -7.84165001 ], [ 113.34171295, -7.84145021 ], [ 113.34165955, -7.84120321 ], [ 113.34152222, -7.84107876 ], [ 113.34141541, -7.84102678 ], [ 113.34127045, -7.84100676 ], [ 113.34107971, -7.84098673 ], [ 113.34062958, -7.84113646 ], [ 113.33999634, -7.84141302 ], [ 113.33946228, -7.84186792 ], [ 113.33930206, -7.84194279 ], [ 113.33905029, -7.8419323 ], [ 113.33885193, -7.84192419 ], [ 113.33869934, -7.84196806 ], [ 113.33847809, -7.84201002 ], [ 113.33827209, -7.84194851 ], [ 113.33805847, -7.84178114 ], [ 113.33752441, -7.84134293 ], [ 113.33694458, -7.84089375 ], [ 113.33666229, -7.8406539 ], [ 113.33621216, -7.84047747 ], [ 113.33535767, -7.84007215 ], [ 113.33485413, -7.84000158 ], [ 113.33380127, -7.8396616 ], [ 113.33231354, -7.83917809 ], [ 113.33032227, -7.83853388 ], [ 113.3297348, -7.83830595 ], [ 113.32949066, -7.83818102 ], [ 113.32859802, -7.83761835 ], [ 113.32847595, -7.83753252 ], [ 113.32733154, -7.83672142 ], [ 113.3269577, -7.83643961 ], [ 113.32683563, -7.83637714 ], [ 113.32675171, -7.83639812 ], [ 113.32643127, -7.83649492 ], [ 113.32641602, -7.83590651 ], [ 113.32637787, -7.8348341 ], [ 113.32636261, -7.83407736 ], [ 113.32631683, -7.83340597 ], [ 113.32657623, -7.83342981 ], [ 113.32649994, -7.83268023 ], [ 113.32637024, -7.83227015 ], [ 113.32610321, -7.83155012 ], [ 113.32588959, -7.8310709 ], [ 113.32536316, -7.82991123 ], [ 113.32492828, -7.82895994 ], [ 113.32711029, -7.82937002 ], [ 113.32727051, -7.82890987 ], [ 113.32758331, -7.82832003 ], [ 113.32852173, -7.82590008 ], [ 113.32884216, -7.82507992 ], [ 113.32907867, -7.82444191 ], [ 113.32927704, -7.82315016 ], [ 113.32933807, -7.82292318 ], [ 113.32936859, -7.82278013 ], [ 113.32975006, -7.82285023 ], [ 113.32984924, -7.82252979 ], [ 113.33039093, -7.82266998 ], [ 113.33049774, -7.82238007 ], [ 113.33058167, -7.82234383 ], [ 113.33126068, -7.82075167 ], [ 113.33113098, -7.82048988 ], [ 113.33098602, -7.82001209 ], [ 113.33078766, -7.8197298 ], [ 113.33055878, -7.8194499 ], [ 113.33049011, -7.81931019 ], [ 113.330513, -7.81905985 ], [ 113.33054352, -7.81887007 ], [ 113.33049774, -7.8187499 ], [ 113.33023071, -7.81864977 ], [ 113.3298111, -7.81817007 ], [ 113.32942963, -7.81791019 ], [ 113.32924652, -7.81783009 ], [ 113.32907104, -7.81778002 ], [ 113.32888794, -7.81768847 ], [ 113.32872009, -7.81759357 ], [ 113.32842255, -7.81738997 ], [ 113.32830048, -7.81724024 ], [ 113.32823181, -7.8171401 ], [ 113.32807159, -7.81711006 ], [ 113.32787323, -7.81705999 ], [ 113.3274231, -7.81676006 ], [ 113.32720947, -7.8167367 ], [ 113.32688141, -7.81669998 ], [ 113.32672119, -7.81667852 ], [ 113.32653046, -7.81662989 ], [ 113.32640076, -7.81653023 ], [ 113.32628632, -7.81638002 ], [ 113.32605743, -7.81630993 ], [ 113.32594299, -7.8162775 ], [ 113.32585144, -7.81619501 ], [ 113.32565308, -7.81607771 ], [ 113.32548523, -7.81603718 ], [ 113.32539368, -7.81597757 ], [ 113.32529449, -7.81591797 ], [ 113.32512665, -7.81581306 ], [ 113.3249054, -7.81570339 ], [ 113.32481384, -7.81565762 ], [ 113.32473755, -7.81548262 ], [ 113.32457733, -7.8154006 ], [ 113.32454681, -7.81527615 ], [ 113.32444763, -7.81510592 ], [ 113.32424927, -7.81495047 ], [ 113.32409668, -7.81484509 ], [ 113.32398987, -7.8148365 ], [ 113.32392883, -7.81487799 ], [ 113.32381439, -7.81483269 ], [ 113.32373047, -7.8147316 ], [ 113.32369995, -7.81466246 ], [ 113.32366943, -7.8145566 ], [ 113.32360077, -7.81443262 ], [ 113.32352448, -7.81436825 ], [ 113.32345581, -7.81427002 ], [ 113.32359314, -7.81410122 ], [ 113.32443237, -7.81432772 ], [ 113.32449341, -7.81406498 ], [ 113.32460022, -7.81378078 ], [ 113.32485962, -7.81371641 ], [ 113.3249588, -7.81360006 ], [ 113.32517242, -7.81340981 ], [ 113.32530212, -7.81332541 ], [ 113.32546234, -7.81332445 ], [ 113.32553101, -7.81326103 ], [ 113.32557678, -7.81307173 ], [ 113.32566071, -7.81278753 ], [ 113.32581329, -7.81258726 ], [ 113.32587433, -7.81252384 ], [ 113.32569885, -7.81228304 ], [ 113.32556915, -7.81210518 ], [ 113.32556915, -7.81192684 ], [ 113.32571411, -7.81183052 ], [ 113.32592773, -7.81185293 ], [ 113.32592773, -7.81156015 ], [ 113.32594299, -7.8113699 ], [ 113.32621765, -7.80972004 ], [ 113.32624817, -7.80932999 ], [ 113.32621765, -7.80906487 ], [ 113.32620239, -7.80889988 ], [ 113.32617188, -7.80865002 ], [ 113.32610321, -7.8085041 ], [ 113.32627869, -7.80850983 ], [ 113.32662964, -7.80852985 ], [ 113.32702637, -7.80855989 ], [ 113.32745361, -7.80857992 ], [ 113.32797241, -7.80865002 ], [ 113.32811737, -7.80867004 ], [ 113.32855225, -7.80870008 ], [ 113.32875061, -7.80872011 ], [ 113.32885742, -7.80874014 ], [ 113.32922363, -7.80878019 ], [ 113.32951355, -7.80880022 ], [ 113.32969666, -7.80881119 ], [ 113.33138275, -7.80890989 ], [ 113.33164978, -7.80890989 ], [ 113.33227539, -7.80890989 ], [ 113.3323822, -7.80890989 ], [ 113.33338928, -7.80889988 ], [ 113.33461761, -7.80862999 ], [ 113.3347168, -7.80783987 ], [ 113.33470917, -7.8076601 ], [ 113.33453369, -7.80742979 ], [ 113.33442688, -7.80723 ], [ 113.3344574, -7.80653 ], [ 113.33441925, -7.80628014 ], [ 113.33432007, -7.80604982 ], [ 113.33413696, -7.80585003 ], [ 113.33396912, -7.80561018 ], [ 113.33379364, -7.80530977 ], [ 113.33361053, -7.80501986 ], [ 113.33352661, -7.80489016 ], [ 113.33351898, -7.8046999 ], [ 113.33345795, -7.80454016 ], [ 113.3334198, -7.80443001 ], [ 113.33361053, -7.80414009 ], [ 113.3336792, -7.80357981 ], [ 113.33371735, -7.80338001 ], [ 113.33377075, -7.80319977 ], [ 113.33377075, -7.80283022 ], [ 113.3343277, -7.80282021 ], [ 113.3350296, -7.80284977 ], [ 113.33595276, -7.80284977 ], [ 113.33683014, -7.80299997 ], [ 113.33785248, -7.8032198 ], [ 113.33882141, -7.80335951 ], [ 113.33946991, -7.80351067 ], [ 113.33995819, -7.80362988 ], [ 113.34040833, -7.80373812 ], [ 113.34117126, -7.80391979 ], [ 113.34143066, -7.80398226 ], [ 113.34159088, -7.80401993 ], [ 113.3422699, -7.80424023 ], [ 113.34281158, -7.80438137 ], [ 113.34307098, -7.80445004 ], [ 113.34366608, -7.80467939 ], [ 113.3438797, -7.80475998 ], [ 113.34533691, -7.80530548 ], [ 113.34602356, -7.80556011 ], [ 113.34619141, -7.80571985 ], [ 113.34739685, -7.80681992 ], [ 113.34832764, -7.80727005 ], [ 113.34866333, -7.80706978 ], [ 113.34879303, -7.80698013 ], [ 113.34886169, -7.80686998 ], [ 113.34884644, -7.80656004 ], [ 113.34873962, -7.80622005 ], [ 113.34868622, -7.80604982 ], [ 113.34874725, -7.80580997 ], [ 113.34877014, -7.80573606 ], [ 113.34880066, -7.80564022 ], [ 113.34879303, -7.80548 ], [ 113.34858704, -7.8052001 ], [ 113.3484726, -7.80500984 ], [ 113.3484726, -7.80491018 ], [ 113.34860229, -7.80461979 ], [ 113.34867859, -7.80446005 ], [ 113.34877777, -7.80425978 ], [ 113.34880066, -7.80407 ], [ 113.34883881, -7.80363989 ], [ 113.34877014, -7.80289984 ], [ 113.34870148, -7.80263996 ], [ 113.34866333, -7.80250978 ], [ 113.34854889, -7.80222988 ], [ 113.34854889, -7.80187988 ], [ 113.34860992, -7.80148983 ], [ 113.34861755, -7.80140018 ], [ 113.34850311, -7.80121994 ], [ 113.3483963, -7.80107021 ], [ 113.34841156, -7.80089998 ], [ 113.34838867, -7.80079985 ], [ 113.34832764, -7.80065012 ], [ 113.34838867, -7.80041981 ], [ 113.34838104, -7.80034018 ], [ 113.34866333, -7.80039263 ], [ 113.34874725, -7.80040836 ], [ 113.34934235, -7.80040979 ], [ 113.34968567, -7.80040979 ], [ 113.3500824, -7.80040979 ], [ 113.35067749, -7.8004179 ], [ 113.35085297, -7.80041981 ], [ 113.35176086, -7.80045414 ], [ 113.35218811, -7.80046988 ], [ 113.35251617, -7.80049467 ], [ 113.35266876, -7.80050611 ], [ 113.35298157, -7.80052996 ], [ 113.35310364, -7.80053282 ], [ 113.35394287, -7.80054998 ], [ 113.35521698, -7.80060005 ], [ 113.35617065, -7.80060005 ], [ 113.35627747, -7.80059004 ], [ 113.35688782, -7.80052996 ], [ 113.35710144, -7.80031013 ], [ 113.3572464, -7.79988003 ], [ 113.35727692, -7.79965019 ], [ 113.35732269, -7.79921007 ], [ 113.3574295, -7.79843998 ], [ 113.35748291, -7.79773998 ], [ 113.35752869, -7.79712009 ], [ 113.35755157, -7.79693699 ], [ 113.35765076, -7.79615021 ], [ 113.35753632, -7.79583979 ], [ 113.35771179, -7.79539013 ], [ 113.35788727, -7.7948699 ], [ 113.35813904, -7.79441357 ], [ 113.35822296, -7.79426003 ], [ 113.35852051, -7.79389 ], [ 113.35899353, -7.79354525 ], [ 113.35980225, -7.79296017 ], [ 113.36051941, -7.79269981 ], [ 113.36112976, -7.79253006 ], [ 113.36168671, -7.79249334 ], [ 113.36248779, -7.79243994 ], [ 113.36273193, -7.79234982 ], [ 113.36286163, -7.79231024 ], [ 113.36315918, -7.79231024 ], [ 113.36327362, -7.79231024 ], [ 113.36341858, -7.79249001 ], [ 113.36354065, -7.79262018 ], [ 113.36373138, -7.79269981 ], [ 113.36386871, -7.79277992 ], [ 113.36399078, -7.7929101 ], [ 113.36422729, -7.7933898 ], [ 113.36431885, -7.79362011 ], [ 113.36434174, -7.79385996 ], [ 113.36425018, -7.79417992 ], [ 113.36412811, -7.79443979 ], [ 113.36412048, -7.79460001 ], [ 113.364151, -7.79468012 ], [ 113.36430359, -7.79476976 ], [ 113.3645401, -7.79480982 ], [ 113.3647995, -7.79481983 ], [ 113.36492157, -7.79485989 ], [ 113.36504364, -7.79500008 ], [ 113.36515045, -7.79542017 ], [ 113.36515808, -7.79551077 ], [ 113.36515808, -7.79560995 ], [ 113.36496735, -7.79606009 ], [ 113.36490631, -7.79621983 ], [ 113.36492157, -7.79643011 ], [ 113.36510468, -7.79680967 ], [ 113.36535645, -7.79733992 ], [ 113.36547852, -7.79764652 ], [ 113.3655014, -7.79771996 ], [ 113.36560059, -7.79796982 ], [ 113.3657608, -7.79852009 ], [ 113.36582947, -7.79864407 ], [ 113.3658905, -7.79874992 ], [ 113.36607361, -7.79890013 ], [ 113.36631012, -7.79909992 ], [ 113.36660767, -7.79930019 ], [ 113.36685944, -7.79933977 ], [ 113.36717987, -7.79926014 ], [ 113.36743164, -7.79916 ], [ 113.3675766, -7.79909992 ], [ 113.36778259, -7.7990346 ], [ 113.36785889, -7.7990098 ], [ 113.3682785, -7.79904985 ], [ 113.36844635, -7.79909992 ], [ 113.36862183, -7.79930019 ], [ 113.36871338, -7.79938984 ], [ 113.36885071, -7.79936981 ], [ 113.36907959, -7.79939985 ], [ 113.36921692, -7.79942989 ], [ 113.36949921, -7.79913998 ], [ 113.36956787, -7.79906988 ], [ 113.36971283, -7.79910994 ], [ 113.36984253, -7.79921007 ], [ 113.36991119, -7.79944897 ], [ 113.36994171, -7.79976988 ], [ 113.36988831, -7.80003023 ], [ 113.36981201, -7.80026007 ], [ 113.36981201, -7.80044985 ], [ 113.36988831, -7.80069017 ], [ 113.37024689, -7.80102015 ], [ 113.3706131, -7.80140018 ], [ 113.37085724, -7.80160999 ], [ 113.37109375, -7.80193996 ], [ 113.37113953, -7.80208015 ], [ 113.37110901, -7.80222988 ], [ 113.3710022, -7.80255985 ], [ 113.37106323, -7.80267 ], [ 113.37120819, -7.80278015 ], [ 113.37127686, -7.80288982 ], [ 113.37126923, -7.80297995 ], [ 113.37117767, -7.80308008 ], [ 113.37107086, -7.80324984 ], [ 113.37107086, -7.80339003 ], [ 113.37110138, -7.80385017 ], [ 113.37077332, -7.80467987 ], [ 113.37052917, -7.80533981 ], [ 113.37045288, -7.80568981 ], [ 113.3704071, -7.80607986 ], [ 113.37039185, -7.80626392 ], [ 113.37037659, -7.80638981 ], [ 113.3702774, -7.80650997 ], [ 113.37007904, -7.80666018 ], [ 113.36968231, -7.80694008 ], [ 113.36945343, -7.8073101 ], [ 113.36936951, -7.80755997 ], [ 113.3693161, -7.8076992 ], [ 113.36916351, -7.80812979 ], [ 113.36920166, -7.80826998 ], [ 113.36930084, -7.8083601 ], [ 113.36962128, -7.80857992 ], [ 113.36966705, -7.80873013 ], [ 113.36962891, -7.80886984 ], [ 113.36952209, -7.80895996 ], [ 113.36914825, -7.80922985 ], [ 113.36895752, -7.8094902 ], [ 113.36897278, -7.80963993 ], [ 113.36904907, -7.8098402 ], [ 113.36904907, -7.80997992 ], [ 113.36898041, -7.81011009 ], [ 113.36889648, -7.8103199 ], [ 113.36885834, -7.81056023 ], [ 113.36891174, -7.81088018 ], [ 113.36898041, -7.8112998 ], [ 113.36891174, -7.81141996 ], [ 113.36868286, -7.81165981 ], [ 113.36846924, -7.81177998 ], [ 113.3682785, -7.81191015 ], [ 113.36821747, -7.81203318 ], [ 113.36801147, -7.81261015 ], [ 113.36799622, -7.81281996 ], [ 113.36797333, -7.81313992 ], [ 113.36801147, -7.81349993 ], [ 113.36810303, -7.81362009 ], [ 113.36824036, -7.81365013 ], [ 113.36842346, -7.81372976 ], [ 113.36849213, -7.81391001 ], [ 113.36852264, -7.81411982 ], [ 113.36846924, -7.8143301 ], [ 113.36824036, -7.81496 ], [ 113.3678894, -7.81551981 ], [ 113.36753845, -7.81601 ], [ 113.36756134, -7.81618977 ], [ 113.36763, -7.81642008 ], [ 113.36766052, -7.81661987 ], [ 113.36759186, -7.81676006 ], [ 113.36753845, -7.81685019 ], [ 113.36740112, -7.81711006 ], [ 113.36743927, -7.81724977 ], [ 113.36753082, -7.81734991 ], [ 113.36789703, -7.81770992 ], [ 113.3678894, -7.81786013 ], [ 113.36781311, -7.81809998 ], [ 113.36753845, -7.81865978 ], [ 113.36743927, -7.81887007 ], [ 113.36730957, -7.81904984 ], [ 113.36726379, -7.81929016 ], [ 113.36727142, -7.81948996 ], [ 113.36734009, -7.81965017 ], [ 113.36753082, -7.82001019 ], [ 113.36759186, -7.82012987 ], [ 113.36760712, -7.82033014 ], [ 113.36755371, -7.82058001 ], [ 113.36750031, -7.82088995 ], [ 113.36753845, -7.82105017 ], [ 113.36799622, -7.82089996 ], [ 113.36897278, -7.82090998 ], [ 113.36972046, -7.82087994 ], [ 113.36995697, -7.82086992 ], [ 113.37021637, -7.82083988 ], [ 113.37049866, -7.82081985 ], [ 113.37068939, -7.82079363 ], [ 113.37078857, -7.8207798 ], [ 113.37084198, -7.82067823 ], [ 113.37097931, -7.82038021 ], [ 113.37100983, -7.82001019 ], [ 113.37103271, -7.81957006 ], [ 113.37126923, -7.81860018 ], [ 113.37159729, -7.81842995 ], [ 113.37203217, -7.81844997 ], [ 113.37271881, -7.81847 ], [ 113.37319946, -7.81857014 ], [ 113.37343597, -7.81878948 ], [ 113.37349701, -7.81885004 ], [ 113.37359619, -7.81921005 ], [ 113.37373352, -7.82023001 ], [ 113.37381744, -7.8208499 ], [ 113.37393951, -7.82150984 ], [ 113.37404633, -7.82162952 ], [ 113.37483978, -7.82250023 ], [ 113.375, -7.82240009 ], [ 113.37521362, -7.82254982 ], [ 113.37570953, -7.82268 ], [ 113.37640381, -7.82290983 ], [ 113.37662506, -7.82296562 ], [ 113.37696838, -7.82305002 ], [ 113.37773895, -7.82320023 ], [ 113.37809753, -7.82327223 ], [ 113.37828064, -7.8233099 ], [ 113.37892914, -7.82338667 ], [ 113.37921143, -7.82342005 ], [ 113.37966919, -7.82344007 ], [ 113.38037872, -7.82343006 ], [ 113.38092041, -7.82340002 ], [ 113.38114929, -7.82325983 ], [ 113.38124847, -7.8231101 ], [ 113.38140869, -7.8228302 ], [ 113.38157654, -7.82250023 ], [ 113.38169098, -7.82253981 ], [ 113.38175201, -7.82258987 ], [ 113.38186646, -7.82273006 ], [ 113.38191986, -7.82279015 ], [ 113.38204956, -7.82285023 ], [ 113.38215637, -7.82284021 ], [ 113.38234711, -7.82242012 ], [ 113.38243103, -7.82219982 ], [ 113.38252258, -7.82202005 ], [ 113.38252258, -7.82186985 ], [ 113.38243866, -7.82167006 ], [ 113.38243866, -7.8214798 ], [ 113.38247681, -7.82136011 ], [ 113.3825531, -7.82130003 ], [ 113.38262939, -7.82123995 ], [ 113.38310242, -7.82110977 ], [ 113.3832016, -7.82107019 ], [ 113.38339996, -7.82062006 ], [ 113.38343048, -7.82053995 ], [ 113.38353729, -7.82039022 ], [ 113.38374329, -7.82015991 ], [ 113.38382721, -7.82004976 ], [ 113.38404846, -7.81977987 ], [ 113.38414001, -7.81962013 ], [ 113.38423157, -7.81892014 ], [ 113.38433838, -7.81850004 ], [ 113.38465118, -7.8183198 ], [ 113.38500214, -7.81814003 ], [ 113.38551331, -7.81800985 ], [ 113.38591766, -7.81795979 ], [ 113.38635254, -7.81795979 ], [ 113.38653564, -7.81797075 ], [ 113.38680267, -7.81798553 ], [ 113.38687897, -7.81798983 ], [ 113.38722992, -7.81807995 ], [ 113.38787079, -7.81788015 ], [ 113.38803101, -7.81782007 ], [ 113.38831329, -7.8176899 ], [ 113.3890686, -7.81746006 ], [ 113.3896637, -7.81730318 ], [ 113.39092255, -7.81697989 ], [ 113.39096832, -7.8171401 ], [ 113.39100647, -7.81728983 ], [ 113.39111328, -7.81737995 ], [ 113.39131927, -7.81747007 ], [ 113.39147949, -7.81765985 ], [ 113.3915863, -7.81786013 ], [ 113.39161682, -7.81800985 ], [ 113.39148712, -7.81823015 ], [ 113.39144897, -7.81829977 ], [ 113.39150238, -7.81837988 ], [ 113.39176941, -7.81842995 ], [ 113.39190674, -7.81842995 ], [ 113.39203644, -7.81852007 ], [ 113.39217377, -7.81884003 ], [ 113.39224243, -7.81901979 ], [ 113.39235687, -7.81912994 ], [ 113.39243317, -7.81908989 ], [ 113.39305115, -7.81917 ], [ 113.39320374, -7.81922007 ], [ 113.39350128, -7.81953001 ], [ 113.39372253, -7.81975985 ], [ 113.39385986, -7.81978989 ], [ 113.39405823, -7.81961012 ], [ 113.39424133, -7.81942987 ], [ 113.39437103, -7.81936979 ], [ 113.39450836, -7.81936979 ], [ 113.39459991, -7.81942987 ], [ 113.39459229, -7.81954002 ], [ 113.39450073, -7.81974983 ], [ 113.39450073, -7.81985998 ], [ 113.39454651, -7.81994009 ], [ 113.39478302, -7.82000017 ], [ 113.39478302, -7.82026005 ], [ 113.39478302, -7.8203702 ], [ 113.39498138, -7.82038021 ], [ 113.39508057, -7.8203702 ], [ 113.39518738, -7.82045984 ], [ 113.3952713, -7.82067013 ], [ 113.3953476, -7.82075977 ], [ 113.39575195, -7.82075024 ], [ 113.39586639, -7.8207798 ], [ 113.39601135, -7.82094002 ], [ 113.39607239, -7.82110977 ], [ 113.39608002, -7.82153988 ], [ 113.39604187, -7.82172012 ], [ 113.39595032, -7.82185984 ], [ 113.39569092, -7.82198 ], [ 113.3955307, -7.82205009 ], [ 113.39544678, -7.82212019 ], [ 113.39541626, -7.8222599 ], [ 113.39546967, -7.82241011 ], [ 113.3956604, -7.82264996 ], [ 113.3959198, -7.8228302 ], [ 113.39592743, -7.82250023 ], [ 113.39592743, -7.82236004 ], [ 113.39600372, -7.8222599 ], [ 113.39617157, -7.82222986 ], [ 113.3963089, -7.82224989 ], [ 113.3964386, -7.82235003 ], [ 113.39653015, -7.8224802 ], [ 113.39655304, -7.82261992 ], [ 113.39611053, -7.82298994 ], [ 113.39585114, -7.8233099 ], [ 113.3957901, -7.82343006 ], [ 113.39604187, -7.82367992 ], [ 113.39624786, -7.82391024 ], [ 113.39640808, -7.82415009 ], [ 113.39646912, -7.82420015 ], [ 113.39659882, -7.82411003 ], [ 113.39676666, -7.82394981 ], [ 113.39692688, -7.82389021 ], [ 113.39714813, -7.8238802 ], [ 113.39724731, -7.82391977 ], [ 113.39730835, -7.82405996 ], [ 113.39730072, -7.82421017 ], [ 113.39685059, -7.82465982 ], [ 113.3967514, -7.82479 ], [ 113.3967514, -7.82487011 ], [ 113.39685822, -7.82496023 ], [ 113.39707947, -7.82493019 ], [ 113.39718628, -7.82492018 ], [ 113.39777374, -7.82530022 ], [ 113.39785767, -7.82538986 ], [ 113.39790344, -7.82549 ], [ 113.39756775, -7.82557011 ], [ 113.3974762, -7.82560015 ], [ 113.39746857, -7.82588005 ], [ 113.39766693, -7.82656002 ], [ 113.39771271, -7.82672977 ], [ 113.39766693, -7.82690001 ], [ 113.39753723, -7.82705021 ], [ 113.39743042, -7.8271699 ], [ 113.3973999, -7.82725 ], [ 113.39759064, -7.82727003 ], [ 113.39778137, -7.82718992 ], [ 113.39787292, -7.82718992 ], [ 113.39797974, -7.82740021 ], [ 113.39806366, -7.82755995 ], [ 113.39817047, -7.8276701 ], [ 113.39836121, -7.82762003 ], [ 113.39845276, -7.82742977 ], [ 113.39846039, -7.82707977 ], [ 113.39846802, -7.82688999 ], [ 113.39852142, -7.82676983 ], [ 113.39884949, -7.82701015 ], [ 113.39894104, -7.82707024 ], [ 113.39919281, -7.82687998 ], [ 113.39927673, -7.82680988 ], [ 113.39935303, -7.82680988 ], [ 113.39949799, -7.82725 ], [ 113.39954376, -7.82738018 ], [ 113.39974213, -7.82742023 ], [ 113.39993286, -7.82751989 ], [ 113.40010071, -7.82777977 ], [ 113.4002533, -7.82805014 ], [ 113.40039825, -7.82819986 ], [ 113.40073395, -7.82831907 ], [ 113.40081787, -7.82835007 ], [ 113.40097046, -7.82842016 ], [ 113.40107727, -7.82852983 ], [ 113.40112305, -7.82888985 ], [ 113.40110016, -7.82905006 ], [ 113.40093994, -7.82929993 ], [ 113.40049744, -7.8295598 ], [ 113.40033722, -7.82964993 ], [ 113.40019989, -7.82981014 ], [ 113.40016174, -7.82991982 ], [ 113.40022278, -7.83006001 ], [ 113.40055084, -7.83050013 ], [ 113.40059662, -7.83062983 ], [ 113.40058899, -7.83071995 ], [ 113.40052795, -7.83077002 ], [ 113.40016174, -7.83058023 ], [ 113.40000916, -7.83049011 ], [ 113.39993286, -7.83049011 ], [ 113.39984894, -7.83058977 ], [ 113.39981842, -7.83072996 ], [ 113.39988708, -7.83100986 ], [ 113.4000473, -7.83123016 ], [ 113.40029144, -7.83140993 ], [ 113.40042877, -7.83151007 ], [ 113.40046692, -7.83177996 ], [ 113.40042877, -7.83203983 ], [ 113.400383, -7.83213997 ], [ 113.40020752, -7.83211994 ], [ 113.40000153, -7.83205986 ], [ 113.3999176, -7.83206987 ], [ 113.39987183, -7.83220005 ], [ 113.39987946, -7.83234978 ], [ 113.40007019, -7.83255005 ], [ 113.400177, -7.83267021 ], [ 113.40020752, -7.83276987 ], [ 113.40009308, -7.83295012 ], [ 113.40000153, -7.83304977 ], [ 113.39993286, -7.83403015 ], [ 113.39974976, -7.83469009 ], [ 113.39971161, -7.8348999 ], [ 113.3997879, -7.83515882 ], [ 113.39985657, -7.83538008 ], [ 113.39988708, -7.83561993 ], [ 113.39981079, -7.83615017 ], [ 113.39978027, -7.83641005 ], [ 113.40006256, -7.83689022 ], [ 113.40013123, -7.83701992 ], [ 113.39994812, -7.83735991 ], [ 113.39988708, -7.83747005 ], [ 113.40003204, -7.83761978 ], [ 113.40009308, -7.83769989 ], [ 113.40003967, -7.83781004 ], [ 113.39990234, -7.83795023 ], [ 113.39971161, -7.83803988 ], [ 113.39904022, -7.83834982 ], [ 113.39877319, -7.83846998 ], [ 113.39871979, -7.83860016 ], [ 113.39884186, -7.83887005 ], [ 113.39888, -7.83911991 ], [ 113.39875793, -7.83997011 ], [ 113.39868927, -7.84034014 ], [ 113.39861298, -7.84048986 ], [ 113.39852142, -7.84054995 ], [ 113.39840698, -7.84054995 ], [ 113.3981781, -7.84034014 ], [ 113.39810181, -7.84028006 ], [ 113.39797974, -7.84030008 ], [ 113.39775085, -7.84047985 ], [ 113.39762115, -7.84065008 ], [ 113.39756775, -7.84083986 ], [ 113.39756775, -7.84101009 ], [ 113.39781189, -7.84152985 ], [ 113.39784241, -7.84168005 ], [ 113.39766693, -7.84208012 ], [ 113.39756775, -7.84216022 ], [ 113.39668274, -7.8426199 ], [ 113.39621735, -7.84266996 ], [ 113.39596558, -7.84266996 ], [ 113.39556122, -7.84266996 ], [ 113.39491272, -7.84264994 ], [ 113.39453125, -7.84256983 ], [ 113.39420319, -7.84250021 ], [ 113.39344025, -7.84230995 ], [ 113.39334869, -7.84227991 ], [ 113.39302063, -7.84216976 ], [ 113.39292145, -7.8421402 ], [ 113.39247894, -7.84194994 ], [ 113.39218903, -7.84183979 ], [ 113.39157867, -7.8414402 ], [ 113.3914566, -7.84134007 ], [ 113.39128876, -7.84117079 ], [ 113.39103699, -7.84091997 ], [ 113.39054108, -7.84044981 ], [ 113.39047241, -7.84038067 ], [ 113.39041901, -7.84033012 ], [ 113.38989258, -7.83979988 ], [ 113.38974762, -7.83957005 ], [ 113.38912201, -7.83887005 ], [ 113.38900757, -7.83862019 ], [ 113.38874054, -7.83822012 ], [ 113.38858032, -7.83795977 ], [ 113.38841248, -7.83767986 ], [ 113.38829803, -7.83743 ], [ 113.38818359, -7.83709002 ], [ 113.3881073, -7.83694983 ], [ 113.38807678, -7.83687019 ], [ 113.38794708, -7.83658981 ], [ 113.38790894, -7.83644009 ], [ 113.38786316, -7.83601999 ], [ 113.38780975, -7.83544016 ], [ 113.38780212, -7.83517981 ], [ 113.38777161, -7.83463001 ], [ 113.38768768, -7.83459997 ], [ 113.38746643, -7.83451939 ], [ 113.38739014, -7.83450985 ], [ 113.38710022, -7.83447981 ], [ 113.38697052, -7.83447981 ], [ 113.38657379, -7.83452988 ], [ 113.38641357, -7.8345499 ], [ 113.38626099, -7.83459997 ], [ 113.38607788, -7.83459997 ], [ 113.3859787, -7.83466005 ], [ 113.3857193, -7.83461809 ], [ 113.38548279, -7.83457994 ], [ 113.38516998, -7.83453989 ], [ 113.3852005, -7.83410978 ], [ 113.38263702, -7.83386993 ], [ 113.3821106, -7.8330102 ], [ 113.38192749, -7.83304024 ], [ 113.38174438, -7.83306646 ], [ 113.38143921, -7.83310986 ], [ 113.3811264, -7.83303022 ], [ 113.38092804, -7.83296013 ], [ 113.38052368, -7.83291006 ], [ 113.38001251, -7.83287001 ], [ 113.37930298, -7.83282995 ], [ 113.37859344, -7.83276987 ], [ 113.37814331, -7.83267879 ], [ 113.37805176, -7.8326602 ], [ 113.37795258, -7.83265018 ], [ 113.3776474, -7.83252001 ], [ 113.37741852, -7.83233976 ], [ 113.3771286, -7.83213997 ], [ 113.37680054, -7.83207989 ], [ 113.37658691, -7.83207989 ], [ 113.37628174, -7.83228016 ], [ 113.37613678, -7.83248997 ], [ 113.37612152, -7.83271456 ], [ 113.37612152, -7.8327899 ], [ 113.37628174, -7.83309984 ], [ 113.37645721, -7.83325005 ], [ 113.37651062, -7.83345985 ], [ 113.37644958, -7.83369017 ], [ 113.37619019, -7.83386993 ], [ 113.3760376, -7.83391047 ], [ 113.37581635, -7.83397007 ], [ 113.37535095, -7.83397007 ], [ 113.375, -7.83394003 ], [ 113.3747406, -7.83398008 ], [ 113.3744812, -7.83410978 ], [ 113.37438965, -7.83423996 ], [ 113.3743515, -7.8344698 ], [ 113.37438965, -7.83472013 ], [ 113.37461853, -7.83517981 ], [ 113.37483978, -7.8355999 ], [ 113.375, -7.83584976 ], [ 113.37526703, -7.83643007 ], [ 113.37538147, -7.83695984 ], [ 113.37541962, -7.83733606 ], [ 113.37542725, -7.83747005 ], [ 113.37542725, -7.83783007 ], [ 113.37535095, -7.83809996 ], [ 113.37523651, -7.83831978 ], [ 113.37510681, -7.83849001 ], [ 113.37512207, -7.83865023 ], [ 113.37522125, -7.83901978 ], [ 113.37545776, -7.83931017 ], [ 113.37586212, -7.83968019 ], [ 113.37664795, -7.84018993 ], [ 113.37722778, -7.8405385 ], [ 113.37734985, -7.84061003 ], [ 113.37760925, -7.8407979 ], [ 113.37783813, -7.84097004 ], [ 113.3780365, -7.84111023 ], [ 113.37847137, -7.84139013 ], [ 113.37858582, -7.84143639 ], [ 113.37872314, -7.84148979 ], [ 113.37879944, -7.84151983 ], [ 113.37906647, -7.84159994 ], [ 113.37934875, -7.84165001 ], [ 113.37998962, -7.84173012 ], [ 113.38072968, -7.84188986 ], [ 113.38083649, -7.8419199 ], [ 113.38143921, -7.84209013 ], [ 113.38183594, -7.84219456 ], [ 113.38215637, -7.84227991 ], [ 113.38276672, -7.84250021 ], [ 113.38342285, -7.84279013 ], [ 113.38361359, -7.84286022 ], [ 113.38406372, -7.84303999 ], [ 113.38452911, -7.84327984 ], [ 113.38476563, -7.84338617 ], [ 113.38522339, -7.84358978 ], [ 113.38562775, -7.84394979 ], [ 113.38581848, -7.84427023 ], [ 113.38607025, -7.84471989 ], [ 113.38600922, -7.84519005 ], [ 113.38587189, -7.84553003 ], [ 113.38581848, -7.8457098 ], [ 113.38591003, -7.84597015 ], [ 113.38600922, -7.84646988 ], [ 113.38606262, -7.84671021 ], [ 113.38620758, -7.84717989 ], [ 113.38627625, -7.84757996 ], [ 113.38643646, -7.84789991 ], [ 113.38652802, -7.84808016 ], [ 113.38683319, -7.84859991 ], [ 113.38691711, -7.84900236 ], [ 113.38697815, -7.84931993 ], [ 113.38726807, -7.84953022 ], [ 113.38735962, -7.84962988 ], [ 113.38745117, -7.84975004 ], [ 113.38764954, -7.84982014 ], [ 113.38783264, -7.84997988 ], [ 113.38800812, -7.8503499 ], [ 113.38818359, -7.85071993 ], [ 113.38825226, -7.85101986 ], [ 113.38835144, -7.85113001 ], [ 113.38852692, -7.85124016 ], [ 113.38878632, -7.85148001 ], [ 113.38909912, -7.85183001 ], [ 113.38934326, -7.8520999 ], [ 113.3894577, -7.85219002 ], [ 113.38980103, -7.85244989 ], [ 113.39003754, -7.85264015 ], [ 113.39015198, -7.85280991 ], [ 113.39044952, -7.85326004 ], [ 113.39079285, -7.85370016 ], [ 113.39099121, -7.85402012 ], [ 113.39121246, -7.8543601 ], [ 113.3914032, -7.85449982 ], [ 113.39186096, -7.85459995 ], [ 113.39198303, -7.85467005 ], [ 113.39208984, -7.85477018 ], [ 113.39243317, -7.8552599 ], [ 113.39279175, -7.85578012 ], [ 113.39295197, -7.85606003 ], [ 113.39305115, -7.85635996 ], [ 113.39318085, -7.85671997 ], [ 113.39324188, -7.85687017 ], [ 113.39334869, -7.85707998 ], [ 113.39357758, -7.85721016 ], [ 113.39373779, -7.8573699 ], [ 113.39382935, -7.85753012 ], [ 113.39391327, -7.85769987 ], [ 113.39408112, -7.85804987 ], [ 113.39424133, -7.85840988 ], [ 113.39432526, -7.85857391 ], [ 113.39440155, -7.85870981 ], [ 113.39453125, -7.8589201 ], [ 113.39459229, -7.85901022 ], [ 113.39467621, -7.85932016 ], [ 113.39483643, -7.85988998 ], [ 113.3948822, -7.86019993 ], [ 113.39486694, -7.86054993 ], [ 113.39479828, -7.8608799 ], [ 113.3947525, -7.86123991 ], [ 113.39472198, -7.86155987 ], [ 113.3947525, -7.86188984 ], [ 113.39481354, -7.86217022 ], [ 113.39485168, -7.8625102 ], [ 113.39479065, -7.86275005 ], [ 113.39466858, -7.86311007 ], [ 113.39450073, -7.86341 ], [ 113.39445496, -7.86347961 ], [ 113.39427948, -7.86373997 ], [ 113.39404297, -7.86397982 ], [ 113.39376831, -7.86424017 ], [ 113.39337158, -7.86452007 ], [ 113.39295197, -7.86483002 ], [ 113.39266968, -7.86509991 ], [ 113.39244843, -7.86534977 ], [ 113.39228058, -7.86566019 ], [ 113.39212799, -7.86594009 ], [ 113.39196014, -7.86631012 ], [ 113.39179993, -7.8666501 ], [ 113.39164734, -7.86693001 ], [ 113.3914566, -7.86724997 ], [ 113.39125824, -7.86745977 ], [ 113.39099884, -7.86775017 ], [ 113.39058685, -7.86821985 ], [ 113.39025879, -7.86865997 ], [ 113.38986206, -7.86915016 ], [ 113.38954163, -7.86949015 ], [ 113.38931274, -7.86960983 ], [ 113.38919067, -7.8696599 ], [ 113.38907623, -7.86968994 ], [ 113.38898468, -7.86971521 ], [ 113.38883209, -7.86976004 ], [ 113.38777161, -7.87003994 ], [ 113.38764954, -7.87006998 ], [ 113.38736725, -7.87010002 ], [ 113.3870163, -7.87014008 ], [ 113.3868866, -7.87015009 ], [ 113.38674164, -7.87017012 ], [ 113.38651276, -7.87020016 ], [ 113.38587189, -7.8702302 ], [ 113.38519287, -7.87025976 ], [ 113.38494873, -7.87025976 ], [ 113.38439178, -7.87024021 ], [ 113.38423157, -7.8702302 ], [ 113.38411713, -7.87022018 ], [ 113.3841629, -7.86962986 ], [ 113.38414001, -7.86948013 ], [ 113.38404846, -7.86885977 ], [ 113.38394928, -7.86868 ], [ 113.38381195, -7.86861992 ], [ 113.3835907, -7.86859989 ], [ 113.38332367, -7.86855984 ], [ 113.38320923, -7.86844015 ], [ 113.38321686, -7.86834002 ], [ 113.38330841, -7.86809015 ], [ 113.38352203, -7.86748981 ], [ 113.38346863, -7.86731005 ], [ 113.38317871, -7.86682987 ], [ 113.38230133, -7.86682987 ], [ 113.38162231, -7.86690998 ], [ 113.38114166, -7.86699009 ], [ 113.38050842, -7.86708021 ], [ 113.37985229, -7.86710978 ], [ 113.37969208, -7.86711979 ], [ 113.37949371, -7.86713982 ], [ 113.37931061, -7.8671298 ], [ 113.37898254, -7.86710978 ], [ 113.37850189, -7.86714983 ], [ 113.37779999, -7.86711979 ], [ 113.37747955, -7.86709023 ], [ 113.37732697, -7.86705017 ], [ 113.37706757, -7.86689091 ], [ 113.37698364, -7.86683989 ], [ 113.37651825, -7.86655998 ], [ 113.3760376, -7.86620998 ], [ 113.37579346, -7.86606979 ], [ 113.37555695, -7.86601019 ], [ 113.37518311, -7.86590862 ], [ 113.375, -7.86585999 ], [ 113.37480927, -7.8657999 ], [ 113.37443542, -7.86574602 ], [ 113.37384033, -7.86566019 ], [ 113.37277985, -7.86562014 ], [ 113.37259674, -7.86563063 ], [ 113.37172699, -7.86568022 ], [ 113.3707962, -7.86569977 ], [ 113.36998749, -7.86572981 ], [ 113.36804962, -7.86591005 ], [ 113.36743927, -7.86608982 ], [ 113.36699677, -7.86629009 ], [ 113.36695099, -7.86662006 ], [ 113.36695862, -7.86690998 ], [ 113.36695862, -7.86721992 ], [ 113.36701202, -7.86761999 ], [ 113.36701202, -7.86772013 ], [ 113.36702728, -7.86780024 ] ] ] ] } }
]
}
