{
"type": "FeatureCollection",
"name": "Kecamatan Tongas",
"crs": { "type": "name", "properties": { "name": "urn:ogc:def:crs:OGC:1.3:CRS84" } },
"features": [
{ "type": "Feature", "properties": { "GID_0": "IDN", "NAME_0": "Indonesia", "GID_1": "IDN.11_1", "NAME_1": "Jawa Timur", "NL_NAME_1": null, "GID_2": "IDN.11.30_1", "NAME_2": "Probolinggo", "NL_NAME_2": null, "GID_3": "IDN.11.30.23_1", "NAME_3": "Tongas", "VARNAME_3": null, "NL_NAME_3": null, "TYPE_3": "Kecamatan", "ENGTYPE_3": "Sub-district", "CC_3": "3513230", "HASC_3": null }, "geometry": { "type": "MultiPolygon", "coordinates": [ [ [ [ 113.04942322, -7.81003904 ], [ 113.04943085, -7.80956745 ], [ 113.04941559, -7.80894184 ], [ 113.04944611, -7.80835104 ], [ 113.04959106, -7.80806923 ], [ 113.04971313, -7.80789852 ], [ 113.04975891, -7.80783081 ], [ 113.05000305, -7.80745554 ], [ 113.05017853, -7.80718708 ], [ 113.05027771, -7.80697393 ], [ 113.05049133, -7.80661631 ], [ 113.0508194, -7.80622864 ], [ 113.05103302, -7.80617523 ], [ 113.05123901, -7.80606556 ], [ 113.05123901, -7.80591917 ], [ 113.05115509, -7.80583286 ], [ 113.05110168, -7.80578089 ], [ 113.05104828, -7.80566883 ], [ 113.05103302, -7.80547905 ], [ 113.05098724, -7.8047781 ], [ 113.05081177, -7.80453491 ], [ 113.0506897, -7.8044858 ], [ 113.0504837, -7.80453157 ], [ 113.05039978, -7.80457211 ], [ 113.05025482, -7.80463839 ], [ 113.04995728, -7.80475903 ], [ 113.04962158, -7.80478811 ], [ 113.04943085, -7.80471611 ], [ 113.04915619, -7.80447292 ], [ 113.04901886, -7.80427456 ], [ 113.0489502, -7.8040781 ], [ 113.0490036, -7.80400324 ], [ 113.04927826, -7.80370188 ], [ 113.04954529, -7.80341434 ], [ 113.04986572, -7.80292749 ], [ 113.05004883, -7.80266857 ], [ 113.05078125, -7.80182791 ], [ 113.05119324, -7.80100918 ], [ 113.05142975, -7.80052662 ], [ 113.0515213, -7.80045462 ], [ 113.05162811, -7.800354 ], [ 113.05175018, -7.80024242 ], [ 113.05173492, -7.80002117 ], [ 113.05167389, -7.79990196 ], [ 113.05149078, -7.79958248 ], [ 113.05147552, -7.79931784 ], [ 113.05155182, -7.79864168 ], [ 113.0515213, -7.79822636 ], [ 113.05156708, -7.79798222 ], [ 113.051651, -7.79791069 ], [ 113.05187988, -7.79769802 ], [ 113.05202484, -7.79755735 ], [ 113.05211639, -7.7974124 ], [ 113.05223846, -7.79708767 ], [ 113.0524292, -7.79670048 ], [ 113.05283356, -7.79607391 ], [ 113.05278015, -7.79598665 ], [ 113.05260468, -7.79586411 ], [ 113.05255127, -7.79578209 ], [ 113.05259705, -7.7955842 ], [ 113.05265045, -7.79523468 ], [ 113.05262756, -7.79509449 ], [ 113.0526886, -7.79491138 ], [ 113.05271149, -7.79474354 ], [ 113.05264282, -7.79462147 ], [ 113.05252838, -7.7945652 ], [ 113.05235291, -7.79445505 ], [ 113.05223846, -7.79427719 ], [ 113.05220795, -7.79413891 ], [ 113.05223083, -7.79388905 ], [ 113.05226898, -7.7936635 ], [ 113.05236816, -7.79344416 ], [ 113.05255127, -7.79327393 ], [ 113.05265808, -7.79305744 ], [ 113.0526886, -7.79275608 ], [ 113.05262756, -7.79248905 ], [ 113.0524826, -7.79195356 ], [ 113.05244446, -7.79163122 ], [ 113.05236053, -7.79145193 ], [ 113.05217743, -7.79126787 ], [ 113.05190277, -7.79104185 ], [ 113.05180359, -7.79085732 ], [ 113.05176544, -7.79062891 ], [ 113.05183411, -7.79040909 ], [ 113.05226135, -7.78927326 ], [ 113.05236053, -7.78905725 ], [ 113.05254364, -7.78867579 ], [ 113.05288696, -7.7879591 ], [ 113.05301666, -7.78738356 ], [ 113.0530777, -7.78690147 ], [ 113.05316162, -7.78660965 ], [ 113.05334473, -7.78636789 ], [ 113.05348969, -7.78621387 ], [ 113.05354309, -7.78602171 ], [ 113.05370331, -7.7852807 ], [ 113.05367279, -7.78509617 ], [ 113.05361938, -7.7848897 ], [ 113.05347443, -7.78436613 ], [ 113.0533905, -7.78334093 ], [ 113.05338287, -7.78319693 ], [ 113.05327606, -7.78301334 ], [ 113.05298615, -7.78252888 ], [ 113.05292511, -7.7823081 ], [ 113.05265808, -7.78067541 ], [ 113.05275726, -7.7802434 ], [ 113.05286407, -7.77967405 ], [ 113.05279541, -7.77945566 ], [ 113.05265808, -7.77924061 ], [ 113.05249023, -7.77911711 ], [ 113.05210114, -7.77891016 ], [ 113.05201721, -7.77874804 ], [ 113.051651, -7.77810669 ], [ 113.05146027, -7.77791929 ], [ 113.05130768, -7.77782154 ], [ 113.05101776, -7.7775712 ], [ 113.0508194, -7.77729034 ], [ 113.05016327, -7.77605057 ], [ 113.0501709, -7.77597904 ], [ 113.0502243, -7.77587318 ], [ 113.05060577, -7.77574158 ], [ 113.05066681, -7.77567673 ], [ 113.05065155, -7.77548981 ], [ 113.05058289, -7.77524281 ], [ 113.05049133, -7.77499056 ], [ 113.05050659, -7.77483749 ], [ 113.0506134, -7.77463722 ], [ 113.05066681, -7.77454424 ], [ 113.05083466, -7.77410841 ], [ 113.05104065, -7.77402544 ], [ 113.05125427, -7.77388573 ], [ 113.05130005, -7.77377367 ], [ 113.05130005, -7.77354479 ], [ 113.05130768, -7.7733674 ], [ 113.0513382, -7.77322006 ], [ 113.05139923, -7.7726202 ], [ 113.0513916, -7.77241373 ], [ 113.05140686, -7.7722168 ], [ 113.05158234, -7.77172613 ], [ 113.05171967, -7.77060318 ], [ 113.05182648, -7.77043819 ], [ 113.05194855, -7.77027988 ], [ 113.05222321, -7.7699585 ], [ 113.05240631, -7.76972914 ], [ 113.05260468, -7.76939249 ], [ 113.05258179, -7.76926136 ], [ 113.05250549, -7.76911974 ], [ 113.05245209, -7.76894569 ], [ 113.0524826, -7.76882553 ], [ 113.05260468, -7.76864004 ], [ 113.05274963, -7.76842022 ], [ 113.05313873, -7.76774168 ], [ 113.05308533, -7.76741457 ], [ 113.05316925, -7.76704741 ], [ 113.0532608, -7.76695681 ], [ 113.05342865, -7.76689959 ], [ 113.05366516, -7.76689243 ], [ 113.05395508, -7.76688623 ], [ 113.0541153, -7.76681519 ], [ 113.05421448, -7.76667881 ], [ 113.05427551, -7.76646757 ], [ 113.05434418, -7.76619864 ], [ 113.05439758, -7.76599169 ], [ 113.05453491, -7.76581907 ], [ 113.05545807, -7.76523256 ], [ 113.0559082, -7.76507139 ], [ 113.05623627, -7.7649579 ], [ 113.05634308, -7.76488018 ], [ 113.05643463, -7.76430702 ], [ 113.05667114, -7.76347208 ], [ 113.0567627, -7.76313877 ], [ 113.0567627, -7.76277494 ], [ 113.05682373, -7.76260805 ], [ 113.05691528, -7.76227999 ], [ 113.0569458, -7.7620616 ], [ 113.05693054, -7.76151133 ], [ 113.05693817, -7.76095438 ], [ 113.05696869, -7.76044464 ], [ 113.05702972, -7.75985861 ], [ 113.0570755, -7.75961447 ], [ 113.05708313, -7.75943279 ], [ 113.05701447, -7.75920677 ], [ 113.05691528, -7.75908232 ], [ 113.05661011, -7.75878525 ], [ 113.05654907, -7.75873613 ], [ 113.05625153, -7.75844145 ], [ 113.05603027, -7.75804138 ], [ 113.05587769, -7.75768852 ], [ 113.05583191, -7.75761652 ], [ 113.05557251, -7.75706339 ], [ 113.05541992, -7.75676775 ], [ 113.05537415, -7.7565856 ], [ 113.05536652, -7.75629282 ], [ 113.05542755, -7.75590658 ], [ 113.05552673, -7.7555728 ], [ 113.05595398, -7.75414419 ], [ 113.05595398, -7.75397921 ], [ 113.05596161, -7.75371075 ], [ 113.05595398, -7.75356054 ], [ 113.05594635, -7.75331402 ], [ 113.05595398, -7.75291777 ], [ 113.05588531, -7.75267506 ], [ 113.0557251, -7.75248194 ], [ 113.05536652, -7.75209999 ], [ 113.05518341, -7.75187874 ], [ 113.05511475, -7.7517004 ], [ 113.05512238, -7.75152826 ], [ 113.05525208, -7.75075054 ], [ 113.05532074, -7.75032043 ], [ 113.05528259, -7.75 ], [ 113.05526733, -7.74983931 ], [ 113.05524445, -7.74976206 ], [ 113.05517578, -7.74936056 ], [ 113.05510712, -7.74921703 ], [ 113.05490112, -7.74896812 ], [ 113.05482483, -7.74882746 ], [ 113.05467987, -7.74826813 ], [ 113.05471039, -7.74815178 ], [ 113.05483246, -7.74807024 ], [ 113.05498505, -7.74805403 ], [ 113.05522156, -7.74799681 ], [ 113.0552597, -7.74791241 ], [ 113.05534363, -7.74763155 ], [ 113.05536652, -7.74755526 ], [ 113.05558777, -7.747087 ], [ 113.05577087, -7.74686527 ], [ 113.05608368, -7.74664402 ], [ 113.05634308, -7.74646425 ], [ 113.05645752, -7.74628639 ], [ 113.0565033, -7.74592495 ], [ 113.05659485, -7.74542093 ], [ 113.05671692, -7.74529171 ], [ 113.05725861, -7.74504089 ], [ 113.05754852, -7.74499702 ], [ 113.05797577, -7.74492168 ], [ 113.05839539, -7.74467945 ], [ 113.05846405, -7.74455357 ], [ 113.05871582, -7.74395084 ], [ 113.0592041, -7.74299669 ], [ 113.05944824, -7.7426796 ], [ 113.05978394, -7.74231339 ], [ 113.05991364, -7.7420826 ], [ 113.06011963, -7.7418108 ], [ 113.06019592, -7.74178028 ], [ 113.06035614, -7.74181843 ], [ 113.06039429, -7.74189329 ], [ 113.06051636, -7.7420702 ], [ 113.06066895, -7.74217606 ], [ 113.06080627, -7.74219036 ], [ 113.06104279, -7.74215746 ], [ 113.06124878, -7.7420702 ], [ 113.06148529, -7.74183035 ], [ 113.06174469, -7.74148369 ], [ 113.06198883, -7.74142218 ], [ 113.06217957, -7.74132872 ], [ 113.06245422, -7.74108362 ], [ 113.06246948, -7.7409749 ], [ 113.06253052, -7.74086428 ], [ 113.06263733, -7.74079657 ], [ 113.06273651, -7.74080753 ], [ 113.06291962, -7.74084902 ], [ 113.06312561, -7.74082088 ], [ 113.0632019, -7.74076509 ], [ 113.06326294, -7.74072266 ], [ 113.06341553, -7.74044514 ], [ 113.06345367, -7.73995972 ], [ 113.06347656, -7.73969936 ], [ 113.06356049, -7.73954964 ], [ 113.06368256, -7.73948765 ], [ 113.063797, -7.73949766 ], [ 113.06417084, -7.73966694 ], [ 113.06429291, -7.73967791 ], [ 113.0644989, -7.73958206 ], [ 113.06448364, -7.73946381 ], [ 113.06440735, -7.73919249 ], [ 113.06437683, -7.73898363 ], [ 113.06438446, -7.73858309 ], [ 113.06445313, -7.73845291 ], [ 113.06462097, -7.73831558 ], [ 113.06480408, -7.73814726 ], [ 113.06475067, -7.73773861 ], [ 113.06473541, -7.73758125 ], [ 113.06483459, -7.73747444 ], [ 113.06503296, -7.73739672 ], [ 113.06523895, -7.73736668 ], [ 113.06536102, -7.7374177 ], [ 113.06555939, -7.73758841 ], [ 113.06597137, -7.7379775 ], [ 113.06616974, -7.7379756 ], [ 113.06628418, -7.73791027 ], [ 113.06651306, -7.73755264 ], [ 113.06655121, -7.73734713 ], [ 113.06658173, -7.73684311 ], [ 113.06663513, -7.7366457 ], [ 113.06674957, -7.73653698 ], [ 113.06697845, -7.7363863 ], [ 113.06726074, -7.73620605 ], [ 113.06749725, -7.73605633 ], [ 113.06761169, -7.73603487 ], [ 113.06771851, -7.73599625 ], [ 113.06832123, -7.73578882 ], [ 113.06884003, -7.7356987 ], [ 113.06898499, -7.73560381 ], [ 113.06921387, -7.73541069 ], [ 113.06939697, -7.73518133 ], [ 113.06973267, -7.73464489 ], [ 113.06998444, -7.73425579 ], [ 113.0701828, -7.73365355 ], [ 113.06998444, -7.73288679 ], [ 113.07012939, -7.7327528 ], [ 113.07022095, -7.73270369 ], [ 113.07035065, -7.73273277 ], [ 113.07045746, -7.73282909 ], [ 113.070755, -7.73312521 ], [ 113.0708847, -7.73319435 ], [ 113.07102966, -7.73318434 ], [ 113.07108307, -7.73301554 ], [ 113.07104492, -7.73288441 ], [ 113.07084656, -7.73230505 ], [ 113.070755, -7.73200893 ], [ 113.07063293, -7.73175478 ], [ 113.07066345, -7.73163939 ], [ 113.07074738, -7.7314539 ], [ 113.07086945, -7.73117781 ], [ 113.07098389, -7.73090744 ], [ 113.0710907, -7.73058891 ], [ 113.07113647, -7.73025656 ], [ 113.0711441, -7.72995758 ], [ 113.07119751, -7.72974062 ], [ 113.07122803, -7.72964668 ], [ 113.07134247, -7.72929049 ], [ 113.07149506, -7.72912312 ], [ 113.07170868, -7.72899485 ], [ 113.07176971, -7.72903728 ], [ 113.0717926, -7.72914457 ], [ 113.07181549, -7.72951603 ], [ 113.07189941, -7.72958851 ], [ 113.07209015, -7.72958803 ], [ 113.07216644, -7.7295084 ], [ 113.07234955, -7.72927475 ], [ 113.07239532, -7.72921658 ], [ 113.07244873, -7.72902918 ], [ 113.07254791, -7.7287035 ], [ 113.07260132, -7.72852278 ], [ 113.07270813, -7.72822618 ], [ 113.07292175, -7.72774315 ], [ 113.07298279, -7.72746325 ], [ 113.07300568, -7.7273469 ], [ 113.07299042, -7.72706985 ], [ 113.07292938, -7.7270155 ], [ 113.07281494, -7.72689056 ], [ 113.07276917, -7.72676182 ], [ 113.07275391, -7.72627831 ], [ 113.07273865, -7.72604465 ], [ 113.07275391, -7.72581291 ], [ 113.07285309, -7.7253418 ], [ 113.07306671, -7.72495985 ], [ 113.07323456, -7.72478914 ], [ 113.07332611, -7.72469902 ], [ 113.07345581, -7.724545 ], [ 113.07353973, -7.72449064 ], [ 113.07363129, -7.72437239 ], [ 113.07381439, -7.72413397 ], [ 113.0740509, -7.72379494 ], [ 113.07422638, -7.72364426 ], [ 113.07444763, -7.72357559 ], [ 113.07540131, -7.72336912 ], [ 113.07614136, -7.72334242 ], [ 113.07621765, -7.72325897 ], [ 113.07630157, -7.72309113 ], [ 113.07627869, -7.72295189 ], [ 113.07619476, -7.72259617 ], [ 113.0761795, -7.72251081 ], [ 113.07621002, -7.72239876 ], [ 113.07627106, -7.72215414 ], [ 113.07647705, -7.72174501 ], [ 113.07678223, -7.7213459 ], [ 113.07691193, -7.72131491 ], [ 113.07706451, -7.72135448 ], [ 113.0777359, -7.72160244 ], [ 113.07798004, -7.72159529 ], [ 113.07830048, -7.72149706 ], [ 113.07841492, -7.7213974 ], [ 113.07848358, -7.72122478 ], [ 113.07852936, -7.72082329 ], [ 113.07858276, -7.7206645 ], [ 113.07875824, -7.72035837 ], [ 113.07891846, -7.72020483 ], [ 113.07936859, -7.71989393 ], [ 113.07958221, -7.71970463 ], [ 113.07964325, -7.71965456 ], [ 113.07969666, -7.71951771 ], [ 113.07976532, -7.7191186 ], [ 113.07978058, -7.71901369 ], [ 113.07980347, -7.71885586 ], [ 113.07983398, -7.71864986 ], [ 113.07984161, -7.7185564 ], [ 113.07990265, -7.7179451 ], [ 113.07991028, -7.71783352 ], [ 113.07992554, -7.71770811 ], [ 113.07997894, -7.71736002 ], [ 113.08011627, -7.71703911 ], [ 113.08026123, -7.71682215 ], [ 113.08035278, -7.71675682 ], [ 113.08044434, -7.71669388 ], [ 113.08065796, -7.71660709 ], [ 113.08085632, -7.71656132 ], [ 113.08127594, -7.71646214 ], [ 113.08126068, -7.71634388 ], [ 113.08118439, -7.71620178 ], [ 113.08100128, -7.71583366 ], [ 113.08097076, -7.71556759 ], [ 113.0809021, -7.71512985 ], [ 113.08089447, -7.71477127 ], [ 113.08094025, -7.71465683 ], [ 113.0810318, -7.71460962 ], [ 113.08110809, -7.71463156 ], [ 113.08139801, -7.71469784 ], [ 113.08184814, -7.71464729 ], [ 113.08258057, -7.71452713 ], [ 113.08265686, -7.71439886 ], [ 113.08265686, -7.71426105 ], [ 113.0823288, -7.71397686 ], [ 113.08222961, -7.71383476 ], [ 113.08213806, -7.71360111 ], [ 113.08216858, -7.71348524 ], [ 113.08226776, -7.71328497 ], [ 113.0823288, -7.71316767 ], [ 113.08248901, -7.71303034 ], [ 113.0826416, -7.71295214 ], [ 113.08281708, -7.71286297 ], [ 113.08312988, -7.71267462 ], [ 113.08342743, -7.71244764 ], [ 113.0838623, -7.71194267 ], [ 113.08400726, -7.7117672 ], [ 113.08419037, -7.71153593 ], [ 113.08441162, -7.71129227 ], [ 113.0845871, -7.71101284 ], [ 113.08466339, -7.71085453 ], [ 113.08476257, -7.7106657 ], [ 113.0847702, -7.71053457 ], [ 113.08482361, -7.71030664 ], [ 113.0848999, -7.71011019 ], [ 113.08502197, -7.70976162 ], [ 113.08514404, -7.70966148 ], [ 113.085289, -7.70967007 ], [ 113.08579254, -7.70973969 ], [ 113.08588409, -7.70981598 ], [ 113.08609772, -7.71000242 ], [ 113.08621979, -7.71002769 ], [ 113.08641815, -7.70998478 ], [ 113.08647919, -7.70988131 ], [ 113.08649445, -7.70971441 ], [ 113.08653259, -7.70952177 ], [ 113.08659363, -7.70940924 ], [ 113.08663177, -7.70933008 ], [ 113.08679962, -7.70919323 ], [ 113.08734131, -7.70881605 ], [ 113.08752441, -7.70867395 ], [ 113.08764648, -7.70851326 ], [ 113.08774567, -7.70825768 ], [ 113.08789063, -7.70774937 ], [ 113.0880127, -7.7075243 ], [ 113.08811951, -7.70742083 ], [ 113.08833313, -7.70744658 ], [ 113.08849335, -7.70753288 ], [ 113.08930206, -7.70800543 ], [ 113.08947754, -7.70800877 ], [ 113.0904541, -7.70779562 ], [ 113.09128571, -7.70789099 ], [ 113.09151459, -7.70791721 ], [ 113.09203339, -7.7079072 ], [ 113.09235382, -7.7077961 ], [ 113.09238434, -7.70771694 ], [ 113.09240723, -7.70730495 ], [ 113.09244537, -7.70660734 ], [ 113.09253693, -7.70642757 ], [ 113.09266663, -7.70638418 ], [ 113.09276581, -7.70638037 ], [ 113.09294128, -7.70646477 ], [ 113.09308624, -7.70659542 ], [ 113.09329987, -7.70676708 ], [ 113.09341431, -7.70679474 ], [ 113.09358978, -7.7067709 ], [ 113.09392548, -7.70668793 ], [ 113.09407806, -7.70659113 ], [ 113.09461212, -7.70625687 ], [ 113.09483337, -7.70623016 ], [ 113.0955658, -7.70620584 ], [ 113.09568787, -7.70617199 ], [ 113.09587097, -7.7060976 ], [ 113.09602356, -7.70615005 ], [ 113.09636688, -7.70631981 ], [ 113.09690857, -7.70703983 ], [ 113.09702301, -7.70719004 ], [ 113.09713745, -7.70739985 ], [ 113.09718323, -7.70747995 ], [ 113.09723663, -7.7077899 ], [ 113.09735107, -7.70799017 ], [ 113.09757996, -7.7084198 ], [ 113.09770966, -7.70874023 ], [ 113.09799194, -7.70922995 ], [ 113.09824371, -7.70947981 ], [ 113.09850311, -7.70979977 ], [ 113.09874725, -7.71010017 ], [ 113.09908295, -7.7105298 ], [ 113.10014343, -7.71202993 ], [ 113.10035706, -7.71234989 ], [ 113.10069275, -7.71308994 ], [ 113.10088348, -7.71342993 ], [ 113.10135651, -7.71382999 ], [ 113.10155487, -7.71395826 ], [ 113.10178375, -7.71412992 ], [ 113.1027832, -7.71537018 ], [ 113.10310364, -7.71576977 ], [ 113.10357666, -7.71639013 ], [ 113.10417938, -7.71687984 ], [ 113.10533142, -7.71775007 ], [ 113.10542297, -7.71783018 ], [ 113.10668182, -7.71892023 ], [ 113.10701752, -7.71920013 ], [ 113.10729218, -7.71939993 ], [ 113.10756683, -7.71978998 ], [ 113.10761261, -7.71990013 ], [ 113.10755157, -7.72008991 ], [ 113.10746765, -7.72020006 ], [ 113.10682678, -7.72027016 ], [ 113.10675812, -7.72032022 ], [ 113.10682678, -7.72056007 ], [ 113.10694122, -7.72067022 ], [ 113.10703278, -7.72071981 ], [ 113.10739899, -7.7207799 ], [ 113.10765839, -7.72079992 ], [ 113.10777283, -7.72079992 ], [ 113.108078, -7.72072983 ], [ 113.10856628, -7.72039986 ], [ 113.10923004, -7.71997976 ], [ 113.10959625, -7.71976995 ], [ 113.10975647, -7.71955013 ], [ 113.1098938, -7.71921921 ], [ 113.10991669, -7.71951008 ], [ 113.10977936, -7.71997023 ], [ 113.10973358, -7.7207799 ], [ 113.10983276, -7.72084999 ], [ 113.11006165, -7.72088003 ], [ 113.11038208, -7.72088003 ], [ 113.11047363, -7.7209301 ], [ 113.11035919, -7.72099018 ], [ 113.11022949, -7.72098017 ], [ 113.1101532, -7.72104979 ], [ 113.1100235, -7.72166014 ], [ 113.10999298, -7.72184992 ], [ 113.1099472, -7.7221899 ], [ 113.11044312, -7.72256994 ], [ 113.11092377, -7.72281981 ], [ 113.11131287, -7.72297001 ], [ 113.11148834, -7.72290993 ], [ 113.11165619, -7.72285986 ], [ 113.11195374, -7.72303009 ], [ 113.1129303, -7.72361374 ], [ 113.11335754, -7.7238698 ], [ 113.11403656, -7.72433996 ], [ 113.11435699, -7.72452021 ], [ 113.1145401, -7.72458982 ], [ 113.11421967, -7.72524023 ], [ 113.11411285, -7.72556019 ], [ 113.11425018, -7.7256999 ], [ 113.11434937, -7.72581005 ], [ 113.11435699, -7.7259202 ], [ 113.1142807, -7.72603989 ], [ 113.11406708, -7.72619009 ], [ 113.11392212, -7.72630978 ], [ 113.11411285, -7.72633982 ], [ 113.11428833, -7.72628021 ], [ 113.11447144, -7.72613001 ], [ 113.11456299, -7.72596979 ], [ 113.11457062, -7.72579002 ], [ 113.11443329, -7.72540998 ], [ 113.11437225, -7.72524023 ], [ 113.11448669, -7.72516012 ], [ 113.11541748, -7.72546005 ], [ 113.11624146, -7.7256999 ], [ 113.11672211, -7.72579002 ], [ 113.11723328, -7.72585011 ], [ 113.11763763, -7.72589016 ], [ 113.1182785, -7.72588015 ], [ 113.11859131, -7.72583008 ], [ 113.1190033, -7.72578001 ], [ 113.11923981, -7.7258234 ], [ 113.11943817, -7.72586012 ], [ 113.11975098, -7.72589016 ], [ 113.11982727, -7.72590017 ], [ 113.12030029, -7.72583008 ], [ 113.12078857, -7.72562981 ], [ 113.12175751, -7.72528982 ], [ 113.12281036, -7.72492981 ], [ 113.12332916, -7.72474003 ], [ 113.12362671, -7.7245698 ], [ 113.12403107, -7.72422981 ], [ 113.12465668, -7.72325993 ], [ 113.12476349, -7.72302008 ], [ 113.12480164, -7.72255993 ], [ 113.12487793, -7.72222996 ], [ 113.12499237, -7.72229004 ], [ 113.12509155, -7.72242022 ], [ 113.12535095, -7.72267008 ], [ 113.1257019, -7.72285986 ], [ 113.12574005, -7.72278976 ], [ 113.12580872, -7.7225399 ], [ 113.1259079, -7.72249985 ], [ 113.12608337, -7.72246981 ], [ 113.12619019, -7.72239017 ], [ 113.12638092, -7.72234011 ], [ 113.12651825, -7.72237015 ], [ 113.12671661, -7.72255993 ], [ 113.12693787, -7.7227602 ], [ 113.12745667, -7.72315979 ], [ 113.12792969, -7.72353983 ], [ 113.12825012, -7.72378016 ], [ 113.12830353, -7.72383022 ], [ 113.1287384, -7.72415018 ], [ 113.12893677, -7.72424984 ], [ 113.12921906, -7.72424984 ], [ 113.12993622, -7.72461987 ], [ 113.13123322, -7.72513008 ], [ 113.13253784, -7.72545004 ], [ 113.13318634, -7.72556019 ], [ 113.1340332, -7.72565985 ], [ 113.13468933, -7.7256999 ], [ 113.13600922, -7.72559977 ], [ 113.138237, -7.72542 ], [ 113.13854218, -7.72543001 ], [ 113.13896942, -7.72554016 ], [ 113.13968658, -7.72578001 ], [ 113.14008331, -7.72596979 ], [ 113.14092255, -7.72660017 ], [ 113.1411438, -7.72687006 ], [ 113.14154053, -7.72726011 ], [ 113.14201355, -7.72753 ], [ 113.14209747, -7.72759008 ], [ 113.14182281, -7.72766018 ], [ 113.14173126, -7.72767019 ], [ 113.14163208, -7.7277298 ], [ 113.14151001, -7.72774982 ], [ 113.14143372, -7.72793007 ], [ 113.14150238, -7.72812986 ], [ 113.14157104, -7.72861004 ], [ 113.14154816, -7.7287302 ], [ 113.14144135, -7.72887993 ], [ 113.14131165, -7.72896004 ], [ 113.14110565, -7.72901678 ], [ 113.14090729, -7.72883987 ], [ 113.14074707, -7.72875023 ], [ 113.14054871, -7.7287302 ], [ 113.14041901, -7.72876978 ], [ 113.14035797, -7.72864008 ], [ 113.1402359, -7.72840166 ], [ 113.14037323, -7.72813988 ], [ 113.14055634, -7.72778654 ], [ 113.14039612, -7.72771072 ], [ 113.14020538, -7.72762394 ], [ 113.13987732, -7.72751045 ], [ 113.13946533, -7.72736454 ], [ 113.13941193, -7.72751808 ], [ 113.13928986, -7.72749996 ], [ 113.13912964, -7.72747993 ], [ 113.1384964, -7.72731972 ], [ 113.13793182, -7.72705984 ], [ 113.13756561, -7.72691917 ], [ 113.13719177, -7.727036 ], [ 113.13652039, -7.72725868 ], [ 113.13620758, -7.72736979 ], [ 113.13610077, -7.72741413 ], [ 113.13596344, -7.72745323 ], [ 113.13584137, -7.72749233 ], [ 113.13571167, -7.72753668 ], [ 113.13562012, -7.72758007 ], [ 113.13539886, -7.72764015 ], [ 113.13531494, -7.72769737 ], [ 113.13485718, -7.72785997 ], [ 113.13386536, -7.7280283 ], [ 113.13391876, -7.72820997 ], [ 113.13391876, -7.72843981 ], [ 113.13388062, -7.72862005 ], [ 113.13387299, -7.72905016 ], [ 113.13382721, -7.72923994 ], [ 113.13384247, -7.72945976 ], [ 113.13379669, -7.72965002 ], [ 113.13375092, -7.72981977 ], [ 113.13375092, -7.73012018 ], [ 113.13369751, -7.73042011 ], [ 113.13358307, -7.73077011 ], [ 113.13358307, -7.73098993 ], [ 113.13346863, -7.73125982 ], [ 113.13340759, -7.73148012 ], [ 113.13334656, -7.73167992 ], [ 113.13330078, -7.73199987 ], [ 113.13323975, -7.73225021 ], [ 113.1332016, -7.73269987 ], [ 113.1332016, -7.73335981 ], [ 113.13316345, -7.73375988 ], [ 113.13311005, -7.73408985 ], [ 113.13311005, -7.73441982 ], [ 113.13305664, -7.73472977 ], [ 113.13300323, -7.73496008 ], [ 113.13294983, -7.7351799 ], [ 113.13295746, -7.73555994 ], [ 113.13291931, -7.73579979 ], [ 113.13291931, -7.73605013 ], [ 113.13287354, -7.73635197 ], [ 113.13285065, -7.73664999 ], [ 113.13282013, -7.73691988 ], [ 113.13282776, -7.73719978 ], [ 113.13278198, -7.73759985 ], [ 113.13272095, -7.73792982 ], [ 113.13266754, -7.73827982 ], [ 113.13262177, -7.73865986 ], [ 113.13249207, -7.73889017 ], [ 113.13227081, -7.73953009 ], [ 113.13217926, -7.73963404 ], [ 113.13214874, -7.73976564 ], [ 113.13210297, -7.73989201 ], [ 113.13201904, -7.74019957 ], [ 113.13188934, -7.74072075 ], [ 113.13181305, -7.74105549 ], [ 113.13156128, -7.74190092 ], [ 113.13142395, -7.74235106 ], [ 113.13128662, -7.74292135 ], [ 113.1309967, -7.74392605 ], [ 113.1311264, -7.74400759 ], [ 113.13119507, -7.7440896 ], [ 113.13128662, -7.74419022 ], [ 113.13137054, -7.74435997 ], [ 113.13147736, -7.7445302 ], [ 113.13175201, -7.74482012 ], [ 113.13191223, -7.74495983 ], [ 113.13198853, -7.74509001 ], [ 113.13208771, -7.74514008 ], [ 113.13224792, -7.74525023 ], [ 113.13218689, -7.74542713 ], [ 113.132164, -7.74550676 ], [ 113.13209534, -7.74566889 ], [ 113.1322403, -7.74596405 ], [ 113.13212585, -7.74610186 ], [ 113.1321106, -7.74637032 ], [ 113.13217926, -7.7465601 ], [ 113.13205719, -7.74691868 ], [ 113.13198853, -7.74702883 ], [ 113.13208771, -7.74717045 ], [ 113.13197327, -7.7474947 ], [ 113.13201904, -7.74774075 ], [ 113.13193512, -7.74795008 ], [ 113.13196564, -7.74812889 ], [ 113.1319046, -7.74846077 ], [ 113.13192749, -7.74867439 ], [ 113.13181305, -7.7490344 ], [ 113.13182831, -7.7492671 ], [ 113.13191986, -7.74958038 ], [ 113.13183594, -7.74984932 ], [ 113.13173676, -7.75019026 ], [ 113.1318512, -7.75067329 ], [ 113.13179016, -7.75098753 ], [ 113.13183594, -7.75132751 ], [ 113.1317749, -7.75162315 ], [ 113.1317749, -7.75201321 ], [ 113.13201904, -7.75214005 ], [ 113.13202667, -7.75222015 ], [ 113.13195038, -7.75239992 ], [ 113.13205719, -7.75233889 ], [ 113.13230133, -7.75237989 ], [ 113.13265228, -7.75245905 ], [ 113.13291168, -7.75250006 ], [ 113.13303375, -7.75247669 ], [ 113.13314819, -7.75249529 ], [ 113.13328552, -7.75255251 ], [ 113.13352203, -7.75262451 ], [ 113.13366699, -7.75272703 ], [ 113.1353302, -7.752882 ], [ 113.13597107, -7.75294065 ], [ 113.13621521, -7.75322914 ], [ 113.1365509, -7.75355625 ], [ 113.13686371, -7.75371218 ], [ 113.13709259, -7.75369644 ], [ 113.13735199, -7.75346661 ], [ 113.13746643, -7.75320864 ], [ 113.13764954, -7.75320768 ], [ 113.13779449, -7.75320721 ], [ 113.13793945, -7.75326347 ], [ 113.13802338, -7.75332022 ], [ 113.13806152, -7.75348139 ], [ 113.13800049, -7.75362587 ], [ 113.13786316, -7.75399733 ], [ 113.13774872, -7.75422096 ], [ 113.13766479, -7.75458765 ], [ 113.13761139, -7.75485373 ], [ 113.13759613, -7.7549777 ], [ 113.13758087, -7.75515032 ], [ 113.13759613, -7.75530815 ], [ 113.13771057, -7.75554657 ], [ 113.13780975, -7.7557025 ], [ 113.13793945, -7.75592279 ], [ 113.13813019, -7.7561841 ], [ 113.138237, -7.75632715 ], [ 113.138237, -7.75649929 ], [ 113.13819885, -7.75663996 ], [ 113.13817596, -7.75671387 ], [ 113.13806915, -7.75710011 ], [ 113.13806915, -7.75723982 ], [ 113.13812256, -7.757339 ], [ 113.13819885, -7.75747204 ], [ 113.13825226, -7.75769901 ], [ 113.13835144, -7.75798941 ], [ 113.13844299, -7.75831461 ], [ 113.1385498, -7.7586112 ], [ 113.13861847, -7.75880861 ], [ 113.13861847, -7.75904131 ], [ 113.13856506, -7.75937891 ], [ 113.13850403, -7.759552 ], [ 113.13831329, -7.75978994 ], [ 113.13812256, -7.75986004 ], [ 113.13762665, -7.75995874 ], [ 113.13744354, -7.76015091 ], [ 113.13736725, -7.76032066 ], [ 113.13720703, -7.76086998 ], [ 113.1371994, -7.76106977 ], [ 113.13704681, -7.76110983 ], [ 113.1364212, -7.76122999 ], [ 113.1360321, -7.7613101 ], [ 113.13600922, -7.76155901 ], [ 113.13588715, -7.76187992 ], [ 113.13581085, -7.76204014 ], [ 113.13580322, -7.76232004 ], [ 113.13600159, -7.76272011 ], [ 113.13600159, -7.76316023 ], [ 113.1360321, -7.76339006 ], [ 113.1361084, -7.76348972 ], [ 113.13616943, -7.76374006 ], [ 113.13619995, -7.76391983 ], [ 113.13630676, -7.76408005 ], [ 113.13670349, -7.76426983 ], [ 113.13683319, -7.76433992 ], [ 113.13690186, -7.76445007 ], [ 113.13690186, -7.76460981 ], [ 113.13684845, -7.76470995 ], [ 113.13677216, -7.7647295 ], [ 113.13655853, -7.76478004 ], [ 113.13646698, -7.76480007 ], [ 113.13642883, -7.76487017 ], [ 113.13658905, -7.76504993 ], [ 113.13665009, -7.76512003 ], [ 113.13659668, -7.7652998 ], [ 113.13650513, -7.76542807 ], [ 113.13616943, -7.76562023 ], [ 113.13585663, -7.7657299 ], [ 113.13572693, -7.76577997 ], [ 113.13567352, -7.76586008 ], [ 113.13570404, -7.76603985 ], [ 113.13572693, -7.76621008 ], [ 113.13577271, -7.76648998 ], [ 113.13568878, -7.76676607 ], [ 113.13565826, -7.76686001 ], [ 113.13565826, -7.76698017 ], [ 113.13568878, -7.76710701 ], [ 113.13560486, -7.76735687 ], [ 113.13547516, -7.76768494 ], [ 113.13534546, -7.7680006 ], [ 113.13515472, -7.76835585 ], [ 113.13516998, -7.76864433 ], [ 113.13489532, -7.76907825 ], [ 113.13471222, -7.76926279 ], [ 113.134552, -7.76960468 ], [ 113.13440704, -7.76968384 ], [ 113.13412476, -7.7699213 ], [ 113.13383484, -7.77029037 ], [ 113.13367462, -7.77057934 ], [ 113.13346863, -7.77090836 ], [ 113.13314056, -7.77096272 ], [ 113.13298035, -7.7712388 ], [ 113.13262177, -7.77172565 ], [ 113.13233948, -7.77170086 ], [ 113.13161469, -7.77159977 ], [ 113.1306839, -7.77144718 ], [ 113.13009644, -7.77159405 ], [ 113.12962341, -7.77188492 ], [ 113.1294632, -7.77205753 ], [ 113.12926483, -7.77232599 ], [ 113.12924194, -7.7726202 ], [ 113.12911987, -7.77298212 ], [ 113.12897491, -7.77331734 ], [ 113.12869263, -7.77357292 ], [ 113.12852478, -7.77384138 ], [ 113.12837982, -7.77418995 ], [ 113.12817383, -7.77417755 ], [ 113.1276474, -7.77379227 ], [ 113.1271286, -7.77352715 ], [ 113.12657928, -7.77345943 ], [ 113.12651825, -7.77380991 ], [ 113.12654877, -7.77416992 ], [ 113.12667847, -7.77456999 ], [ 113.12680054, -7.77483988 ], [ 113.12716675, -7.77518988 ], [ 113.12766266, -7.77549982 ], [ 113.12828064, -7.77594995 ], [ 113.12837219, -7.77602005 ], [ 113.12872314, -7.7762599 ], [ 113.12902069, -7.77645016 ], [ 113.1291275, -7.77654982 ], [ 113.12954712, -7.77678013 ], [ 113.12999725, -7.77698994 ], [ 113.13043213, -7.77733994 ], [ 113.13066864, -7.77757978 ], [ 113.13121033, -7.77803993 ], [ 113.13147736, -7.77825022 ], [ 113.13233948, -7.77883005 ], [ 113.13279724, -7.77919769 ], [ 113.13300323, -7.77936459 ], [ 113.13343048, -7.77973986 ], [ 113.13375854, -7.78002024 ], [ 113.1340332, -7.78026009 ], [ 113.13430023, -7.78046989 ], [ 113.1346817, -7.7807498 ], [ 113.13481903, -7.78092003 ], [ 113.13456726, -7.78194523 ], [ 113.13448334, -7.7823 ], [ 113.13410187, -7.78259993 ], [ 113.13375092, -7.78286982 ], [ 113.13343048, -7.78313017 ], [ 113.13353729, -7.78347015 ], [ 113.13361359, -7.78366995 ], [ 113.13366699, -7.7837801 ], [ 113.13369751, -7.78385019 ], [ 113.1337738, -7.78399992 ], [ 113.1338501, -7.78416014 ], [ 113.1341095, -7.78458977 ], [ 113.13423157, -7.78483009 ], [ 113.1342926, -7.78498983 ], [ 113.13434601, -7.78507662 ], [ 113.13439178, -7.78515005 ], [ 113.13420105, -7.78528023 ], [ 113.13413239, -7.78532982 ], [ 113.13404083, -7.78550005 ], [ 113.13404083, -7.7855835 ], [ 113.13421631, -7.78668022 ], [ 113.13404846, -7.78849983 ], [ 113.13395691, -7.78867006 ], [ 113.13349915, -7.78933001 ], [ 113.13336182, -7.78969049 ], [ 113.13327789, -7.78989983 ], [ 113.13307953, -7.79011011 ], [ 113.13282776, -7.79025984 ], [ 113.13233185, -7.79048014 ], [ 113.13208008, -7.79056978 ], [ 113.13175964, -7.79099989 ], [ 113.1317215, -7.79108572 ], [ 113.13166809, -7.79121017 ], [ 113.1315918, -7.79141998 ], [ 113.13140869, -7.79157019 ], [ 113.13127899, -7.79166985 ], [ 113.13101196, -7.79199982 ], [ 113.13095856, -7.79208994 ], [ 113.13077545, -7.79247093 ], [ 113.13069153, -7.79264021 ], [ 113.13056183, -7.7929101 ], [ 113.13031769, -7.79316998 ], [ 113.13009644, -7.79345989 ], [ 113.12995148, -7.79364014 ], [ 113.12966919, -7.79374981 ], [ 113.12953949, -7.79380703 ], [ 113.1294632, -7.79383993 ], [ 113.1291275, -7.79401016 ], [ 113.12888336, -7.79409981 ], [ 113.12831879, -7.7940402 ], [ 113.12749481, -7.79425859 ], [ 113.12728119, -7.7943902 ], [ 113.1271286, -7.79454994 ], [ 113.12705994, -7.7947731 ], [ 113.12696838, -7.79507017 ], [ 113.1268692, -7.7953701 ], [ 113.12666321, -7.79608011 ], [ 113.12657928, -7.79628992 ], [ 113.12644196, -7.79662228 ], [ 113.12641144, -7.79668999 ], [ 113.12597656, -7.79694986 ], [ 113.12580109, -7.79709005 ], [ 113.12571716, -7.79721117 ], [ 113.12547302, -7.79752016 ], [ 113.12522125, -7.79769993 ], [ 113.12509918, -7.79779005 ], [ 113.125, -7.79794979 ], [ 113.12486267, -7.7981801 ], [ 113.12476349, -7.79842997 ], [ 113.12461853, -7.79859018 ], [ 113.12426758, -7.79886007 ], [ 113.1241684, -7.7989502 ], [ 113.12393188, -7.79901981 ], [ 113.12361908, -7.7990799 ], [ 113.1235199, -7.79913998 ], [ 113.12365723, -7.79935789 ], [ 113.12384796, -7.79954004 ], [ 113.12402344, -7.79973984 ], [ 113.12413025, -7.80008984 ], [ 113.12422943, -7.80038023 ], [ 113.12433624, -7.80052996 ], [ 113.12454224, -7.80067015 ], [ 113.12464142, -7.80082989 ], [ 113.12465668, -7.80096006 ], [ 113.12460327, -7.80107021 ], [ 113.12451172, -7.80111122 ], [ 113.12439728, -7.80115986 ], [ 113.12426758, -7.80120993 ], [ 113.12419128, -7.80130005 ], [ 113.12415314, -7.80152893 ], [ 113.12412262, -7.80175018 ], [ 113.12410736, -7.80189991 ], [ 113.1239624, -7.80198193 ], [ 113.12362671, -7.80193996 ], [ 113.12307739, -7.80224991 ], [ 113.12275696, -7.80232 ], [ 113.12242889, -7.80237007 ], [ 113.12232971, -7.80247021 ], [ 113.12226868, -7.80262041 ], [ 113.12232208, -7.80296993 ], [ 113.12236023, -7.80327225 ], [ 113.1223526, -7.80342007 ], [ 113.12226105, -7.80360985 ], [ 113.12203217, -7.80385017 ], [ 113.12159729, -7.8039999 ], [ 113.12091064, -7.80408001 ], [ 113.12059784, -7.80426979 ], [ 113.1204071, -7.8045001 ], [ 113.12029266, -7.80464983 ], [ 113.11997986, -7.80502987 ], [ 113.11985016, -7.80522013 ], [ 113.11956787, -7.80553007 ], [ 113.11943054, -7.80572987 ], [ 113.11934662, -7.80599022 ], [ 113.11932373, -7.80611992 ], [ 113.11908722, -7.80618715 ], [ 113.11889648, -7.80624008 ], [ 113.11871338, -7.80629253 ], [ 113.11833954, -7.80639982 ], [ 113.11791229, -7.80656004 ], [ 113.11772919, -7.80669022 ], [ 113.11752319, -7.80690002 ], [ 113.11734772, -7.80723 ], [ 113.11727142, -7.80776978 ], [ 113.11721802, -7.80815983 ], [ 113.11715698, -7.80843019 ], [ 113.11714172, -7.80854988 ], [ 113.11708832, -7.80861998 ], [ 113.1162796, -7.80899 ], [ 113.11607361, -7.80909014 ], [ 113.11562347, -7.80905008 ], [ 113.11558533, -7.8093071 ], [ 113.115242, -7.80893993 ], [ 113.11508942, -7.80880022 ], [ 113.11488342, -7.80857897 ], [ 113.11460876, -7.80842495 ], [ 113.11380768, -7.80795813 ], [ 113.11341095, -7.80773401 ], [ 113.11312866, -7.80724621 ], [ 113.11254883, -7.80697584 ], [ 113.11196899, -7.80646133 ], [ 113.11152649, -7.80619049 ], [ 113.11116791, -7.80577803 ], [ 113.11087799, -7.80542612 ], [ 113.1107254, -7.80524635 ], [ 113.11058044, -7.80515003 ], [ 113.11042023, -7.80495977 ], [ 113.11022186, -7.80466986 ], [ 113.11003113, -7.80435991 ], [ 113.10980225, -7.80394983 ], [ 113.10949707, -7.80344009 ], [ 113.1092453, -7.80326462 ], [ 113.10889435, -7.80300283 ], [ 113.1085434, -7.80278826 ], [ 113.10819244, -7.8025732 ], [ 113.10775757, -7.80233097 ], [ 113.10758972, -7.80219984 ], [ 113.1071167, -7.80192947 ], [ 113.10662842, -7.80167007 ], [ 113.10645294, -7.80154991 ], [ 113.10639191, -7.80147457 ], [ 113.10638428, -7.80116796 ], [ 113.10609436, -7.80099392 ], [ 113.1059494, -7.80089426 ], [ 113.10545349, -7.80055141 ], [ 113.10519409, -7.80025768 ], [ 113.10490417, -7.80001211 ], [ 113.10389709, -7.79943848 ], [ 113.10392761, -7.79933023 ], [ 113.10387421, -7.79916143 ], [ 113.10382843, -7.79909658 ], [ 113.10378265, -7.79901123 ], [ 113.10366058, -7.79887342 ], [ 113.10363007, -7.79877138 ], [ 113.10354614, -7.79862118 ], [ 113.10359955, -7.79848242 ], [ 113.10365295, -7.7982831 ], [ 113.10356903, -7.79798222 ], [ 113.10355377, -7.79780769 ], [ 113.10375214, -7.79779482 ], [ 113.10389709, -7.79775763 ], [ 113.10410309, -7.79768467 ], [ 113.10441589, -7.7975502 ], [ 113.10452271, -7.797369 ], [ 113.10456848, -7.79709291 ], [ 113.10460663, -7.79702997 ], [ 113.10466003, -7.79676008 ], [ 113.10463715, -7.7961216 ], [ 113.10466766, -7.79572964 ], [ 113.10475159, -7.79511976 ], [ 113.10484314, -7.79485989 ], [ 113.10501099, -7.79459 ], [ 113.10533142, -7.79420996 ], [ 113.1057663, -7.79376984 ], [ 113.10585022, -7.79372454 ], [ 113.10650635, -7.79333496 ], [ 113.10666656, -7.79338217 ], [ 113.10707855, -7.79383802 ], [ 113.10740662, -7.79392052 ], [ 113.10758972, -7.79375696 ], [ 113.10765839, -7.79360628 ], [ 113.10762787, -7.79306412 ], [ 113.10782623, -7.79287004 ], [ 113.10823059, -7.79268742 ], [ 113.10832977, -7.79231977 ], [ 113.10832214, -7.79201984 ], [ 113.1083374, -7.79183006 ], [ 113.10845184, -7.79137993 ], [ 113.1086731, -7.7908802 ], [ 113.10884857, -7.79046011 ], [ 113.10888672, -7.79036999 ], [ 113.10903931, -7.79002094 ], [ 113.10913086, -7.78982019 ], [ 113.10908508, -7.78946638 ], [ 113.10900116, -7.78922558 ], [ 113.10894012, -7.78894281 ], [ 113.10891724, -7.78857517 ], [ 113.10900879, -7.78837013 ], [ 113.10915375, -7.78804016 ], [ 113.10932159, -7.78773022 ], [ 113.10939789, -7.78758764 ], [ 113.10955048, -7.78732014 ], [ 113.10974121, -7.78699017 ], [ 113.10983276, -7.78676987 ], [ 113.10990143, -7.78628016 ], [ 113.10992432, -7.78490162 ], [ 113.10990143, -7.78446198 ], [ 113.10990906, -7.78394365 ], [ 113.10997009, -7.78375053 ], [ 113.11010742, -7.78344011 ], [ 113.11024475, -7.78327322 ], [ 113.110466, -7.78309727 ], [ 113.11070251, -7.78295755 ], [ 113.11205292, -7.78249884 ], [ 113.11230469, -7.782341 ], [ 113.11238861, -7.78215408 ], [ 113.11254883, -7.78197241 ], [ 113.11227417, -7.78176308 ], [ 113.11196136, -7.78149319 ], [ 113.11171722, -7.7813201 ], [ 113.11135101, -7.781147 ], [ 113.11115265, -7.7810154 ], [ 113.11091614, -7.78084183 ], [ 113.11066437, -7.7806325 ], [ 113.1105957, -7.78056049 ], [ 113.1105423, -7.78042459 ], [ 113.11064148, -7.78023481 ], [ 113.11040497, -7.78005505 ], [ 113.11026001, -7.77994347 ], [ 113.11019135, -7.7799201 ], [ 113.10955811, -7.77970982 ], [ 113.10913849, -7.77956009 ], [ 113.10848236, -7.7793498 ], [ 113.10786438, -7.77904415 ], [ 113.10765839, -7.77899122 ], [ 113.10753632, -7.77888632 ], [ 113.10739899, -7.77869892 ], [ 113.10736084, -7.77855587 ], [ 113.10727692, -7.77843571 ], [ 113.10721588, -7.77824783 ], [ 113.10715485, -7.77805233 ], [ 113.10708618, -7.77791739 ], [ 113.10696411, -7.77782726 ], [ 113.10678864, -7.77779055 ], [ 113.10661316, -7.77768612 ], [ 113.10652161, -7.77764893 ], [ 113.10636902, -7.77758932 ], [ 113.10623932, -7.77751493 ], [ 113.10609436, -7.77737236 ], [ 113.10595703, -7.77729797 ], [ 113.10585785, -7.77720785 ], [ 113.10580444, -7.77710295 ], [ 113.10572815, -7.77696753 ], [ 113.1056366, -7.77687025 ], [ 113.10546112, -7.77667522 ], [ 113.10529327, -7.77654028 ], [ 113.10514832, -7.77660131 ], [ 113.10507202, -7.77677011 ], [ 113.1050415, -7.77711391 ], [ 113.1049118, -7.77722311 ], [ 113.10479736, -7.77731848 ], [ 113.10451508, -7.7775383 ], [ 113.10414124, -7.77764559 ], [ 113.10395813, -7.77773428 ], [ 113.10370636, -7.77797747 ], [ 113.10327148, -7.77850962 ], [ 113.10336304, -7.77868986 ], [ 113.10334015, -7.77878046 ], [ 113.10339355, -7.77894831 ], [ 113.10355377, -7.77915001 ], [ 113.10354614, -7.77951622 ], [ 113.10331726, -7.77969837 ], [ 113.10295105, -7.77975178 ], [ 113.10270691, -7.77966261 ], [ 113.10250092, -7.77968931 ], [ 113.10240936, -7.77996111 ], [ 113.10246277, -7.78019381 ], [ 113.10251617, -7.780478 ], [ 113.10229492, -7.7805047 ], [ 113.10215759, -7.78057003 ], [ 113.10197449, -7.78067446 ], [ 113.10180664, -7.78086901 ], [ 113.1014328, -7.78110361 ], [ 113.10093689, -7.78113174 ], [ 113.10048676, -7.78135395 ], [ 113.10016632, -7.78154945 ], [ 113.10004425, -7.78165722 ], [ 113.09990692, -7.7817831 ], [ 113.09932709, -7.78204441 ], [ 113.09924316, -7.7820344 ], [ 113.09892273, -7.78199482 ], [ 113.09851837, -7.78221655 ], [ 113.09856415, -7.78266859 ], [ 113.09870148, -7.78287983 ], [ 113.09871674, -7.78295231 ], [ 113.09868622, -7.78305626 ], [ 113.09819031, -7.78343296 ], [ 113.09781647, -7.78369331 ], [ 113.09757233, -7.78391457 ], [ 113.09752655, -7.78397894 ], [ 113.09731293, -7.78431654 ], [ 113.09697723, -7.78457642 ], [ 113.09658051, -7.78469467 ], [ 113.09634399, -7.78468895 ], [ 113.09618378, -7.78496981 ], [ 113.09606934, -7.78520012 ], [ 113.09571838, -7.78551006 ], [ 113.09561157, -7.78560019 ], [ 113.09561157, -7.78573179 ], [ 113.09550476, -7.7857213 ], [ 113.09535217, -7.78582525 ], [ 113.09542084, -7.7860837 ], [ 113.09551239, -7.78625488 ], [ 113.09564209, -7.78649616 ], [ 113.09548187, -7.78662634 ], [ 113.09510803, -7.78679609 ], [ 113.0949173, -7.78670645 ], [ 113.09473419, -7.78669691 ], [ 113.09459686, -7.78689528 ], [ 113.09456635, -7.78709269 ], [ 113.09456635, -7.78720331 ], [ 113.09442139, -7.78730345 ], [ 113.09408569, -7.78742647 ], [ 113.09381104, -7.78756571 ], [ 113.0938797, -7.78778601 ], [ 113.09377289, -7.78788567 ], [ 113.09352875, -7.78782082 ], [ 113.0933609, -7.78774452 ], [ 113.0931015, -7.78780651 ], [ 113.0928421, -7.78786278 ], [ 113.09265137, -7.78788853 ], [ 113.09223938, -7.78806448 ], [ 113.0922699, -7.78857183 ], [ 113.09229279, -7.78901291 ], [ 113.09197235, -7.789114 ], [ 113.09166718, -7.78927565 ], [ 113.09170532, -7.7895236 ], [ 113.09169006, -7.78961134 ], [ 113.09162903, -7.78998995 ], [ 113.09146118, -7.7902298 ], [ 113.09129333, -7.79036999 ], [ 113.09107971, -7.7904501 ], [ 113.0909729, -7.7904501 ], [ 113.09085083, -7.79034996 ], [ 113.09062958, -7.79020166 ], [ 113.09048462, -7.79007578 ], [ 113.09033966, -7.79007101 ], [ 113.09022522, -7.79013777 ], [ 113.09004211, -7.79025459 ], [ 113.0898056, -7.79022789 ], [ 113.08968353, -7.79040527 ], [ 113.08948517, -7.79049969 ], [ 113.08930206, -7.79080963 ], [ 113.08908844, -7.79104805 ], [ 113.08885193, -7.79114866 ], [ 113.08855438, -7.79123831 ], [ 113.08847046, -7.7913146 ], [ 113.08830261, -7.79146576 ], [ 113.08816528, -7.7918911 ], [ 113.08821106, -7.7923398 ], [ 113.08797455, -7.79275846 ], [ 113.08772278, -7.79303503 ], [ 113.08757019, -7.79320192 ], [ 113.0876236, -7.793571 ], [ 113.08781433, -7.79392862 ], [ 113.08756256, -7.79391003 ], [ 113.08743286, -7.79401016 ], [ 113.08737183, -7.79410982 ], [ 113.08728027, -7.7942071 ], [ 113.08734131, -7.7943778 ], [ 113.08738708, -7.79451036 ], [ 113.08734131, -7.79489994 ], [ 113.08718872, -7.79499102 ], [ 113.08707428, -7.79513502 ], [ 113.0871048, -7.79522848 ], [ 113.08724213, -7.79566383 ], [ 113.08705139, -7.79568148 ], [ 113.08686829, -7.79568005 ], [ 113.08666229, -7.79576063 ], [ 113.08662415, -7.79597044 ], [ 113.08663177, -7.79631233 ], [ 113.08666992, -7.79691362 ], [ 113.08590698, -7.79759598 ], [ 113.08589935, -7.79787731 ], [ 113.08568573, -7.79836941 ], [ 113.08543396, -7.79838181 ], [ 113.085289, -7.79817009 ], [ 113.08507538, -7.79829502 ], [ 113.08504486, -7.79873037 ], [ 113.08501434, -7.79904032 ], [ 113.08457184, -7.79937363 ], [ 113.08449554, -7.79975605 ], [ 113.08444214, -7.80000877 ], [ 113.08428955, -7.80024099 ], [ 113.08422089, -7.80077124 ], [ 113.08418274, -7.80094004 ], [ 113.08401489, -7.8011694 ], [ 113.08389282, -7.80139065 ], [ 113.08396912, -7.8015666 ], [ 113.08411407, -7.8016324 ], [ 113.08428955, -7.80162573 ], [ 113.08439636, -7.80164194 ], [ 113.08442688, -7.80173016 ], [ 113.08436584, -7.80189562 ], [ 113.084198, -7.80194998 ], [ 113.0840683, -7.80207014 ], [ 113.08397675, -7.80220127 ], [ 113.08400726, -7.80238295 ], [ 113.08396912, -7.80250978 ], [ 113.0838089, -7.8026433 ], [ 113.08362579, -7.80252266 ], [ 113.0834198, -7.80244684 ], [ 113.08322144, -7.80243683 ], [ 113.08303833, -7.80243015 ], [ 113.08276367, -7.80258226 ], [ 113.08253479, -7.80280972 ], [ 113.08245087, -7.80316877 ], [ 113.0825119, -7.80356026 ], [ 113.08261871, -7.80375814 ], [ 113.08267975, -7.80395651 ], [ 113.08252716, -7.80400705 ], [ 113.08240509, -7.80404043 ], [ 113.08205414, -7.80405903 ], [ 113.08157349, -7.80391216 ], [ 113.08137512, -7.80402899 ], [ 113.08111572, -7.80421257 ], [ 113.08097839, -7.80433989 ], [ 113.08078003, -7.80441809 ], [ 113.0806427, -7.80452299 ], [ 113.08054352, -7.80473948 ], [ 113.08052826, -7.80494928 ], [ 113.08052826, -7.80510378 ], [ 113.08046722, -7.80529165 ], [ 113.08029938, -7.80542469 ], [ 113.08009338, -7.80551386 ], [ 113.07981873, -7.80561447 ], [ 113.07964325, -7.80584717 ], [ 113.0796051, -7.80607891 ], [ 113.07958984, -7.80631113 ], [ 113.07940674, -7.80651045 ], [ 113.07907104, -7.80664444 ], [ 113.07866669, -7.8066411 ], [ 113.07833099, -7.80666447 ], [ 113.07797241, -7.80668163 ], [ 113.07785797, -7.80658007 ], [ 113.07762909, -7.80635023 ], [ 113.07740021, -7.80607986 ], [ 113.07720947, -7.80587006 ], [ 113.07692719, -7.80568981 ], [ 113.07682037, -7.80552006 ], [ 113.07649994, -7.80523348 ], [ 113.07608032, -7.80516005 ], [ 113.07565308, -7.80514002 ], [ 113.07530975, -7.80507994 ], [ 113.07491302, -7.80501986 ], [ 113.07443237, -7.80495977 ], [ 113.07407379, -7.80493021 ], [ 113.07362366, -7.8049202 ], [ 113.07350159, -7.80491018 ], [ 113.07342529, -7.80490494 ], [ 113.07321167, -7.80489016 ], [ 113.07280731, -7.80483007 ], [ 113.07241821, -7.80474997 ], [ 113.07196808, -7.8046298 ], [ 113.07167053, -7.8045001 ], [ 113.07137299, -7.80432987 ], [ 113.07106018, -7.80412006 ], [ 113.07071686, -7.80383015 ], [ 113.07044983, -7.80354023 ], [ 113.07032013, -7.8032999 ], [ 113.07016754, -7.80292988 ], [ 113.07009125, -7.80254984 ], [ 113.07008362, -7.80229998 ], [ 113.07010651, -7.80195999 ], [ 113.06997681, -7.80163002 ], [ 113.06983185, -7.80114985 ], [ 113.06967926, -7.80075979 ], [ 113.06958771, -7.80058002 ], [ 113.06938934, -7.80019999 ], [ 113.06929016, -7.80002022 ], [ 113.06903076, -7.80016994 ], [ 113.06861877, -7.80045986 ], [ 113.0684967, -7.80057001 ], [ 113.06828308, -7.80073023 ], [ 113.06816864, -7.80087996 ], [ 113.06814575, -7.80103064 ], [ 113.06813049, -7.80110979 ], [ 113.06813812, -7.80125999 ], [ 113.06816864, -7.80137014 ], [ 113.06809235, -7.80165005 ], [ 113.06788635, -7.80223989 ], [ 113.06780243, -7.80255985 ], [ 113.06761169, -7.80295992 ], [ 113.06755829, -7.80327988 ], [ 113.06755829, -7.80341005 ], [ 113.06745911, -7.80363989 ], [ 113.06738281, -7.80373049 ], [ 113.06725311, -7.80388021 ], [ 113.06699371, -7.80410004 ], [ 113.06690216, -7.80417013 ], [ 113.06684875, -7.80446005 ], [ 113.06685638, -7.8049798 ], [ 113.06687164, -7.80513 ], [ 113.0668869, -7.80531979 ], [ 113.06690216, -7.80544996 ], [ 113.06684113, -7.80564022 ], [ 113.0667572, -7.80583 ], [ 113.06674957, -7.80597019 ], [ 113.06684113, -7.8063798 ], [ 113.0668869, -7.80655003 ], [ 113.06686401, -7.80662107 ], [ 113.0666275, -7.80725002 ], [ 113.06640625, -7.80770016 ], [ 113.06607819, -7.80842018 ], [ 113.06593323, -7.80899 ], [ 113.06591797, -7.80908012 ], [ 113.06587982, -7.80963993 ], [ 113.06568909, -7.81072998 ], [ 113.06561279, -7.81106997 ], [ 113.06546021, -7.81142998 ], [ 113.06507874, -7.81210995 ], [ 113.06494141, -7.81244993 ], [ 113.06487274, -7.81266022 ], [ 113.06466675, -7.81286001 ], [ 113.0643692, -7.81311989 ], [ 113.06417084, -7.81306982 ], [ 113.0639801, -7.81301212 ], [ 113.06388092, -7.81298018 ], [ 113.06333923, -7.81276989 ], [ 113.06295776, -7.81269979 ], [ 113.06257629, -7.81259012 ], [ 113.06237793, -7.81255007 ], [ 113.06220245, -7.81243992 ], [ 113.06198883, -7.8123498 ], [ 113.06194305, -7.81227016 ], [ 113.0617218, -7.81226015 ], [ 113.06144714, -7.81231022 ], [ 113.06130981, -7.81224012 ], [ 113.06121063, -7.81219006 ], [ 113.06096649, -7.81208992 ], [ 113.06092834, -7.81193542 ], [ 113.06084442, -7.81188774 ], [ 113.06070709, -7.8118515 ], [ 113.06054688, -7.81174564 ], [ 113.06013489, -7.8117156 ], [ 113.05993652, -7.81179667 ], [ 113.05977631, -7.81177568 ], [ 113.05953979, -7.81166267 ], [ 113.05928802, -7.81152916 ], [ 113.05895996, -7.81140614 ], [ 113.05876923, -7.8112464 ], [ 113.05857086, -7.81117439 ], [ 113.0581665, -7.81103134 ], [ 113.05754852, -7.81083441 ], [ 113.05729675, -7.81075525 ], [ 113.05692291, -7.81071568 ], [ 113.05684662, -7.81071615 ], [ 113.05658722, -7.81071711 ], [ 113.05625916, -7.81080198 ], [ 113.05609131, -7.8109479 ], [ 113.05596924, -7.81122351 ], [ 113.05581665, -7.81123972 ], [ 113.05536652, -7.81121635 ], [ 113.05496216, -7.81115055 ], [ 113.05448151, -7.81110811 ], [ 113.05436707, -7.81095982 ], [ 113.05406189, -7.81069565 ], [ 113.05388641, -7.81060505 ], [ 113.05355072, -7.81043291 ], [ 113.05323792, -7.81045961 ], [ 113.05253601, -7.81063986 ], [ 113.05210114, -7.81078768 ], [ 113.05190277, -7.81083298 ], [ 113.05178833, -7.81087065 ], [ 113.05157471, -7.81091022 ], [ 113.05132294, -7.81079149 ], [ 113.05123138, -7.81063366 ], [ 113.05117035, -7.81042528 ], [ 113.05118561, -7.81014061 ], [ 113.05123138, -7.80995703 ], [ 113.05132294, -7.8097229 ], [ 113.05123138, -7.80942583 ], [ 113.0511322, -7.80913544 ], [ 113.05084991, -7.80897903 ], [ 113.05075073, -7.80901003 ], [ 113.05059814, -7.80912018 ], [ 113.05052185, -7.80926991 ], [ 113.05032349, -7.8096199 ], [ 113.05010223, -7.80977011 ], [ 113.0497818, -7.80988979 ], [ 113.04942322, -7.81003904 ] ] ] ] } }
]
}
