{
"type": "FeatureCollection",
"name": "Kecamatan Tegalsiwalan",
"crs": { "type": "name", "properties": { "name": "urn:ogc:def:crs:OGC:1.3:CRS84" } },
"features": [
{ "type": "Feature", "properties": { "GID_0": "IDN", "NAME_0": "Indonesia", "GID_1": "IDN.11_1", "NAME_1": "Jawa Timur", "NL_NAME_1": null, "GID_2": "IDN.11.30_1", "NAME_2": "Probolinggo", "NL_NAME_2": null, "GID_3": "IDN.11.30.21_1", "NAME_3": "Tegalsiwalan", "VARNAME_3": null, "NL_NAME_3": null, "TYPE_3": "Kecamatan", "ENGTYPE_3": "Sub-district", "CC_3": "3513060", "HASC_3": null }, "geometry": { "type": "MultiPolygon", "coordinates": [ [ [ [ 113.27120209, -7.92133665 ], [ 113.27111053, -7.92118454 ], [ 113.27082825, -7.92070866 ], [ 113.27073669, -7.92042828 ], [ 113.27064514, -7.9202528 ], [ 113.27059174, -7.92014456 ], [ 113.27049255, -7.92007446 ], [ 113.27022552, -7.91998243 ], [ 113.27014923, -7.91993952 ], [ 113.26972198, -7.91970444 ], [ 113.26955414, -7.91961241 ], [ 113.26946259, -7.91951704 ], [ 113.26928711, -7.91935825 ], [ 113.26920319, -7.91928625 ], [ 113.26876831, -7.91881275 ], [ 113.2687149, -7.91875839 ], [ 113.26833344, -7.91818953 ], [ 113.26810455, -7.91780043 ], [ 113.26805115, -7.9175539 ], [ 113.26805115, -7.9172616 ], [ 113.26808929, -7.91685486 ], [ 113.26808929, -7.91596746 ], [ 113.26804352, -7.91581964 ], [ 113.26797485, -7.91553831 ], [ 113.26795197, -7.91539192 ], [ 113.26786041, -7.91487265 ], [ 113.26781464, -7.91424227 ], [ 113.26777649, -7.91371346 ], [ 113.26778412, -7.91363478 ], [ 113.26776886, -7.91327906 ], [ 113.26768494, -7.91300774 ], [ 113.26756287, -7.91263437 ], [ 113.26753235, -7.91247559 ], [ 113.26747131, -7.91176414 ], [ 113.26750946, -7.91138268 ], [ 113.26747131, -7.91078377 ], [ 113.26750183, -7.9105258 ], [ 113.26751709, -7.91037035 ], [ 113.26773071, -7.90948582 ], [ 113.26773834, -7.90935183 ], [ 113.26776886, -7.90842199 ], [ 113.26785278, -7.90762281 ], [ 113.2678299, -7.90730762 ], [ 113.26786804, -7.9071064 ], [ 113.268013, -7.90652943 ], [ 113.26798248, -7.90594339 ], [ 113.26789093, -7.90554094 ], [ 113.2678833, -7.90530396 ], [ 113.26791382, -7.90522528 ], [ 113.26799011, -7.90512609 ], [ 113.26804352, -7.90504313 ], [ 113.26805115, -7.90489912 ], [ 113.26799011, -7.90472126 ], [ 113.26776123, -7.90415287 ], [ 113.2677536, -7.90400457 ], [ 113.26782227, -7.90390348 ], [ 113.26802826, -7.90356016 ], [ 113.26802826, -7.90317535 ], [ 113.26795959, -7.90304041 ], [ 113.26779938, -7.90293074 ], [ 113.2676239, -7.90274715 ], [ 113.26753235, -7.90259457 ], [ 113.26750183, -7.90241146 ], [ 113.26753235, -7.90214634 ], [ 113.26754761, -7.90158033 ], [ 113.26744843, -7.90125895 ], [ 113.26725006, -7.90091658 ], [ 113.26701355, -7.90053558 ], [ 113.266716, -7.90009546 ], [ 113.26655579, -7.89995718 ], [ 113.26615143, -7.89960718 ], [ 113.26578522, -7.89938593 ], [ 113.26529694, -7.89922237 ], [ 113.26496124, -7.89921999 ], [ 113.26482391, -7.89909887 ], [ 113.26474762, -7.89893675 ], [ 113.26467133, -7.89876175 ], [ 113.26448822, -7.89862823 ], [ 113.26416779, -7.89838076 ], [ 113.26393127, -7.89809847 ], [ 113.26321411, -7.89710426 ], [ 113.26267242, -7.89616346 ], [ 113.26254272, -7.89604282 ], [ 113.2624588, -7.89664507 ], [ 113.2624054, -7.89692926 ], [ 113.2623291, -7.89729643 ], [ 113.26228333, -7.89747429 ], [ 113.26224518, -7.89763975 ], [ 113.26219177, -7.8978591 ], [ 113.262146, -7.8980546 ], [ 113.26210785, -7.89830875 ], [ 113.26206207, -7.89850426 ], [ 113.26200867, -7.89868784 ], [ 113.26191711, -7.89885378 ], [ 113.26180267, -7.89900827 ], [ 113.2616806, -7.89913321 ], [ 113.26147461, -7.89925861 ], [ 113.26122284, -7.89936638 ], [ 113.260849, -7.8994813 ], [ 113.26058197, -7.89957094 ], [ 113.2599411, -7.89981127 ], [ 113.25943756, -7.89998007 ], [ 113.25887299, -7.90010881 ], [ 113.25835419, -7.90014887 ], [ 113.25822449, -7.90014648 ], [ 113.25812531, -7.90014982 ], [ 113.25801086, -7.90019369 ], [ 113.25789642, -7.90036011 ], [ 113.25756073, -7.90036583 ], [ 113.25733948, -7.90037012 ], [ 113.25708008, -7.90026999 ], [ 113.25688934, -7.90013981 ], [ 113.25670624, -7.89960003 ], [ 113.25666046, -7.89915991 ], [ 113.25657654, -7.89869022 ], [ 113.25644684, -7.89811993 ], [ 113.25640106, -7.8979578 ], [ 113.25631714, -7.89768982 ], [ 113.25611877, -7.89713001 ], [ 113.2558136, -7.89639997 ], [ 113.25562286, -7.8957901 ], [ 113.25550842, -7.8947401 ], [ 113.25556946, -7.89458847 ], [ 113.25566864, -7.89434004 ], [ 113.25623322, -7.8926301 ], [ 113.25624847, -7.89232016 ], [ 113.25627899, -7.89180994 ], [ 113.25627136, -7.89153337 ], [ 113.25624847, -7.890975 ], [ 113.25623322, -7.89068556 ], [ 113.256073, -7.89008951 ], [ 113.25603485, -7.88968849 ], [ 113.25609589, -7.8883729 ], [ 113.25611877, -7.88817692 ], [ 113.25584412, -7.88810396 ], [ 113.25563812, -7.88785315 ], [ 113.25556946, -7.88726997 ], [ 113.25524902, -7.88665199 ], [ 113.25521088, -7.88640928 ], [ 113.2551651, -7.88611126 ], [ 113.25514221, -7.88581276 ], [ 113.25521851, -7.88557911 ], [ 113.25518799, -7.88517809 ], [ 113.25514221, -7.88499212 ], [ 113.25517273, -7.88477993 ], [ 113.25527954, -7.88455009 ], [ 113.25537109, -7.88429022 ], [ 113.25538635, -7.88396502 ], [ 113.25537872, -7.88365984 ], [ 113.25528717, -7.88342381 ], [ 113.25535583, -7.88321829 ], [ 113.25548553, -7.88290071 ], [ 113.25550079, -7.8828001 ], [ 113.25551605, -7.88272285 ], [ 113.25553894, -7.88256454 ], [ 113.25550842, -7.88247108 ], [ 113.25537872, -7.88235998 ], [ 113.25524902, -7.88227654 ], [ 113.25513458, -7.88195086 ], [ 113.25509644, -7.88171768 ], [ 113.25508881, -7.88154078 ], [ 113.25473022, -7.88084316 ], [ 113.2546463, -7.88065672 ], [ 113.25461578, -7.88047028 ], [ 113.25476837, -7.88036013 ], [ 113.25486755, -7.88021708 ], [ 113.25475311, -7.8799901 ], [ 113.25469208, -7.87987995 ], [ 113.25444031, -7.87987423 ], [ 113.2542572, -7.8797636 ], [ 113.25408936, -7.87944984 ], [ 113.25396729, -7.8791399 ], [ 113.2539978, -7.87878513 ], [ 113.253685, -7.8784976 ], [ 113.25341797, -7.87802362 ], [ 113.25338745, -7.87775993 ], [ 113.25331116, -7.87734318 ], [ 113.25319672, -7.8771944 ], [ 113.25295258, -7.87690639 ], [ 113.25261688, -7.87659979 ], [ 113.25246429, -7.87642431 ], [ 113.25233459, -7.87625694 ], [ 113.2520752, -7.87616491 ], [ 113.25199127, -7.87593222 ], [ 113.25228882, -7.87582016 ], [ 113.25235748, -7.8757 ], [ 113.25235748, -7.87551975 ], [ 113.25225067, -7.87541771 ], [ 113.25196838, -7.87511015 ], [ 113.25193787, -7.87502003 ], [ 113.2519989, -7.87487984 ], [ 113.25205994, -7.87476587 ], [ 113.25208282, -7.87463522 ], [ 113.25202942, -7.87450457 ], [ 113.25190735, -7.87437487 ], [ 113.25171661, -7.87431002 ], [ 113.25157928, -7.87428999 ], [ 113.2513504, -7.87421942 ], [ 113.25128937, -7.87403297 ], [ 113.25125885, -7.87372541 ], [ 113.2512207, -7.87357616 ], [ 113.25109863, -7.87350225 ], [ 113.25085449, -7.87346649 ], [ 113.25075531, -7.87326145 ], [ 113.25059509, -7.8730011 ], [ 113.25068665, -7.87292004 ], [ 113.25002289, -7.87278032 ], [ 113.24936676, -7.87256956 ], [ 113.24865723, -7.87218142 ], [ 113.24824524, -7.87197828 ], [ 113.2477417, -7.87161732 ], [ 113.24750519, -7.87118959 ], [ 113.24713898, -7.87065029 ], [ 113.24677277, -7.8700738 ], [ 113.24660492, -7.86981344 ], [ 113.24617004, -7.86944294 ], [ 113.24557495, -7.86895847 ], [ 113.24517059, -7.86862707 ], [ 113.24511719, -7.86857414 ], [ 113.24456787, -7.86814547 ], [ 113.24391174, -7.8676548 ], [ 113.24346161, -7.86730242 ], [ 113.24274445, -7.86673737 ], [ 113.24211884, -7.86624622 ], [ 113.24163818, -7.86580086 ], [ 113.24130249, -7.8655324 ], [ 113.24108124, -7.86536551 ], [ 113.2408371, -7.86529207 ], [ 113.24065399, -7.86532593 ], [ 113.24020386, -7.86546373 ], [ 113.23937988, -7.86575699 ], [ 113.23887634, -7.86591816 ], [ 113.23873901, -7.86595821 ], [ 113.23854828, -7.86608744 ], [ 113.2381897, -7.86623812 ], [ 113.23796082, -7.86629486 ], [ 113.23757935, -7.86640882 ], [ 113.23726654, -7.86648464 ], [ 113.23722839, -7.86641073 ], [ 113.23720551, -7.86629915 ], [ 113.23709869, -7.86607647 ], [ 113.23696136, -7.86585426 ], [ 113.23692322, -7.86579084 ], [ 113.23690796, -7.8656683 ], [ 113.23677826, -7.86548328 ], [ 113.23666382, -7.86523247 ], [ 113.23634338, -7.86449051 ], [ 113.23603058, -7.86388779 ], [ 113.23564911, -7.86309958 ], [ 113.23531342, -7.86239195 ], [ 113.23506165, -7.86188221 ], [ 113.23477173, -7.86129999 ], [ 113.23416138, -7.86003876 ], [ 113.23400879, -7.85972738 ], [ 113.2335434, -7.85875893 ], [ 113.23342896, -7.85857296 ], [ 113.2339325, -7.85830879 ], [ 113.23358917, -7.85748482 ], [ 113.23342133, -7.85707998 ], [ 113.23392487, -7.85687399 ], [ 113.23370361, -7.85643244 ], [ 113.23366547, -7.85630322 ], [ 113.23338318, -7.85569286 ], [ 113.23553467, -7.8563447 ], [ 113.23558807, -7.85648108 ], [ 113.23561096, -7.85660028 ], [ 113.23566437, -7.8568511 ], [ 113.23564148, -7.85699511 ], [ 113.23570251, -7.85715008 ], [ 113.23591614, -7.85734034 ], [ 113.23590851, -7.85765123 ], [ 113.23604584, -7.8577075 ], [ 113.23603058, -7.85781002 ], [ 113.23928833, -7.8585 ], [ 113.23934174, -7.85840988 ], [ 113.24028778, -7.85854006 ], [ 113.24059296, -7.85859489 ], [ 113.24056244, -7.858356 ], [ 113.2405777, -7.85816431 ], [ 113.24065399, -7.85779333 ], [ 113.24047852, -7.85756683 ], [ 113.24027252, -7.85743666 ], [ 113.24023438, -7.85706615 ], [ 113.240242, -7.85681486 ], [ 113.24026489, -7.85649204 ], [ 113.24032593, -7.85619259 ], [ 113.2401886, -7.85579872 ], [ 113.24006653, -7.85521364 ], [ 113.23984528, -7.85443735 ], [ 113.23974609, -7.85406733 ], [ 113.23976135, -7.85370827 ], [ 113.23976898, -7.85336161 ], [ 113.23983765, -7.85297871 ], [ 113.23981476, -7.85272789 ], [ 113.23975372, -7.85235739 ], [ 113.23995209, -7.85236979 ], [ 113.2414093, -7.85234022 ], [ 113.24286652, -7.85244989 ], [ 113.24301147, -7.85193014 ], [ 113.24306488, -7.85177231 ], [ 113.24311066, -7.85163307 ], [ 113.24317932, -7.85143995 ], [ 113.24324036, -7.8512702 ], [ 113.24318695, -7.85103989 ], [ 113.24308014, -7.85082006 ], [ 113.24308014, -7.85070992 ], [ 113.24330902, -7.85047007 ], [ 113.24352264, -7.85028982 ], [ 113.24362946, -7.84970999 ], [ 113.24365234, -7.84961224 ], [ 113.24138641, -7.84866858 ], [ 113.24123383, -7.8486805 ], [ 113.23986053, -7.84786797 ], [ 113.23728943, -7.84621096 ], [ 113.23740387, -7.84609222 ], [ 113.23753357, -7.84603882 ], [ 113.23777008, -7.84589958 ], [ 113.23788452, -7.84580088 ], [ 113.23800659, -7.84575415 ], [ 113.23812103, -7.84568119 ], [ 113.23825073, -7.84558201 ], [ 113.23834229, -7.84545708 ], [ 113.23852539, -7.84531164 ], [ 113.23869324, -7.84512711 ], [ 113.23879242, -7.84505987 ], [ 113.23947906, -7.84461021 ], [ 113.23985291, -7.8441 ], [ 113.24005127, -7.84385014 ], [ 113.240242, -7.84369993 ], [ 113.24047852, -7.84362984 ], [ 113.24069977, -7.84357977 ], [ 113.24085236, -7.84348631 ], [ 113.24089813, -7.84343004 ], [ 113.24089813, -7.84322023 ], [ 113.24085999, -7.84291983 ], [ 113.24086761, -7.84273005 ], [ 113.24092102, -7.8426199 ], [ 113.24128723, -7.84246016 ], [ 113.24143982, -7.84239006 ], [ 113.24156952, -7.84225988 ], [ 113.24162292, -7.84210014 ], [ 113.24137878, -7.84164 ], [ 113.24131012, -7.84150982 ], [ 113.24134064, -7.84132004 ], [ 113.24146271, -7.84104013 ], [ 113.24154663, -7.84076977 ], [ 113.24157715, -7.84062004 ], [ 113.24149323, -7.84029007 ], [ 113.2414093, -7.84004021 ], [ 113.24141693, -7.83979988 ], [ 113.24147797, -7.83951998 ], [ 113.24153137, -7.83929014 ], [ 113.24147797, -7.83921003 ], [ 113.2414093, -7.83910036 ], [ 113.24143219, -7.83867979 ], [ 113.2414093, -7.83825016 ], [ 113.24150085, -7.83759022 ], [ 113.24159241, -7.83722019 ], [ 113.24169159, -7.83704996 ], [ 113.24180603, -7.83694458 ], [ 113.24172974, -7.83673143 ], [ 113.24198914, -7.83679008 ], [ 113.24223328, -7.83669281 ], [ 113.24243164, -7.83633327 ], [ 113.24249268, -7.83600998 ], [ 113.24260712, -7.8352499 ], [ 113.24311066, -7.83539391 ], [ 113.24320221, -7.83544207 ], [ 113.2432785, -7.83547926 ], [ 113.24333191, -7.8353467 ], [ 113.24353027, -7.83489847 ], [ 113.24354553, -7.83445358 ], [ 113.24341583, -7.83411598 ], [ 113.24337769, -7.83374262 ], [ 113.2434845, -7.83329725 ], [ 113.24356842, -7.83267403 ], [ 113.24372864, -7.83185244 ], [ 113.24375916, -7.83140945 ], [ 113.24382782, -7.83082199 ], [ 113.24381256, -7.83069134 ], [ 113.24375153, -7.8301816 ], [ 113.24373627, -7.83005857 ], [ 113.2436142, -7.82987785 ], [ 113.24370575, -7.82981873 ], [ 113.2435379, -7.82979107 ], [ 113.24294281, -7.82940674 ], [ 113.24250793, -7.82903576 ], [ 113.24217224, -7.82850647 ], [ 113.24209595, -7.82834101 ], [ 113.24198914, -7.82812023 ], [ 113.24183655, -7.82783413 ], [ 113.24157715, -7.8274765 ], [ 113.24157715, -7.82713223 ], [ 113.24172211, -7.82678699 ], [ 113.24187469, -7.8265996 ], [ 113.24201965, -7.82644129 ], [ 113.24195862, -7.82624054 ], [ 113.2417984, -7.82600307 ], [ 113.24163055, -7.82569265 ], [ 113.24140167, -7.82545996 ], [ 113.24124908, -7.82542992 ], [ 113.24115753, -7.82547998 ], [ 113.24099731, -7.82557011 ], [ 113.24080658, -7.82556009 ], [ 113.24063873, -7.82551003 ], [ 113.24057007, -7.82540989 ], [ 113.24056244, -7.8252902 ], [ 113.24040222, -7.82519007 ], [ 113.24011993, -7.82500982 ], [ 113.23970032, -7.8249402 ], [ 113.23931122, -7.82492018 ], [ 113.23851013, -7.82479 ], [ 113.2376709, -7.82465982 ], [ 113.23735809, -7.82458448 ], [ 113.23703766, -7.82450008 ], [ 113.23670197, -7.82442999 ], [ 113.23651123, -7.82439995 ], [ 113.2361145, -7.82436466 ], [ 113.23594666, -7.82434988 ], [ 113.2348175, -7.82410002 ], [ 113.23409271, -7.82391977 ], [ 113.23343658, -7.82376003 ], [ 113.2328186, -7.8235898 ], [ 113.23233032, -7.82348013 ], [ 113.23181152, -7.82335997 ], [ 113.23116302, -7.82320023 ], [ 113.23062134, -7.82305002 ], [ 113.22960663, -7.82276011 ], [ 113.22904968, -7.82269001 ], [ 113.22833252, -7.82250023 ], [ 113.22825623, -7.82247877 ], [ 113.22743988, -7.82223988 ], [ 113.22689819, -7.82205009 ], [ 113.2261734, -7.82189989 ], [ 113.22610474, -7.82186937 ], [ 113.2259903, -7.82180071 ], [ 113.22596741, -7.82171297 ], [ 113.22595215, -7.82136679 ], [ 113.22593689, -7.82114553 ], [ 113.2258606, -7.82003069 ], [ 113.22579956, -7.81917238 ], [ 113.22579193, -7.81886435 ], [ 113.22580719, -7.81845474 ], [ 113.22794342, -7.81863117 ], [ 113.22794342, -7.81751299 ], [ 113.22794342, -7.81725121 ], [ 113.22796631, -7.8165803 ], [ 113.22854614, -7.81727505 ], [ 113.22946167, -7.81834745 ], [ 113.22952271, -7.81813192 ], [ 113.22957611, -7.81714058 ], [ 113.2294693, -7.81669331 ], [ 113.22948456, -7.81648684 ], [ 113.22949219, -7.8162694 ], [ 113.23114014, -7.81651449 ], [ 113.23307037, -7.81680202 ], [ 113.2337265, -7.81690025 ], [ 113.23357391, -7.8166976 ], [ 113.23317719, -7.81620836 ], [ 113.23339081, -7.81620216 ], [ 113.23531342, -7.81614542 ], [ 113.23552704, -7.81615019 ], [ 113.23577118, -7.81618929 ], [ 113.23575592, -7.81646585 ], [ 113.23603821, -7.81708002 ], [ 113.23603821, -7.81725359 ], [ 113.23695374, -7.81739378 ], [ 113.23712921, -7.81742096 ], [ 113.23709106, -7.81783962 ], [ 113.23957825, -7.81820488 ], [ 113.23946381, -7.81777954 ], [ 113.23937225, -7.81751966 ], [ 113.23921967, -7.81722021 ], [ 113.2390976, -7.81699991 ], [ 113.2389679, -7.81675625 ], [ 113.2388916, -7.81640911 ], [ 113.23898315, -7.81612492 ], [ 113.23901367, -7.81582928 ], [ 113.23910522, -7.81583261 ], [ 113.2392807, -7.81583834 ], [ 113.23952484, -7.81593323 ], [ 113.23960876, -7.81596994 ], [ 113.23972321, -7.81600285 ], [ 113.24018097, -7.81614017 ], [ 113.2405014, -7.81626987 ], [ 113.24080658, -7.81640005 ], [ 113.2412262, -7.81654978 ], [ 113.24154663, -7.81669998 ], [ 113.24185944, -7.81676006 ], [ 113.24230194, -7.81683016 ], [ 113.24255371, -7.81697989 ], [ 113.24299622, -7.81712008 ], [ 113.24337769, -7.81736994 ], [ 113.243927, -7.81751013 ], [ 113.24459839, -7.81762981 ], [ 113.24513245, -7.81780005 ], [ 113.2456665, -7.81792021 ], [ 113.24636841, -7.81822014 ], [ 113.24688721, -7.81853008 ], [ 113.24700928, -7.81869984 ], [ 113.24701691, -7.81905985 ], [ 113.24698639, -7.81941986 ], [ 113.2469635, -7.82000017 ], [ 113.24685669, -7.82059002 ], [ 113.24681854, -7.82109022 ], [ 113.24675751, -7.82165003 ], [ 113.24668121, -7.82229996 ], [ 113.24674225, -7.82277012 ], [ 113.24658966, -7.82321262 ], [ 113.24652863, -7.82339001 ], [ 113.24639893, -7.82396984 ], [ 113.24623871, -7.82452011 ], [ 113.24627686, -7.82503986 ], [ 113.246521, -7.82515001 ], [ 113.24674225, -7.82528019 ], [ 113.24726105, -7.82559013 ], [ 113.24761963, -7.82632017 ], [ 113.24784851, -7.82659006 ], [ 113.24842834, -7.82695007 ], [ 113.2485199, -7.82711983 ], [ 113.24862671, -7.82734013 ], [ 113.24874115, -7.82745981 ], [ 113.24880981, -7.82748985 ], [ 113.24893188, -7.82741022 ], [ 113.24920654, -7.82707977 ], [ 113.24939728, -7.82693005 ], [ 113.24964142, -7.82680988 ], [ 113.25, -7.82664013 ], [ 113.25007629, -7.82660007 ], [ 113.25083923, -7.82626009 ], [ 113.25093079, -7.82620001 ], [ 113.25093842, -7.82607985 ], [ 113.2508316, -7.82590008 ], [ 113.25055695, -7.82562017 ], [ 113.25028229, -7.82537985 ], [ 113.25022125, -7.82528019 ], [ 113.25051117, -7.82490015 ], [ 113.25060272, -7.82475996 ], [ 113.25064087, -7.82462978 ], [ 113.25054169, -7.82421017 ], [ 113.25048828, -7.82401991 ], [ 113.25086212, -7.82342005 ], [ 113.251091, -7.82296991 ], [ 113.25110626, -7.82287979 ], [ 113.25099182, -7.82270002 ], [ 113.25086975, -7.82256985 ], [ 113.25095367, -7.82211018 ], [ 113.25128937, -7.82139015 ], [ 113.25135803, -7.82061005 ], [ 113.251297, -7.81996012 ], [ 113.25121307, -7.81926012 ], [ 113.25121307, -7.81858015 ], [ 113.25124359, -7.81777 ], [ 113.25133514, -7.81746531 ], [ 113.25144196, -7.81713009 ], [ 113.25258636, -7.81685019 ], [ 113.25279236, -7.81690979 ], [ 113.25287628, -7.81693983 ], [ 113.25328064, -7.81677008 ], [ 113.253685, -7.81655502 ], [ 113.2538681, -7.81644011 ], [ 113.25406647, -7.81631994 ], [ 113.25434875, -7.81636 ], [ 113.25450897, -7.81637001 ], [ 113.25460815, -7.81643009 ], [ 113.2545929, -7.8166399 ], [ 113.25454712, -7.81688023 ], [ 113.25453949, -7.81712008 ], [ 113.25518799, -7.81696987 ], [ 113.25566864, -7.8168602 ], [ 113.2558136, -7.8167901 ], [ 113.25605774, -7.81649017 ], [ 113.25617218, -7.81627989 ], [ 113.25623322, -7.81614017 ], [ 113.25630951, -7.81590986 ], [ 113.25639343, -7.81582022 ], [ 113.25649261, -7.8158102 ], [ 113.2565918, -7.81592989 ], [ 113.25668335, -7.81603003 ], [ 113.25679016, -7.81639004 ], [ 113.25701141, -7.81725979 ], [ 113.25702667, -7.81780005 ], [ 113.25691986, -7.81847 ], [ 113.25669098, -7.81993008 ], [ 113.25669861, -7.82036018 ], [ 113.25675201, -7.82041979 ], [ 113.2568512, -7.82053995 ], [ 113.25733948, -7.8207202 ], [ 113.25792694, -7.82095003 ], [ 113.25861359, -7.82142019 ], [ 113.25906372, -7.82164001 ], [ 113.25959015, -7.82189989 ], [ 113.25968933, -7.82195091 ], [ 113.26046753, -7.82233 ], [ 113.26126099, -7.82282019 ], [ 113.26215363, -7.82357979 ], [ 113.26222229, -7.82363987 ], [ 113.26183319, -7.82526016 ], [ 113.26165009, -7.82660007 ], [ 113.26151276, -7.82774019 ], [ 113.26113129, -7.82988977 ], [ 113.26114655, -7.83000994 ], [ 113.26119232, -7.83033991 ], [ 113.26147461, -7.8307724 ], [ 113.26165771, -7.83078003 ], [ 113.2624588, -7.83074999 ], [ 113.26257324, -7.83074999 ], [ 113.26470947, -7.83080006 ], [ 113.26541138, -7.83081007 ], [ 113.26686859, -7.83082008 ], [ 113.26696777, -7.83082008 ], [ 113.26715088, -7.83082008 ], [ 113.26737213, -7.83081007 ], [ 113.26809692, -7.83078003 ], [ 113.26907349, -7.83072996 ], [ 113.27002716, -7.83068991 ], [ 113.27134705, -7.83061981 ], [ 113.27198029, -7.83062983 ], [ 113.27295685, -7.83058977 ], [ 113.27324677, -7.83023024 ], [ 113.27333069, -7.8295002 ], [ 113.27337646, -7.8289299 ], [ 113.27348328, -7.82799006 ], [ 113.27352142, -7.82713985 ], [ 113.2735672, -7.82624006 ], [ 113.27362061, -7.82551003 ], [ 113.27368164, -7.82456017 ], [ 113.27384186, -7.82366991 ], [ 113.27403259, -7.82259989 ], [ 113.2741394, -7.82194996 ], [ 113.27445984, -7.82143021 ], [ 113.27484131, -7.8212347 ], [ 113.27532959, -7.8210144 ], [ 113.27687836, -7.82032013 ], [ 113.27758026, -7.81992006 ], [ 113.27832031, -7.81968021 ], [ 113.27870178, -7.81960011 ], [ 113.2791214, -7.81964016 ], [ 113.27934265, -7.81965017 ], [ 113.27953339, -7.81961012 ], [ 113.280159, -7.81920004 ], [ 113.28063965, -7.81894016 ], [ 113.28101349, -7.81870985 ], [ 113.28151703, -7.81849003 ], [ 113.28147888, -7.81887007 ], [ 113.28151703, -7.81901979 ], [ 113.28160095, -7.81903982 ], [ 113.2818222, -7.81907988 ], [ 113.28193665, -7.81917 ], [ 113.28201294, -7.8193202 ], [ 113.28214264, -7.81959009 ], [ 113.28222656, -7.81980991 ], [ 113.2822113, -7.82001019 ], [ 113.28211212, -7.82019997 ], [ 113.28193665, -7.82055998 ], [ 113.2818985, -7.82085371 ], [ 113.28188324, -7.82099009 ], [ 113.28188324, -7.82125616 ], [ 113.28191376, -7.82138014 ], [ 113.2820282, -7.82155991 ], [ 113.28221893, -7.82176018 ], [ 113.28233337, -7.82195997 ], [ 113.2824707, -7.82204008 ], [ 113.28269196, -7.82209015 ], [ 113.28282166, -7.82216978 ], [ 113.2828598, -7.82228994 ], [ 113.2828598, -7.82255983 ], [ 113.28282166, -7.82277012 ], [ 113.28295135, -7.82305002 ], [ 113.28298187, -7.8233099 ], [ 113.28299713, -7.82414007 ], [ 113.28308105, -7.82456017 ], [ 113.28309631, -7.82477999 ], [ 113.28318024, -7.82484007 ], [ 113.28334808, -7.82497978 ], [ 113.28334045, -7.82510996 ], [ 113.2832489, -7.82531977 ], [ 113.28320313, -7.82549 ], [ 113.28314209, -7.82566023 ], [ 113.28291321, -7.82647991 ], [ 113.28253937, -7.82711983 ], [ 113.2824173, -7.82711983 ], [ 113.28227997, -7.82713985 ], [ 113.28222656, -7.82723999 ], [ 113.28222656, -7.82740021 ], [ 113.28237152, -7.82803011 ], [ 113.28237915, -7.82820988 ], [ 113.28231812, -7.82826996 ], [ 113.28218842, -7.82823992 ], [ 113.28209686, -7.82826996 ], [ 113.28205109, -7.82837009 ], [ 113.28199005, -7.82886982 ], [ 113.28198242, -7.82926989 ], [ 113.28205109, -7.82937002 ], [ 113.28220367, -7.82954979 ], [ 113.28222656, -7.8303299 ], [ 113.28198242, -7.83127022 ], [ 113.28191376, -7.83146 ], [ 113.28143311, -7.83289003 ], [ 113.28121948, -7.83337021 ], [ 113.28079224, -7.83420992 ], [ 113.28054047, -7.8344698 ], [ 113.28005981, -7.83452988 ], [ 113.2792511, -7.83441019 ], [ 113.27852631, -7.83427 ], [ 113.27832794, -7.83427 ], [ 113.27809906, -7.83453989 ], [ 113.27813721, -7.83481979 ], [ 113.27818298, -7.83519983 ], [ 113.27825165, -7.83561993 ], [ 113.27823639, -7.8357501 ], [ 113.27819824, -7.83590984 ], [ 113.27819061, -7.83688021 ], [ 113.27812958, -7.83748102 ], [ 113.27803802, -7.83845997 ], [ 113.27806854, -7.83866978 ], [ 113.27809143, -7.83887005 ], [ 113.27822113, -7.8393712 ], [ 113.27825165, -7.83946991 ], [ 113.27841949, -7.83992004 ], [ 113.27851868, -7.84013557 ], [ 113.27857971, -7.84027004 ], [ 113.27879333, -7.84046984 ], [ 113.27913666, -7.84071016 ], [ 113.27931976, -7.8407402 ], [ 113.28102875, -7.84092999 ], [ 113.28113556, -7.84102106 ], [ 113.28127289, -7.84113979 ], [ 113.28144073, -7.84145021 ], [ 113.28179169, -7.84231997 ], [ 113.28238678, -7.84423351 ], [ 113.28246307, -7.84446001 ], [ 113.28253937, -7.84473991 ], [ 113.2826004, -7.84497023 ], [ 113.28266144, -7.84549999 ], [ 113.28269196, -7.84572554 ], [ 113.28270721, -7.84587145 ], [ 113.2828064, -7.84599018 ], [ 113.28294373, -7.84601021 ], [ 113.28338623, -7.84606981 ], [ 113.28356934, -7.84625006 ], [ 113.28370667, -7.84649992 ], [ 113.2838974, -7.84687996 ], [ 113.28405762, -7.84708023 ], [ 113.28411865, -7.84713888 ], [ 113.28457642, -7.84763002 ], [ 113.28469086, -7.84790993 ], [ 113.28479767, -7.84829998 ], [ 113.284935, -7.84871054 ], [ 113.2849884, -7.84888983 ], [ 113.28514862, -7.84910011 ], [ 113.28530884, -7.84920979 ], [ 113.2858429, -7.84945011 ], [ 113.28649902, -7.84964991 ], [ 113.28653717, -7.84975004 ], [ 113.28649902, -7.84985018 ], [ 113.28645325, -7.84997988 ], [ 113.28649902, -7.85007 ], [ 113.28662872, -7.85016012 ], [ 113.2870636, -7.85039997 ], [ 113.28717804, -7.85055017 ], [ 113.28723907, -7.85072994 ], [ 113.28723907, -7.85091019 ], [ 113.28714752, -7.85115004 ], [ 113.28697968, -7.8513999 ], [ 113.28679657, -7.85166979 ], [ 113.28681946, -7.85176992 ], [ 113.28691864, -7.85188007 ], [ 113.28710938, -7.8520999 ], [ 113.28710938, -7.85224009 ], [ 113.28704071, -7.85239983 ], [ 113.28690338, -7.85256004 ], [ 113.28668213, -7.85271978 ], [ 113.28601837, -7.85323 ], [ 113.28594208, -7.85341978 ], [ 113.28595734, -7.85353994 ], [ 113.28608704, -7.85376978 ], [ 113.28624725, -7.8540802 ], [ 113.28645325, -7.85471439 ], [ 113.28649139, -7.85482979 ], [ 113.28672028, -7.8552599 ], [ 113.28671265, -7.85544014 ], [ 113.28661346, -7.85572004 ], [ 113.28635406, -7.85634422 ], [ 113.28629303, -7.85672998 ], [ 113.28624725, -7.85749006 ], [ 113.28633881, -7.85777998 ], [ 113.28649902, -7.85800982 ], [ 113.28663635, -7.85828018 ], [ 113.28663635, -7.85842991 ], [ 113.28656769, -7.85867023 ], [ 113.28639984, -7.85914993 ], [ 113.28637695, -7.85941982 ], [ 113.28650665, -7.8603301 ], [ 113.28662109, -7.8605299 ], [ 113.28675842, -7.86066008 ], [ 113.2869873, -7.8607502 ], [ 113.28721619, -7.86092997 ], [ 113.28739166, -7.86105013 ], [ 113.28746033, -7.86131001 ], [ 113.28749847, -7.86174011 ], [ 113.28755951, -7.86245012 ], [ 113.28778839, -7.86310005 ], [ 113.28787231, -7.86329985 ], [ 113.28791809, -7.86343002 ], [ 113.2879715, -7.86355019 ], [ 113.28798676, -7.86362171 ], [ 113.28807068, -7.86404562 ], [ 113.2881012, -7.8641901 ], [ 113.28818512, -7.86441851 ], [ 113.28846741, -7.86514997 ], [ 113.28878784, -7.86595011 ], [ 113.28901672, -7.86716986 ], [ 113.28894806, -7.86722994 ], [ 113.28883362, -7.86721992 ], [ 113.28864288, -7.86720991 ], [ 113.28858948, -7.86729002 ], [ 113.28858185, -7.86744022 ], [ 113.28865051, -7.86780977 ], [ 113.28878784, -7.86823988 ], [ 113.28904724, -7.86855984 ], [ 113.28913879, -7.86857986 ], [ 113.28923798, -7.8685298 ], [ 113.28929138, -7.86841011 ], [ 113.28939056, -7.86830997 ], [ 113.28952026, -7.86827993 ], [ 113.28964996, -7.86831999 ], [ 113.28978729, -7.86844015 ], [ 113.28987122, -7.86859989 ], [ 113.28991699, -7.86882019 ], [ 113.28994751, -7.86935997 ], [ 113.2899704, -7.87021017 ], [ 113.29003143, -7.87050009 ], [ 113.2901535, -7.87110996 ], [ 113.29019928, -7.87271976 ], [ 113.29013062, -7.87322998 ], [ 113.29012299, -7.87336493 ], [ 113.28985596, -7.87348127 ], [ 113.2895813, -7.87402964 ], [ 113.28945923, -7.87428188 ], [ 113.28945923, -7.87447405 ], [ 113.28952026, -7.87475491 ], [ 113.28961945, -7.87486315 ], [ 113.28964233, -7.8751092 ], [ 113.28933716, -7.87548065 ], [ 113.28918457, -7.87562943 ], [ 113.28910065, -7.8757925 ], [ 113.28911591, -7.87592554 ], [ 113.28913116, -7.87607336 ], [ 113.28905487, -7.87623644 ], [ 113.28898621, -7.87636995 ], [ 113.28902435, -7.87657642 ], [ 113.28907013, -7.87675381 ], [ 113.28908539, -7.87688684 ], [ 113.28901672, -7.87712383 ], [ 113.28895569, -7.87725735 ], [ 113.28874969, -7.87736177 ], [ 113.28826141, -7.87779045 ], [ 113.28826904, -7.87820768 ], [ 113.28794098, -7.87859392 ], [ 113.28778076, -7.87894964 ], [ 113.28766632, -7.87945318 ], [ 113.28741455, -7.88013506 ], [ 113.28688049, -7.88052225 ], [ 113.28673553, -7.88095188 ], [ 113.2869339, -7.88154268 ], [ 113.28692627, -7.88222265 ], [ 113.28677368, -7.88244534 ], [ 113.28696442, -7.88365746 ], [ 113.28716278, -7.88369131 ], [ 113.28720856, -7.88414001 ], [ 113.28727722, -7.88431978 ], [ 113.28733826, -7.88446999 ], [ 113.28743744, -7.88467979 ], [ 113.28762817, -7.88507986 ], [ 113.28771973, -7.88546991 ], [ 113.28775024, -7.88574982 ], [ 113.28778076, -7.8859601 ], [ 113.28755951, -7.88662004 ], [ 113.28752136, -7.88691998 ], [ 113.28752136, -7.88764 ], [ 113.28739929, -7.88853121 ], [ 113.28727722, -7.88892984 ], [ 113.28722382, -7.88901997 ], [ 113.28703308, -7.88932991 ], [ 113.28681946, -7.88955021 ], [ 113.28668213, -7.88971996 ], [ 113.28659058, -7.88993979 ], [ 113.28649902, -7.89002562 ], [ 113.28646851, -7.89045 ], [ 113.28643036, -7.89061022 ], [ 113.28600311, -7.89097977 ], [ 113.28588867, -7.89110994 ], [ 113.28585052, -7.89127016 ], [ 113.28592682, -7.89167976 ], [ 113.28618622, -7.89257002 ], [ 113.28623199, -7.89284992 ], [ 113.28620148, -7.89315987 ], [ 113.28617096, -7.89344311 ], [ 113.28611755, -7.89392996 ], [ 113.28604889, -7.89436007 ], [ 113.28598022, -7.8948698 ], [ 113.28600311, -7.89507246 ], [ 113.28601837, -7.89520979 ], [ 113.28639984, -7.89604521 ], [ 113.28646088, -7.89618015 ], [ 113.28662872, -7.89648008 ], [ 113.28672028, -7.89668989 ], [ 113.28672791, -7.89676237 ], [ 113.28677368, -7.89707994 ], [ 113.28681946, -7.8973999 ], [ 113.28710175, -7.89805984 ], [ 113.28746033, -7.89912987 ], [ 113.28751373, -7.89937258 ], [ 113.2875824, -7.89968252 ], [ 113.28762817, -7.89989996 ], [ 113.28778839, -7.90063 ], [ 113.28780365, -7.90092993 ], [ 113.28775024, -7.90115404 ], [ 113.28765106, -7.90164995 ], [ 113.28751373, -7.90199995 ], [ 113.287323, -7.90235996 ], [ 113.28717804, -7.90391016 ], [ 113.28717804, -7.90470982 ], [ 113.28700256, -7.90592003 ], [ 113.28703308, -7.90678978 ], [ 113.28704834, -7.90712023 ], [ 113.2870636, -7.90734005 ], [ 113.28723145, -7.90837002 ], [ 113.28727722, -7.9085598 ], [ 113.28736115, -7.90875006 ], [ 113.28730011, -7.90920019 ], [ 113.28726196, -7.90942001 ], [ 113.28730774, -7.90983009 ], [ 113.28726959, -7.90996742 ], [ 113.2871933, -7.91027021 ], [ 113.28717041, -7.91035748 ], [ 113.28710938, -7.91060019 ], [ 113.28707886, -7.9108901 ], [ 113.28703308, -7.91110754 ], [ 113.28701019, -7.91120005 ], [ 113.28703308, -7.91179991 ], [ 113.28684998, -7.91267014 ], [ 113.28678894, -7.91299009 ], [ 113.28675842, -7.9131999 ], [ 113.28656769, -7.91350985 ], [ 113.28652191, -7.91363001 ], [ 113.28649139, -7.91403008 ], [ 113.28650665, -7.91413021 ], [ 113.28656006, -7.91420984 ], [ 113.28676605, -7.91443777 ], [ 113.28688049, -7.91455984 ], [ 113.2869873, -7.91465998 ], [ 113.28739166, -7.91449022 ], [ 113.28752899, -7.91443014 ], [ 113.28762054, -7.91443014 ], [ 113.28768158, -7.91450977 ], [ 113.28771973, -7.91471004 ], [ 113.28775787, -7.91482019 ], [ 113.28813171, -7.91548014 ], [ 113.28823853, -7.91574097 ], [ 113.28829193, -7.91586018 ], [ 113.28839111, -7.91650009 ], [ 113.28842926, -7.91677999 ], [ 113.28849792, -7.91692019 ], [ 113.28864288, -7.91701984 ], [ 113.28887177, -7.91708994 ], [ 113.28900146, -7.91720009 ], [ 113.28908539, -7.91736364 ], [ 113.28919983, -7.9177599 ], [ 113.28923798, -7.91804981 ], [ 113.28923035, -7.91814995 ], [ 113.28919983, -7.91822004 ], [ 113.28914642, -7.91839981 ], [ 113.28914642, -7.91863012 ], [ 113.28926086, -7.91882992 ], [ 113.28952789, -7.9191699 ], [ 113.28975677, -7.91960001 ], [ 113.28984833, -7.91989899 ], [ 113.28990173, -7.9200902 ], [ 113.29016113, -7.92065001 ], [ 113.29048157, -7.92114019 ], [ 113.29075623, -7.92148018 ], [ 113.291008, -7.92172003 ], [ 113.29122162, -7.92183018 ], [ 113.29164124, -7.92202997 ], [ 113.29193115, -7.9225502 ], [ 113.29205322, -7.92275 ], [ 113.29222107, -7.92292023 ], [ 113.29245758, -7.92304993 ], [ 113.29341888, -7.92347002 ], [ 113.29370117, -7.92362022 ], [ 113.29405212, -7.92410994 ], [ 113.29438782, -7.92448997 ], [ 113.29463196, -7.9248023 ], [ 113.29495239, -7.92564011 ], [ 113.29495239, -7.92573071 ], [ 113.29496765, -7.92607021 ], [ 113.29502869, -7.92627001 ], [ 113.29516602, -7.92652893 ], [ 113.29517365, -7.92663383 ], [ 113.29521179, -7.92698145 ], [ 113.29502869, -7.92775774 ], [ 113.29441833, -7.92795944 ], [ 113.29356384, -7.92806768 ], [ 113.29281616, -7.9280839 ], [ 113.29212189, -7.92801189 ], [ 113.29149628, -7.92796707 ], [ 113.29085541, -7.92795467 ], [ 113.2900238, -7.92793941 ], [ 113.28910065, -7.9279604 ], [ 113.28842163, -7.92799616 ], [ 113.28786469, -7.92805052 ], [ 113.28655243, -7.92827797 ], [ 113.28562927, -7.92837954 ], [ 113.28451538, -7.92844868 ], [ 113.2834549, -7.92840672 ], [ 113.28286743, -7.92839384 ], [ 113.28212738, -7.92836618 ], [ 113.28138733, -7.92840195 ], [ 113.28065491, -7.92850208 ], [ 113.28020477, -7.92859268 ], [ 113.27998352, -7.92863655 ], [ 113.27945709, -7.92877102 ], [ 113.27877045, -7.92892981 ], [ 113.2780304, -7.92909479 ], [ 113.27749634, -7.92922926 ], [ 113.27702332, -7.92938185 ], [ 113.2766571, -7.92958593 ], [ 113.27629089, -7.92969179 ], [ 113.27566528, -7.92981148 ], [ 113.2752533, -7.92980146 ], [ 113.27493286, -7.92971277 ], [ 113.27457428, -7.92952871 ], [ 113.27449036, -7.92939425 ], [ 113.27428436, -7.92870092 ], [ 113.27410889, -7.92765665 ], [ 113.27394867, -7.9271574 ], [ 113.2738266, -7.92695332 ], [ 113.27328491, -7.92630863 ], [ 113.27320862, -7.92619753 ], [ 113.27328491, -7.92601299 ], [ 113.27316284, -7.92541313 ], [ 113.27305603, -7.92498493 ], [ 113.27277374, -7.92452335 ], [ 113.27256775, -7.92409563 ], [ 113.27244568, -7.92387295 ], [ 113.2722702, -7.92366791 ], [ 113.27213287, -7.9234457 ], [ 113.27214813, -7.92317104 ], [ 113.27216339, -7.92291403 ], [ 113.27206421, -7.92269135 ], [ 113.27194214, -7.9225378 ], [ 113.27185059, -7.92243528 ], [ 113.2716217, -7.9223032 ], [ 113.271492, -7.92224836 ], [ 113.27144623, -7.92212677 ], [ 113.27150726, -7.92183685 ], [ 113.27141571, -7.92152834 ], [ 113.27120209, -7.92133665 ] ] ] ] } }
]
}
