{
"type": "FeatureCollection",
"name": "Kecamatan Krejengan",
"crs": { "type": "name", "properties": { "name": "urn:ogc:def:crs:OGC:1.3:CRS84" } },
"features": [
{ "type": "Feature", "properties": { "GID_0": "IDN", "NAME_0": "Indonesia", "GID_1": "IDN.11_1", "NAME_1": "Jawa Timur", "NL_NAME_1": null, "GID_2": "IDN.11.30_1", "NAME_2": "Probolinggo", "NL_NAME_2": null, "GID_3": "IDN.11.30.9_1", "NAME_3": "Krejengan", "VARNAME_3": null, "NL_NAME_3": null, "TYPE_3": "Kecamatan", "ENGTYPE_3": "Sub-district", "CC_3": "3513160", "HASC_3": null }, "geometry": { "type": "MultiPolygon", "coordinates": [ [ [ [ 113.43504333, -7.82215977 ], [ 113.43489075, -7.82215977 ], [ 113.43470764, -7.82215977 ], [ 113.43424988, -7.82215977 ], [ 113.43350983, -7.82215023 ], [ 113.43016052, -7.82205009 ], [ 113.42971802, -7.82206011 ], [ 113.42931366, -7.82200003 ], [ 113.42922974, -7.82193995 ], [ 113.42904663, -7.8217802 ], [ 113.42883301, -7.82159996 ], [ 113.42854309, -7.8214798 ], [ 113.42796326, -7.82136011 ], [ 113.42745209, -7.82121992 ], [ 113.42736053, -7.82118988 ], [ 113.42697906, -7.82107019 ], [ 113.42684937, -7.82103014 ], [ 113.426651, -7.82101011 ], [ 113.42606354, -7.82095003 ], [ 113.42575836, -7.82090998 ], [ 113.4256897, -7.82105255 ], [ 113.42578125, -7.82119989 ], [ 113.42520142, -7.82129002 ], [ 113.42459106, -7.8214798 ], [ 113.42450714, -7.82164001 ], [ 113.42427826, -7.82179737 ], [ 113.42414856, -7.82194996 ], [ 113.4240799, -7.82208014 ], [ 113.42395782, -7.82244015 ], [ 113.42391205, -7.82251978 ], [ 113.42372894, -7.82279015 ], [ 113.42349243, -7.82305002 ], [ 113.42308044, -7.82340002 ], [ 113.42272949, -7.82349014 ], [ 113.42241669, -7.82356024 ], [ 113.42195892, -7.82361984 ], [ 113.42146301, -7.82367992 ], [ 113.42121124, -7.82372999 ], [ 113.42079163, -7.82380009 ], [ 113.42040253, -7.82385015 ], [ 113.41999054, -7.82391024 ], [ 113.41941071, -7.82395983 ], [ 113.41860199, -7.82404995 ], [ 113.41812134, -7.82410002 ], [ 113.4176178, -7.8241601 ], [ 113.41703033, -7.82422018 ], [ 113.41657257, -7.82427979 ], [ 113.4162674, -7.8242898 ], [ 113.41575623, -7.8242898 ], [ 113.41547394, -7.82427645 ], [ 113.41532898, -7.82426977 ], [ 113.41493988, -7.82426023 ], [ 113.41452789, -7.82424021 ], [ 113.41417694, -7.82425022 ], [ 113.4138031, -7.82427979 ], [ 113.41342163, -7.82437992 ], [ 113.41307068, -7.82456017 ], [ 113.41287994, -7.82467985 ], [ 113.4127121, -7.82484531 ], [ 113.41261292, -7.82495022 ], [ 113.41242981, -7.8252902 ], [ 113.41226196, -7.82565022 ], [ 113.41220093, -7.82594013 ], [ 113.41207123, -7.82652998 ], [ 113.41191864, -7.82713985 ], [ 113.41179657, -7.82778978 ], [ 113.41172791, -7.82802296 ], [ 113.41168976, -7.82813978 ], [ 113.41162109, -7.82838011 ], [ 113.41156769, -7.82852983 ], [ 113.41143799, -7.82869005 ], [ 113.41130066, -7.82886982 ], [ 113.41113281, -7.82898998 ], [ 113.41094208, -7.82904673 ], [ 113.41062927, -7.82907009 ], [ 113.41039276, -7.82903004 ], [ 113.41005707, -7.82888985 ], [ 113.40979004, -7.82876015 ], [ 113.40962982, -7.82870007 ], [ 113.40950012, -7.82873011 ], [ 113.4093399, -7.82881021 ], [ 113.40901184, -7.8294301 ], [ 113.4088974, -7.82964993 ], [ 113.40888977, -7.82995987 ], [ 113.4088974, -7.83010006 ], [ 113.40879059, -7.83031988 ], [ 113.408638, -7.83052015 ], [ 113.40814972, -7.8304801 ], [ 113.40672302, -7.83030987 ], [ 113.40525818, -7.83039999 ], [ 113.40409851, -7.83065987 ], [ 113.40392303, -7.83070993 ], [ 113.40368652, -7.83073997 ], [ 113.40312958, -7.83079004 ], [ 113.40300751, -7.83078003 ], [ 113.40274811, -7.83077002 ], [ 113.40238953, -7.83082008 ], [ 113.4020462, -7.8309598 ], [ 113.40170288, -7.8311801 ], [ 113.40116882, -7.83153009 ], [ 113.40042877, -7.83203983 ], [ 113.40046692, -7.83177996 ], [ 113.40042877, -7.83151007 ], [ 113.40029144, -7.83140993 ], [ 113.4000473, -7.83123016 ], [ 113.39988708, -7.83100986 ], [ 113.39981842, -7.83072996 ], [ 113.39984894, -7.83058977 ], [ 113.39993286, -7.83049011 ], [ 113.40000916, -7.83049011 ], [ 113.40016174, -7.83058023 ], [ 113.40052795, -7.83077002 ], [ 113.40058899, -7.83071995 ], [ 113.40059662, -7.83062983 ], [ 113.40055084, -7.83050013 ], [ 113.40022278, -7.83006001 ], [ 113.40016174, -7.82991982 ], [ 113.40019989, -7.82981014 ], [ 113.40033722, -7.82964993 ], [ 113.40049744, -7.8295598 ], [ 113.40093994, -7.82929993 ], [ 113.40110016, -7.82905006 ], [ 113.40112305, -7.82888985 ], [ 113.40107727, -7.82852983 ], [ 113.40097046, -7.82842016 ], [ 113.40081787, -7.82835007 ], [ 113.40073395, -7.82831907 ], [ 113.40039825, -7.82819986 ], [ 113.4002533, -7.82805014 ], [ 113.40010071, -7.82777977 ], [ 113.39993286, -7.82751989 ], [ 113.39974213, -7.82742023 ], [ 113.39954376, -7.82738018 ], [ 113.39949799, -7.82725 ], [ 113.39935303, -7.82680988 ], [ 113.39927673, -7.82680988 ], [ 113.39919281, -7.82687998 ], [ 113.39894104, -7.82707024 ], [ 113.39884949, -7.82701015 ], [ 113.39852142, -7.82676983 ], [ 113.39846802, -7.82688999 ], [ 113.39846039, -7.82707977 ], [ 113.39845276, -7.82742977 ], [ 113.39836121, -7.82762003 ], [ 113.39817047, -7.8276701 ], [ 113.39806366, -7.82755995 ], [ 113.39797974, -7.82740021 ], [ 113.39787292, -7.82718992 ], [ 113.39778137, -7.82718992 ], [ 113.39759064, -7.82727003 ], [ 113.3973999, -7.82725 ], [ 113.39743042, -7.8271699 ], [ 113.39753723, -7.82705021 ], [ 113.39766693, -7.82690001 ], [ 113.39771271, -7.82672977 ], [ 113.39766693, -7.82656002 ], [ 113.39746857, -7.82588005 ], [ 113.3974762, -7.82560015 ], [ 113.39756775, -7.82557011 ], [ 113.39790344, -7.82549 ], [ 113.39785767, -7.82538986 ], [ 113.39777374, -7.82530022 ], [ 113.39718628, -7.82492018 ], [ 113.39707947, -7.82493019 ], [ 113.39685822, -7.82496023 ], [ 113.3967514, -7.82487011 ], [ 113.3967514, -7.82479 ], [ 113.39685059, -7.82465982 ], [ 113.39730072, -7.82421017 ], [ 113.39730835, -7.82405996 ], [ 113.39724731, -7.82391977 ], [ 113.39714813, -7.8238802 ], [ 113.39692688, -7.82389021 ], [ 113.39676666, -7.82394981 ], [ 113.39659882, -7.82411003 ], [ 113.39646912, -7.82420015 ], [ 113.39640808, -7.82415009 ], [ 113.39624786, -7.82391024 ], [ 113.39604187, -7.82367992 ], [ 113.3957901, -7.82343006 ], [ 113.39585114, -7.8233099 ], [ 113.39611053, -7.82298994 ], [ 113.39655304, -7.82261992 ], [ 113.39653015, -7.8224802 ], [ 113.3964386, -7.82235003 ], [ 113.3963089, -7.82224989 ], [ 113.39617157, -7.82222986 ], [ 113.39600372, -7.8222599 ], [ 113.39592743, -7.82236004 ], [ 113.39592743, -7.82250023 ], [ 113.3959198, -7.8228302 ], [ 113.3956604, -7.82264996 ], [ 113.39546967, -7.82241011 ], [ 113.39541626, -7.8222599 ], [ 113.39544678, -7.82212019 ], [ 113.3955307, -7.82205009 ], [ 113.39569092, -7.82198 ], [ 113.39595032, -7.82185984 ], [ 113.39604187, -7.82172012 ], [ 113.39608002, -7.82153988 ], [ 113.39607239, -7.82110977 ], [ 113.39601135, -7.82094002 ], [ 113.39586639, -7.8207798 ], [ 113.39575195, -7.82075024 ], [ 113.3953476, -7.82075977 ], [ 113.3952713, -7.82067013 ], [ 113.39518738, -7.82045984 ], [ 113.39508057, -7.8203702 ], [ 113.39498138, -7.82038021 ], [ 113.39478302, -7.8203702 ], [ 113.39478302, -7.82026005 ], [ 113.39478302, -7.82000017 ], [ 113.39454651, -7.81994009 ], [ 113.39450073, -7.81985998 ], [ 113.39450073, -7.81974983 ], [ 113.39459229, -7.81954002 ], [ 113.39459991, -7.81942987 ], [ 113.39450836, -7.81936979 ], [ 113.39437103, -7.81936979 ], [ 113.39424133, -7.81942987 ], [ 113.39405823, -7.81961012 ], [ 113.39385986, -7.81978989 ], [ 113.39372253, -7.81975985 ], [ 113.39350128, -7.81953001 ], [ 113.39320374, -7.81922007 ], [ 113.39305115, -7.81917 ], [ 113.39243317, -7.81908989 ], [ 113.39235687, -7.81912994 ], [ 113.39224243, -7.81901979 ], [ 113.39217377, -7.81884003 ], [ 113.39203644, -7.81852007 ], [ 113.39190674, -7.81842995 ], [ 113.39176941, -7.81842995 ], [ 113.39150238, -7.81837988 ], [ 113.39144897, -7.81829977 ], [ 113.39148712, -7.81823015 ], [ 113.39161682, -7.81800985 ], [ 113.3915863, -7.81786013 ], [ 113.39147949, -7.81765985 ], [ 113.39131927, -7.81747007 ], [ 113.39111328, -7.81737995 ], [ 113.39100647, -7.81728983 ], [ 113.39096832, -7.8171401 ], [ 113.39092255, -7.81697989 ], [ 113.3896637, -7.81730318 ], [ 113.3890686, -7.81746006 ], [ 113.38831329, -7.8176899 ], [ 113.38803101, -7.81782007 ], [ 113.38787079, -7.81788015 ], [ 113.38722992, -7.81807995 ], [ 113.38687897, -7.81798983 ], [ 113.38680267, -7.81798553 ], [ 113.38653564, -7.81797075 ], [ 113.38635254, -7.81795979 ], [ 113.38591766, -7.81795979 ], [ 113.38551331, -7.81800985 ], [ 113.38500214, -7.81814003 ], [ 113.38465118, -7.8183198 ], [ 113.38433838, -7.81850004 ], [ 113.38423157, -7.81892014 ], [ 113.38414001, -7.81962013 ], [ 113.38404846, -7.81977987 ], [ 113.38382721, -7.82004976 ], [ 113.38374329, -7.82015991 ], [ 113.38353729, -7.82039022 ], [ 113.38343048, -7.82053995 ], [ 113.38339996, -7.82062006 ], [ 113.3832016, -7.82107019 ], [ 113.38310242, -7.82110977 ], [ 113.38262939, -7.82123995 ], [ 113.3825531, -7.82130003 ], [ 113.38247681, -7.82136011 ], [ 113.38243866, -7.8214798 ], [ 113.38243866, -7.82167006 ], [ 113.38252258, -7.82186985 ], [ 113.38252258, -7.82202005 ], [ 113.38243103, -7.82219982 ], [ 113.38234711, -7.82242012 ], [ 113.38215637, -7.82284021 ], [ 113.38204956, -7.82285023 ], [ 113.38191986, -7.82279015 ], [ 113.38186646, -7.82273006 ], [ 113.38175201, -7.82258987 ], [ 113.38169098, -7.82253981 ], [ 113.38157654, -7.82250023 ], [ 113.38160706, -7.82216978 ], [ 113.38162994, -7.82184982 ], [ 113.38162231, -7.82145023 ], [ 113.38160706, -7.82115984 ], [ 113.38163757, -7.82092237 ], [ 113.38166809, -7.82073021 ], [ 113.38179779, -7.82041979 ], [ 113.38191986, -7.82005978 ], [ 113.38201141, -7.81945992 ], [ 113.3821106, -7.81894016 ], [ 113.38220978, -7.81857014 ], [ 113.38236237, -7.81800985 ], [ 113.38243866, -7.81763983 ], [ 113.38249207, -7.81734991 ], [ 113.38253784, -7.81701756 ], [ 113.38256073, -7.8168602 ], [ 113.38262939, -7.81638002 ], [ 113.38265991, -7.81615973 ], [ 113.38269806, -7.81587982 ], [ 113.38279724, -7.81533003 ], [ 113.38291168, -7.81479979 ], [ 113.38301086, -7.81442022 ], [ 113.38304901, -7.81409979 ], [ 113.38301086, -7.81366014 ], [ 113.38289642, -7.81310987 ], [ 113.38276672, -7.81270981 ], [ 113.38269043, -7.81252766 ], [ 113.38256836, -7.81225014 ], [ 113.38227844, -7.81176996 ], [ 113.38202667, -7.81126022 ], [ 113.38178253, -7.81076002 ], [ 113.3815918, -7.81037998 ], [ 113.38150787, -7.81007004 ], [ 113.38150787, -7.80957985 ], [ 113.3815155, -7.80924225 ], [ 113.38153076, -7.80879021 ], [ 113.38156128, -7.80837011 ], [ 113.38153076, -7.80811024 ], [ 113.38144684, -7.80784988 ], [ 113.38131714, -7.80765009 ], [ 113.38118744, -7.80747986 ], [ 113.380867, -7.80716991 ], [ 113.38041687, -7.80681992 ], [ 113.38025665, -7.8066659 ], [ 113.38004303, -7.8064599 ], [ 113.37953186, -7.80585003 ], [ 113.37908173, -7.80529022 ], [ 113.37857056, -7.80471992 ], [ 113.37818909, -7.80426979 ], [ 113.37802124, -7.80405998 ], [ 113.3779068, -7.80388021 ], [ 113.37786102, -7.80365992 ], [ 113.37779999, -7.80300999 ], [ 113.37779236, -7.80291271 ], [ 113.37773132, -7.80237007 ], [ 113.37772369, -7.80192995 ], [ 113.37773132, -7.80163002 ], [ 113.37776947, -7.80133009 ], [ 113.37779236, -7.80121946 ], [ 113.37786865, -7.80084991 ], [ 113.37802124, -7.80019999 ], [ 113.37815857, -7.79980993 ], [ 113.37821198, -7.79959011 ], [ 113.37818909, -7.79933977 ], [ 113.37809753, -7.79919004 ], [ 113.3779068, -7.79903984 ], [ 113.37753296, -7.79882002 ], [ 113.37698364, -7.79855061 ], [ 113.37687683, -7.79850006 ], [ 113.37645721, -7.79831982 ], [ 113.376091, -7.79806995 ], [ 113.37593079, -7.79782915 ], [ 113.37589264, -7.79759979 ], [ 113.37587738, -7.7973299 ], [ 113.37606812, -7.79707003 ], [ 113.37634277, -7.79678011 ], [ 113.37654877, -7.79651022 ], [ 113.37654114, -7.79636765 ], [ 113.37654114, -7.79623985 ], [ 113.37641144, -7.79590988 ], [ 113.37612915, -7.79567003 ], [ 113.37593079, -7.7954402 ], [ 113.37574005, -7.79525423 ], [ 113.37559509, -7.79499817 ], [ 113.37547302, -7.79476976 ], [ 113.37519836, -7.79430437 ], [ 113.37499237, -7.79399014 ], [ 113.37493134, -7.79389 ], [ 113.37489319, -7.79375982 ], [ 113.37490845, -7.79362011 ], [ 113.37493134, -7.79346418 ], [ 113.37497711, -7.79332018 ], [ 113.375, -7.79324007 ], [ 113.37522125, -7.79276991 ], [ 113.37526703, -7.79251003 ], [ 113.37529755, -7.79197264 ], [ 113.37532043, -7.79161978 ], [ 113.37538147, -7.79119015 ], [ 113.37550354, -7.7907691 ], [ 113.37557983, -7.79051018 ], [ 113.37568665, -7.79030466 ], [ 113.37580872, -7.79007006 ], [ 113.37605286, -7.78968477 ], [ 113.37619781, -7.78945017 ], [ 113.37654877, -7.78881979 ], [ 113.37677002, -7.78836012 ], [ 113.37693787, -7.78795004 ], [ 113.3769455, -7.78787661 ], [ 113.37696075, -7.78767014 ], [ 113.37699127, -7.78727007 ], [ 113.37702942, -7.78690004 ], [ 113.37716675, -7.78644991 ], [ 113.37743378, -7.78597021 ], [ 113.37773895, -7.78569984 ], [ 113.37805939, -7.78549004 ], [ 113.37854004, -7.78528976 ], [ 113.3789978, -7.78505993 ], [ 113.37924194, -7.78482008 ], [ 113.3794632, -7.78493023 ], [ 113.37953186, -7.78495979 ], [ 113.37968445, -7.78503418 ], [ 113.37992096, -7.78515005 ], [ 113.38024902, -7.78524113 ], [ 113.38046265, -7.78529978 ], [ 113.38124847, -7.78552008 ], [ 113.38169098, -7.78562737 ], [ 113.38182068, -7.78565788 ], [ 113.38195038, -7.78568983 ], [ 113.38207245, -7.78571367 ], [ 113.38230896, -7.78575993 ], [ 113.38259125, -7.78580999 ], [ 113.38316345, -7.78583002 ], [ 113.38379669, -7.78586006 ], [ 113.38464355, -7.78599024 ], [ 113.38522339, -7.78613997 ], [ 113.38574982, -7.78626013 ], [ 113.3861084, -7.78629017 ], [ 113.3862381, -7.78628016 ], [ 113.3864975, -7.78614998 ], [ 113.38757324, -7.7852602 ], [ 113.38813019, -7.78479004 ], [ 113.3883667, -7.78459978 ], [ 113.38912964, -7.78399992 ], [ 113.38961792, -7.78360987 ], [ 113.39008331, -7.78323984 ], [ 113.39057159, -7.78283024 ], [ 113.39073181, -7.78272343 ], [ 113.39083099, -7.78266001 ], [ 113.39192963, -7.78177977 ], [ 113.39237213, -7.78157997 ], [ 113.3931427, -7.78136015 ], [ 113.39408112, -7.78113985 ], [ 113.39511108, -7.78091002 ], [ 113.39607239, -7.78072977 ], [ 113.39697266, -7.78048992 ], [ 113.39752197, -7.78034019 ], [ 113.39798737, -7.78013992 ], [ 113.3983078, -7.78000021 ], [ 113.39878082, -7.77909994 ], [ 113.39910889, -7.77847004 ], [ 113.39923859, -7.77752018 ], [ 113.39926147, -7.77732992 ], [ 113.3992691, -7.77724981 ], [ 113.39929962, -7.77610016 ], [ 113.39929962, -7.77598 ], [ 113.39929962, -7.77553988 ], [ 113.39917755, -7.77495003 ], [ 113.39906311, -7.77455997 ], [ 113.3990097, -7.77419662 ], [ 113.39906311, -7.77408981 ], [ 113.39904785, -7.77400017 ], [ 113.39904022, -7.77390003 ], [ 113.39901733, -7.77378988 ], [ 113.39900208, -7.77361012 ], [ 113.3989563, -7.77318001 ], [ 113.3990097, -7.7730298 ], [ 113.39914703, -7.77256012 ], [ 113.39916229, -7.77232981 ], [ 113.39923096, -7.77225018 ], [ 113.3996582, -7.77172995 ], [ 113.40013885, -7.77112007 ], [ 113.40019226, -7.77107 ], [ 113.40067291, -7.77043009 ], [ 113.40110779, -7.76975012 ], [ 113.40155792, -7.76927996 ], [ 113.40202332, -7.76884985 ], [ 113.402771, -7.76837015 ], [ 113.40381622, -7.76769018 ], [ 113.40473938, -7.76715994 ], [ 113.40485382, -7.7671051 ], [ 113.40500641, -7.76703215 ], [ 113.40535736, -7.76686001 ], [ 113.40548706, -7.76680994 ], [ 113.40572357, -7.7667098 ], [ 113.40589905, -7.76664019 ], [ 113.40633392, -7.76650238 ], [ 113.40647125, -7.76645994 ], [ 113.40696716, -7.7664299 ], [ 113.40705872, -7.76641989 ], [ 113.40756226, -7.76643991 ], [ 113.40811157, -7.7664299 ], [ 113.40850067, -7.7665 ], [ 113.40885162, -7.76654005 ], [ 113.40881348, -7.76675987 ], [ 113.40876007, -7.76714373 ], [ 113.40876007, -7.76725006 ], [ 113.40878296, -7.76756001 ], [ 113.40843964, -7.76748991 ], [ 113.40828705, -7.76914978 ], [ 113.40860748, -7.76933002 ], [ 113.40853882, -7.76960993 ], [ 113.40791321, -7.76949978 ], [ 113.40747833, -7.77057981 ], [ 113.40738678, -7.77080011 ], [ 113.40760803, -7.77096987 ], [ 113.40727997, -7.77187014 ], [ 113.40693665, -7.77185011 ], [ 113.40654755, -7.77223015 ], [ 113.40619659, -7.77253008 ], [ 113.40611267, -7.77264977 ], [ 113.4059906, -7.77285004 ], [ 113.40592194, -7.7730298 ], [ 113.40593719, -7.77334976 ], [ 113.40596771, -7.77358198 ], [ 113.40599823, -7.77391005 ], [ 113.40605164, -7.77435017 ], [ 113.40613556, -7.77442741 ], [ 113.40635681, -7.77464008 ], [ 113.40650177, -7.77476978 ], [ 113.4069519, -7.77537012 ], [ 113.40712738, -7.77576017 ], [ 113.40743256, -7.7760601 ], [ 113.4079895, -7.77635002 ], [ 113.40849304, -7.77645016 ], [ 113.40914917, -7.77658987 ], [ 113.40962219, -7.7767601 ], [ 113.41010284, -7.77705002 ], [ 113.41024017, -7.77735996 ], [ 113.41030121, -7.77776003 ], [ 113.41033173, -7.77815008 ], [ 113.41026306, -7.7782979 ], [ 113.41017914, -7.77847004 ], [ 113.41007996, -7.77868986 ], [ 113.41004181, -7.77884007 ], [ 113.40988159, -7.7792902 ], [ 113.40953827, -7.77993011 ], [ 113.40950775, -7.78013992 ], [ 113.4093399, -7.78049994 ], [ 113.40911102, -7.78087997 ], [ 113.40885162, -7.7810998 ], [ 113.40859985, -7.78127003 ], [ 113.40852356, -7.78130007 ], [ 113.40836334, -7.78136015 ], [ 113.40805817, -7.78147984 ], [ 113.40775299, -7.78157997 ], [ 113.40746307, -7.78169012 ], [ 113.40731812, -7.78176022 ], [ 113.40724945, -7.78178978 ], [ 113.4072113, -7.78185987 ], [ 113.40721893, -7.78198004 ], [ 113.40737915, -7.78247023 ], [ 113.40751648, -7.78290987 ], [ 113.40772247, -7.78349018 ], [ 113.40808105, -7.78429985 ], [ 113.40844727, -7.78509998 ], [ 113.40875244, -7.78567982 ], [ 113.40886688, -7.7858901 ], [ 113.40892792, -7.78600979 ], [ 113.40904999, -7.78599024 ], [ 113.40927887, -7.78597021 ], [ 113.40968323, -7.78582001 ], [ 113.41007233, -7.78564978 ], [ 113.41031647, -7.78543997 ], [ 113.41053009, -7.78522015 ], [ 113.4105835, -7.78496981 ], [ 113.41056824, -7.78452015 ], [ 113.41062164, -7.78392982 ], [ 113.41075897, -7.78318024 ], [ 113.41079712, -7.78289986 ], [ 113.4108429, -7.78270006 ], [ 113.41104126, -7.78223991 ], [ 113.41130829, -7.78167915 ], [ 113.41143036, -7.78142977 ], [ 113.41152191, -7.78122902 ], [ 113.41162872, -7.78099012 ], [ 113.41181183, -7.78060007 ], [ 113.41208649, -7.77993011 ], [ 113.41223145, -7.77959013 ], [ 113.412323, -7.77944994 ], [ 113.41242218, -7.77940989 ], [ 113.41269684, -7.77939987 ], [ 113.41294861, -7.7794199 ], [ 113.41325378, -7.77946997 ], [ 113.41349792, -7.77961016 ], [ 113.4139328, -7.77993011 ], [ 113.41404724, -7.78002882 ], [ 113.41426849, -7.78022003 ], [ 113.4145813, -7.78045988 ], [ 113.41471863, -7.78053999 ], [ 113.41506195, -7.78072977 ], [ 113.41545868, -7.78091002 ], [ 113.41581726, -7.78093481 ], [ 113.41589355, -7.78094006 ], [ 113.41649628, -7.78105021 ], [ 113.41732025, -7.7802 ], [ 113.41766357, -7.77987003 ], [ 113.41803741, -7.77950001 ], [ 113.41905212, -7.77844 ], [ 113.42008972, -7.77739 ], [ 113.42092896, -7.77654982 ], [ 113.42192841, -7.77553988 ], [ 113.42227173, -7.77521992 ], [ 113.42234802, -7.77514267 ], [ 113.42259216, -7.77489996 ], [ 113.42339325, -7.77405977 ], [ 113.42346954, -7.77403212 ], [ 113.42391205, -7.77386999 ], [ 113.42471313, -7.77370977 ], [ 113.42555237, -7.7736001 ], [ 113.42635345, -7.77344561 ], [ 113.42649078, -7.77341986 ], [ 113.42693329, -7.77336979 ], [ 113.42711639, -7.77334023 ], [ 113.42771149, -7.77320004 ], [ 113.4281311, -7.77316999 ], [ 113.42841339, -7.77316999 ], [ 113.42861176, -7.77320099 ], [ 113.42874146, -7.77323008 ], [ 113.42865753, -7.77354002 ], [ 113.42878723, -7.77356339 ], [ 113.43022919, -7.77381897 ], [ 113.43101501, -7.77400351 ], [ 113.43117523, -7.77417564 ], [ 113.43148804, -7.77426767 ], [ 113.43154144, -7.77415514 ], [ 113.43172455, -7.77418423 ], [ 113.43186188, -7.77425289 ], [ 113.43228149, -7.77426195 ], [ 113.43244934, -7.77422619 ], [ 113.43262482, -7.77429485 ], [ 113.43286133, -7.77438593 ], [ 113.43295288, -7.77453566 ], [ 113.43322754, -7.77461481 ], [ 113.43334961, -7.77459192 ], [ 113.43351746, -7.77450943 ], [ 113.43362427, -7.77448559 ], [ 113.43391418, -7.77437973 ], [ 113.43408966, -7.77430964 ], [ 113.43431091, -7.77451611 ], [ 113.43450165, -7.77448273 ], [ 113.43465424, -7.7744565 ], [ 113.43505859, -7.77447748 ], [ 113.43509674, -7.77440786 ], [ 113.43516541, -7.7741065 ], [ 113.43541718, -7.77413845 ], [ 113.43550873, -7.77415085 ], [ 113.43570709, -7.77408028 ], [ 113.43588257, -7.77410269 ], [ 113.43598938, -7.77415991 ], [ 113.43614197, -7.77424002 ], [ 113.43666077, -7.77431774 ], [ 113.43696594, -7.77436209 ], [ 113.43718719, -7.77436924 ], [ 113.43727875, -7.7743721 ], [ 113.43787384, -7.77449989 ], [ 113.43801117, -7.7745285 ], [ 113.43802643, -7.77464008 ], [ 113.43810272, -7.7746892 ], [ 113.43823242, -7.77466679 ], [ 113.43843842, -7.77476931 ], [ 113.43848419, -7.77490187 ], [ 113.43871307, -7.77514505 ], [ 113.43891907, -7.77523279 ], [ 113.43917847, -7.77530527 ], [ 113.43927002, -7.77529001 ], [ 113.43940735, -7.77528667 ], [ 113.43966675, -7.77528 ], [ 113.43985748, -7.77527905 ], [ 113.44012451, -7.77538109 ], [ 113.44015503, -7.77549171 ], [ 113.439888, -7.77615929 ], [ 113.43997955, -7.77640343 ], [ 113.44010925, -7.77651358 ], [ 113.44033051, -7.77654171 ], [ 113.4404068, -7.77664518 ], [ 113.44043732, -7.77672625 ], [ 113.44059753, -7.77674007 ], [ 113.44081116, -7.77654648 ], [ 113.44091034, -7.77650881 ], [ 113.44113159, -7.77650738 ], [ 113.44133759, -7.77662468 ], [ 113.44139862, -7.77677965 ], [ 113.4414978, -7.77685356 ], [ 113.44160461, -7.77683067 ], [ 113.44174194, -7.77688885 ], [ 113.44195557, -7.77730942 ], [ 113.44204712, -7.77710772 ], [ 113.44203949, -7.77741003 ], [ 113.44200134, -7.77775002 ], [ 113.44197083, -7.77815008 ], [ 113.44197845, -7.77851009 ], [ 113.44199371, -7.77895021 ], [ 113.44203186, -7.77930021 ], [ 113.44204712, -7.77956009 ], [ 113.44206238, -7.77986002 ], [ 113.44206238, -7.78018999 ], [ 113.44203186, -7.78044987 ], [ 113.4420166, -7.78076982 ], [ 113.4420166, -7.78086519 ], [ 113.44200897, -7.78120995 ], [ 113.44204712, -7.78221989 ], [ 113.44207001, -7.78277016 ], [ 113.44207001, -7.78304005 ], [ 113.44278717, -7.78316021 ], [ 113.44407654, -7.78322983 ], [ 113.44525909, -7.78328991 ], [ 113.44592285, -7.7834301 ], [ 113.44654083, -7.78357983 ], [ 113.44715118, -7.78389978 ], [ 113.44756317, -7.78431988 ], [ 113.44792938, -7.78480005 ], [ 113.44812775, -7.78523016 ], [ 113.44828033, -7.78556013 ], [ 113.44837952, -7.78591251 ], [ 113.44824982, -7.78652 ], [ 113.44818115, -7.78697014 ], [ 113.44809723, -7.78766012 ], [ 113.44808197, -7.78782988 ], [ 113.44802856, -7.78814983 ], [ 113.44796753, -7.7887001 ], [ 113.44792938, -7.78909731 ], [ 113.44789886, -7.78939009 ], [ 113.44780731, -7.79006004 ], [ 113.44776154, -7.79062366 ], [ 113.44773865, -7.79083014 ], [ 113.44772339, -7.79114008 ], [ 113.44774628, -7.79129982 ], [ 113.44779968, -7.79136992 ], [ 113.44802856, -7.79162216 ], [ 113.44864655, -7.79230022 ], [ 113.44888306, -7.79257011 ], [ 113.44892883, -7.7926302 ], [ 113.44904327, -7.79287004 ], [ 113.4492569, -7.79354 ], [ 113.4493103, -7.79361916 ], [ 113.44941711, -7.79378986 ], [ 113.45140076, -7.7947402 ], [ 113.45146942, -7.79476833 ], [ 113.45207214, -7.79507017 ], [ 113.45263672, -7.79530001 ], [ 113.45252991, -7.79622984 ], [ 113.45252991, -7.79638004 ], [ 113.45269012, -7.79654741 ], [ 113.45278931, -7.79664993 ], [ 113.45301056, -7.79682016 ], [ 113.45330811, -7.7969799 ], [ 113.45339966, -7.79705 ], [ 113.45355225, -7.7972002 ], [ 113.45374298, -7.79747009 ], [ 113.45378113, -7.79756021 ], [ 113.45394897, -7.79775 ], [ 113.45432281, -7.79817581 ], [ 113.45449829, -7.79837894 ], [ 113.45456696, -7.79847002 ], [ 113.45462799, -7.79855013 ], [ 113.45478058, -7.79869986 ], [ 113.45494843, -7.79892015 ], [ 113.45522308, -7.79931021 ], [ 113.45558167, -7.79961014 ], [ 113.45574951, -7.79976988 ], [ 113.45588684, -7.8000598 ], [ 113.45593262, -7.800179 ], [ 113.45599365, -7.80032015 ], [ 113.45599365, -7.80084991 ], [ 113.45606995, -7.80172014 ], [ 113.45606995, -7.80190992 ], [ 113.45610809, -7.80248022 ], [ 113.45610046, -7.8031702 ], [ 113.45603943, -7.80362988 ], [ 113.45597076, -7.80423021 ], [ 113.45586395, -7.80489349 ], [ 113.45584869, -7.80496979 ], [ 113.45571899, -7.80574989 ], [ 113.45565796, -7.80615997 ], [ 113.45559692, -7.80651999 ], [ 113.45549774, -7.80736017 ], [ 113.45545959, -7.80771017 ], [ 113.45545197, -7.80834007 ], [ 113.45540619, -7.80878019 ], [ 113.45539856, -7.80914021 ], [ 113.45522308, -7.80921984 ], [ 113.4549408, -7.80910015 ], [ 113.45467377, -7.80904007 ], [ 113.45450592, -7.80901003 ], [ 113.45433807, -7.80897999 ], [ 113.45394897, -7.80895996 ], [ 113.45387268, -7.80895996 ], [ 113.45342255, -7.80891991 ], [ 113.45291901, -7.80890989 ], [ 113.45256042, -7.80894995 ], [ 113.4523468, -7.80903006 ], [ 113.45214081, -7.80917978 ], [ 113.45197296, -7.80944014 ], [ 113.45175171, -7.81002998 ], [ 113.45159149, -7.81052017 ], [ 113.45146942, -7.81081009 ], [ 113.45127106, -7.81114006 ], [ 113.45111084, -7.81138992 ], [ 113.45098877, -7.81167984 ], [ 113.45082855, -7.81175995 ], [ 113.45069885, -7.81206989 ], [ 113.45059204, -7.81236982 ], [ 113.45043182, -7.8125701 ], [ 113.4503479, -7.81267023 ], [ 113.45037079, -7.81275988 ], [ 113.45056152, -7.81278992 ], [ 113.45066071, -7.81279993 ], [ 113.45072174, -7.81286001 ], [ 113.45027161, -7.81408024 ], [ 113.45023346, -7.81419992 ], [ 113.4500885, -7.81444979 ], [ 113.44989777, -7.81482983 ], [ 113.44973755, -7.81500006 ], [ 113.4495163, -7.81519985 ], [ 113.44927979, -7.81534004 ], [ 113.44911957, -7.81522989 ], [ 113.44882202, -7.81516981 ], [ 113.44869232, -7.81517982 ], [ 113.44856262, -7.81534004 ], [ 113.44844818, -7.81564999 ], [ 113.44845581, -7.81596184 ], [ 113.44846344, -7.81618977 ], [ 113.44847107, -7.81655979 ], [ 113.44831848, -7.81742001 ], [ 113.44818115, -7.81799984 ], [ 113.44809723, -7.81818008 ], [ 113.44792175, -7.81832981 ], [ 113.44782257, -7.81843996 ], [ 113.44766998, -7.81857014 ], [ 113.44728088, -7.81879997 ], [ 113.44676208, -7.8190999 ], [ 113.44606781, -7.81943989 ], [ 113.44586945, -7.81957006 ], [ 113.44577789, -7.81968021 ], [ 113.44577026, -7.81993008 ], [ 113.44583893, -7.82021999 ], [ 113.44586945, -7.82033014 ], [ 113.44582367, -7.82043982 ], [ 113.44554138, -7.82060003 ], [ 113.44528198, -7.82069016 ], [ 113.44480896, -7.82078981 ], [ 113.44429016, -7.82097006 ], [ 113.44412231, -7.82107019 ], [ 113.44405365, -7.82116985 ], [ 113.44412231, -7.82144022 ], [ 113.44423676, -7.82168007 ], [ 113.4444809, -7.82196999 ], [ 113.44483948, -7.82234001 ], [ 113.44494629, -7.82253408 ], [ 113.44500732, -7.82263994 ], [ 113.44509125, -7.82274008 ], [ 113.44489288, -7.82282019 ], [ 113.44471741, -7.82286692 ], [ 113.44455719, -7.82290983 ], [ 113.44441223, -7.82285976 ], [ 113.44406891, -7.82261992 ], [ 113.44387054, -7.82251978 ], [ 113.44358063, -7.82252979 ], [ 113.44332886, -7.82247019 ], [ 113.44338989, -7.82233 ], [ 113.44345856, -7.82204008 ], [ 113.44335938, -7.82207012 ], [ 113.44315338, -7.82212019 ], [ 113.44267273, -7.82239008 ], [ 113.44216919, -7.82257986 ], [ 113.44140625, -7.8227706 ], [ 113.44132996, -7.82279015 ], [ 113.44088745, -7.82284021 ], [ 113.44000244, -7.82294989 ], [ 113.43978119, -7.82297993 ], [ 113.43907928, -7.82293987 ], [ 113.43882751, -7.82292986 ], [ 113.4384613, -7.8228898 ], [ 113.43833923, -7.82275009 ], [ 113.43824768, -7.82256985 ], [ 113.43820953, -7.82250023 ], [ 113.43813324, -7.82239008 ], [ 113.43801117, -7.82233 ], [ 113.43778992, -7.82230997 ], [ 113.43749237, -7.82241011 ], [ 113.43702698, -7.82231998 ], [ 113.43682098, -7.82227278 ], [ 113.43643951, -7.82221985 ], [ 113.436203, -7.82220984 ], [ 113.43554688, -7.82220984 ], [ 113.4352417, -7.82217979 ], [ 113.43504333, -7.82215977 ] ] ] ] } }
]
}
