{
"type": "FeatureCollection",
"name": "Kecamatan Krucil",
"crs": { "type": "name", "properties": { "name": "urn:ogc:def:crs:OGC:1.3:CRS84" } },
"features": [
{ "type": "Feature", "properties": { "GID_0": "IDN", "NAME_0": "Indonesia", "GID_1": "IDN.11_1", "NAME_1": "Jawa Timur", "NL_NAME_1": null, "GID_2": "IDN.11.30_1", "NAME_2": "Probolinggo", "NL_NAME_2": null, "GID_3": "IDN.11.30.10_1", "NAME_3": "Krucil", "VARNAME_3": null, "NL_NAME_3": null, "TYPE_3": "Kecamatan", "ENGTYPE_3": "Sub-district", "CC_3": "3513090", "HASC_3": null }, "geometry": { "type": "MultiPolygon", "coordinates": [ [ [ [ 113.52790833, -8.01263618 ], [ 113.52807617, -8.01324081 ], [ 113.5281601, -8.01398087 ], [ 113.52825165, -8.01435661 ], [ 113.5286026, -8.01512241 ], [ 113.52871704, -8.01570702 ], [ 113.52872467, -8.01600075 ], [ 113.52867126, -8.01634979 ], [ 113.5286026, -8.01664352 ], [ 113.52841949, -8.01685333 ], [ 113.52813721, -8.01692486 ], [ 113.52758789, -8.01698208 ], [ 113.52713013, -8.01683331 ], [ 113.5259552, -8.01661777 ], [ 113.52329254, -8.01504803 ], [ 113.52317047, -8.01502228 ], [ 113.52297211, -8.01498413 ], [ 113.52281189, -8.01495552 ], [ 113.52259064, -8.01496983 ], [ 113.52245331, -8.01500225 ], [ 113.52222443, -8.01501083 ], [ 113.52203369, -8.01501083 ], [ 113.52172089, -8.01499367 ], [ 113.521492, -8.01495075 ], [ 113.5212326, -8.01487255 ], [ 113.52086639, -8.01477051 ], [ 113.52014923, -8.01458931 ], [ 113.51996613, -8.01455975 ], [ 113.51970673, -8.01462078 ], [ 113.51934814, -8.01459789 ], [ 113.51895905, -8.01447105 ], [ 113.51865387, -8.01433945 ], [ 113.51845551, -8.01426601 ], [ 113.51818085, -8.0141058 ], [ 113.51804352, -8.01407623 ], [ 113.51729584, -8.01405239 ], [ 113.51712799, -8.01404953 ], [ 113.5169754, -8.01405907 ], [ 113.51661682, -8.01399803 ], [ 113.51600647, -8.01391029 ], [ 113.51526642, -8.01385403 ], [ 113.51487732, -8.01390934 ], [ 113.51464081, -8.01388073 ], [ 113.51415253, -8.01375198 ], [ 113.51377869, -8.01356602 ], [ 113.51345062, -8.01335907 ], [ 113.51300049, -8.01313019 ], [ 113.51268005, -8.01303673 ], [ 113.51235199, -8.01292038 ], [ 113.51206207, -8.01275444 ], [ 113.51187134, -8.01255131 ], [ 113.51165009, -8.01231194 ], [ 113.51154327, -8.01224709 ], [ 113.51127625, -8.01207924 ], [ 113.5109787, -8.01179409 ], [ 113.51093292, -8.01173306 ], [ 113.51083374, -8.01160908 ], [ 113.51075745, -8.01160049 ], [ 113.51004028, -8.01150227 ], [ 113.50987244, -8.01140022 ], [ 113.50975037, -8.01124477 ], [ 113.509552, -8.01098442 ], [ 113.50935364, -8.01088142 ], [ 113.50914001, -8.01085472 ], [ 113.50868988, -8.01082516 ], [ 113.5083847, -8.01071453 ], [ 113.50813293, -8.01062584 ], [ 113.50773621, -8.0104599 ], [ 113.50730896, -8.01018333 ], [ 113.50693512, -8.00994205 ], [ 113.50685883, -8.00986481 ], [ 113.50665283, -8.00970173 ], [ 113.50634766, -8.00959778 ], [ 113.50610352, -8.00947857 ], [ 113.50576782, -8.00925446 ], [ 113.50572205, -8.00914955 ], [ 113.50563049, -8.00903797 ], [ 113.50538635, -8.0088625 ], [ 113.50513458, -8.00875854 ], [ 113.50476074, -8.00853634 ], [ 113.50465393, -8.00839996 ], [ 113.50463104, -8.00827122 ], [ 113.50462341, -8.00819111 ], [ 113.50460815, -8.00770664 ], [ 113.50453186, -8.00752735 ], [ 113.50419617, -8.0072279 ], [ 113.50404358, -8.00720501 ], [ 113.50382996, -8.00726032 ], [ 113.50363159, -8.00730705 ], [ 113.50344849, -8.00727654 ], [ 113.50258636, -8.00700665 ], [ 113.50239563, -8.0068922 ], [ 113.50217438, -8.00673103 ], [ 113.50199127, -8.00657558 ], [ 113.50149536, -8.00609779 ], [ 113.50128937, -8.00604153 ], [ 113.50113678, -8.00609016 ], [ 113.5010376, -8.00625706 ], [ 113.50098419, -8.00642395 ], [ 113.50096893, -8.00680542 ], [ 113.50097656, -8.0073967 ], [ 113.50086975, -8.00742435 ], [ 113.5006485, -8.0073595 ], [ 113.50035095, -8.00717354 ], [ 113.50004578, -8.00691891 ], [ 113.5, -8.00685978 ], [ 113.49995422, -8.00679398 ], [ 113.49993896, -8.00665092 ], [ 113.49993134, -8.00589466 ], [ 113.49983978, -8.00578499 ], [ 113.49968719, -8.00569248 ], [ 113.49951935, -8.00569057 ], [ 113.49940491, -8.00577641 ], [ 113.49927521, -8.0059433 ], [ 113.4990387, -8.00624943 ], [ 113.49886322, -8.00628948 ], [ 113.49859619, -8.00623798 ], [ 113.49832916, -8.00609589 ], [ 113.49820709, -8.00595284 ], [ 113.4980011, -8.00536919 ], [ 113.4977951, -8.00520229 ], [ 113.49765015, -8.00516987 ], [ 113.49723053, -8.00514412 ], [ 113.49691772, -8.00496578 ], [ 113.49677277, -8.00496674 ], [ 113.4962616, -8.0050602 ], [ 113.49610138, -8.00504398 ], [ 113.49559021, -8.00492191 ], [ 113.49554443, -8.00458527 ], [ 113.49484253, -8.00517654 ], [ 113.49463654, -8.00520039 ], [ 113.49442291, -8.00512505 ], [ 113.49427795, -8.00499058 ], [ 113.49423218, -8.00482464 ], [ 113.4941864, -8.00438786 ], [ 113.49422455, -8.00402737 ], [ 113.49429321, -8.00381851 ], [ 113.49456787, -8.00328732 ], [ 113.49454498, -8.00298405 ], [ 113.49438477, -8.00276852 ], [ 113.4942627, -8.00261593 ], [ 113.49417877, -8.00220299 ], [ 113.49407959, -8.00207901 ], [ 113.49328613, -8.00156307 ], [ 113.49292755, -8.00126362 ], [ 113.49238586, -8.00080299 ], [ 113.4923172, -8.00066376 ], [ 113.49230194, -8.00045776 ], [ 113.49227142, -8.00022507 ], [ 113.49224854, -7.99999952 ], [ 113.49223328, -7.99981785 ], [ 113.49219513, -7.99930859 ], [ 113.49212646, -7.99914837 ], [ 113.49200439, -7.99904251 ], [ 113.49177551, -7.99897718 ], [ 113.49152374, -7.99898911 ], [ 113.49102783, -7.99922132 ], [ 113.4908905, -7.99928856 ], [ 113.49072266, -7.99930477 ], [ 113.49060059, -7.99921227 ], [ 113.49039459, -7.99885988 ], [ 113.49034882, -7.99866819 ], [ 113.49033356, -7.99850416 ], [ 113.49029541, -7.9982214 ], [ 113.49028015, -7.99787188 ], [ 113.49020386, -7.99745226 ], [ 113.49015808, -7.9973464 ], [ 113.49012756, -7.99727488 ], [ 113.49000549, -7.99709368 ], [ 113.48977661, -7.99692297 ], [ 113.48923492, -7.99671173 ], [ 113.48863983, -7.99663019 ], [ 113.48804474, -7.99662971 ], [ 113.48786926, -7.99665308 ], [ 113.48778534, -7.99666929 ], [ 113.48754883, -7.99674129 ], [ 113.48690033, -7.99699497 ], [ 113.48677826, -7.99704218 ], [ 113.48653412, -7.99703836 ], [ 113.48605347, -7.99694204 ], [ 113.48581696, -7.99682713 ], [ 113.48544312, -7.99649525 ], [ 113.48513794, -7.99600935 ], [ 113.48498535, -7.99597836 ], [ 113.48480225, -7.9960146 ], [ 113.48477173, -7.9960947 ], [ 113.48482513, -7.99638891 ], [ 113.48480225, -7.99661589 ], [ 113.48471069, -7.9967041 ], [ 113.48455811, -7.99673748 ], [ 113.48418427, -7.99674463 ], [ 113.4837265, -7.99663782 ], [ 113.48332214, -7.99655724 ], [ 113.48298645, -7.99649096 ], [ 113.48278809, -7.99638605 ], [ 113.48274231, -7.99618721 ], [ 113.48283386, -7.99593544 ], [ 113.48294067, -7.99559164 ], [ 113.48287964, -7.99549818 ], [ 113.48232269, -7.99492121 ], [ 113.48231506, -7.99475145 ], [ 113.48232269, -7.99416399 ], [ 113.48228455, -7.99408102 ], [ 113.48220062, -7.99401331 ], [ 113.48191071, -7.99374962 ], [ 113.48178101, -7.99337816 ], [ 113.48168945, -7.99314308 ], [ 113.48150635, -7.99295759 ], [ 113.48132324, -7.99289131 ], [ 113.48100281, -7.99275351 ], [ 113.48078918, -7.99263096 ], [ 113.48042297, -7.99240303 ], [ 113.48001862, -7.99211979 ], [ 113.4797821, -7.99205017 ], [ 113.4793396, -7.99191999 ], [ 113.47894287, -7.99168015 ], [ 113.47870636, -7.99144983 ], [ 113.47821808, -7.99097013 ], [ 113.47779846, -7.99073982 ], [ 113.47731781, -7.99040985 ], [ 113.47686768, -7.99037981 ], [ 113.47660065, -7.99035978 ], [ 113.47627258, -7.99033022 ], [ 113.47583008, -7.99033022 ], [ 113.47509003, -7.99048996 ], [ 113.47479248, -7.99054003 ], [ 113.47444916, -7.9907198 ], [ 113.47440338, -7.99081993 ], [ 113.47427368, -7.99101019 ], [ 113.47420502, -7.9910326 ], [ 113.47406006, -7.99107981 ], [ 113.47389984, -7.99113989 ], [ 113.47367859, -7.99122 ], [ 113.47354126, -7.99129009 ], [ 113.47316742, -7.99152994 ], [ 113.47297668, -7.99171019 ], [ 113.47277069, -7.99191999 ], [ 113.47260284, -7.99216986 ], [ 113.47254181, -7.99234009 ], [ 113.47255707, -7.99256992 ], [ 113.47267914, -7.99300003 ], [ 113.47273254, -7.99311829 ], [ 113.47289276, -7.99350023 ], [ 113.47280121, -7.99396992 ], [ 113.47270203, -7.99439001 ], [ 113.47257996, -7.9945302 ], [ 113.47238159, -7.99459982 ], [ 113.47212982, -7.99460983 ], [ 113.47184753, -7.99456978 ], [ 113.47162628, -7.99445009 ], [ 113.47097778, -7.99407005 ], [ 113.47058868, -7.9938798 ], [ 113.4701767, -7.99381018 ], [ 113.4699173, -7.99388981 ], [ 113.46963501, -7.99412441 ], [ 113.46946716, -7.99435997 ], [ 113.46906281, -7.99487019 ], [ 113.46888733, -7.9949398 ], [ 113.46826935, -7.99515009 ], [ 113.46820831, -7.99519539 ], [ 113.46804047, -7.99531984 ], [ 113.46782684, -7.99553013 ], [ 113.46777344, -7.99566984 ], [ 113.467659, -7.9958601 ], [ 113.46755219, -7.99594021 ], [ 113.4673996, -7.99596024 ], [ 113.46710968, -7.99592018 ], [ 113.46672058, -7.99579 ], [ 113.46640778, -7.99567986 ], [ 113.46630096, -7.99566984 ], [ 113.4659729, -7.99576998 ], [ 113.46573639, -7.99592018 ], [ 113.46530914, -7.99631023 ], [ 113.46494293, -7.9966898 ], [ 113.4647522, -7.99670982 ], [ 113.4646225, -7.99665022 ], [ 113.46443176, -7.99646997 ], [ 113.4641037, -7.99620008 ], [ 113.46392822, -7.99623013 ], [ 113.46357727, -7.99630022 ], [ 113.46350098, -7.99626017 ], [ 113.46337891, -7.99611998 ], [ 113.46330261, -7.99590015 ], [ 113.46315765, -7.9956398 ], [ 113.46302795, -7.99554014 ], [ 113.46295929, -7.9955101 ], [ 113.46279907, -7.99544001 ], [ 113.46251678, -7.99538994 ], [ 113.46231842, -7.9953599 ], [ 113.46189117, -7.99525023 ], [ 113.46172333, -7.9952302 ], [ 113.46141815, -7.99529982 ], [ 113.46130371, -7.99530983 ], [ 113.46099091, -7.99533987 ], [ 113.46080017, -7.99525023 ], [ 113.46034241, -7.99490023 ], [ 113.46022034, -7.99461985 ], [ 113.46013641, -7.99444008 ], [ 113.46002197, -7.99416018 ], [ 113.4599762, -7.99369001 ], [ 113.45983124, -7.99358988 ], [ 113.45957184, -7.99350977 ], [ 113.45950317, -7.99339008 ], [ 113.45932007, -7.99301004 ], [ 113.45886993, -7.99196005 ], [ 113.4588089, -7.99187994 ], [ 113.45858002, -7.99179983 ], [ 113.45835876, -7.99171019 ], [ 113.4581604, -7.9914999 ], [ 113.45807648, -7.99139023 ], [ 113.45802307, -7.99129009 ], [ 113.45799255, -7.99120998 ], [ 113.45793152, -7.99097013 ], [ 113.45787811, -7.99076986 ], [ 113.45773315, -7.99061012 ], [ 113.45757294, -7.99056005 ], [ 113.45722961, -7.99060011 ], [ 113.45690918, -7.9905901 ], [ 113.45664215, -7.99049997 ], [ 113.45632935, -7.99039984 ], [ 113.45552826, -7.99003983 ], [ 113.45546722, -7.98999977 ], [ 113.45523071, -7.98993015 ], [ 113.45513153, -7.98994017 ], [ 113.45496368, -7.99000978 ], [ 113.45487976, -7.99004984 ], [ 113.45465088, -7.9902091 ], [ 113.45417786, -7.99054003 ], [ 113.45401001, -7.99053001 ], [ 113.45362091, -7.99038982 ], [ 113.45340729, -7.99027014 ], [ 113.45319366, -7.99018002 ], [ 113.45297241, -7.99014997 ], [ 113.4524231, -7.9902401 ], [ 113.45230103, -7.99033022 ], [ 113.45204163, -7.99054003 ], [ 113.45191956, -7.99064016 ], [ 113.45139313, -7.99109983 ], [ 113.45121765, -7.99110985 ], [ 113.45079041, -7.9910202 ], [ 113.45050812, -7.99085999 ], [ 113.45002747, -7.99046993 ], [ 113.44976044, -7.99012995 ], [ 113.4496994, -7.99003983 ], [ 113.44965363, -7.98998022 ], [ 113.44944, -7.98979998 ], [ 113.44924927, -7.98971987 ], [ 113.44904327, -7.98967981 ], [ 113.44834137, -7.98960018 ], [ 113.44814301, -7.98944998 ], [ 113.44772339, -7.98918009 ], [ 113.44753265, -7.98912001 ], [ 113.44728088, -7.98906994 ], [ 113.44693756, -7.98898983 ], [ 113.44628143, -7.98894978 ], [ 113.44589996, -7.98901987 ], [ 113.44570923, -7.9889698 ], [ 113.44496918, -7.98873997 ], [ 113.44486237, -7.98818016 ], [ 113.44480896, -7.98791981 ], [ 113.44477081, -7.98774004 ], [ 113.4447937, -7.98731995 ], [ 113.44484711, -7.98669004 ], [ 113.44477081, -7.98601007 ], [ 113.44470978, -7.98553991 ], [ 113.44445801, -7.98421001 ], [ 113.44425201, -7.98378992 ], [ 113.44296265, -7.98213005 ], [ 113.44255066, -7.98091412 ], [ 113.44241333, -7.98049021 ], [ 113.44225311, -7.9799304 ], [ 113.44210052, -7.97941017 ], [ 113.44207764, -7.97932005 ], [ 113.44158936, -7.97836018 ], [ 113.4408493, -7.97719002 ], [ 113.44059753, -7.97684669 ], [ 113.43994141, -7.97596979 ], [ 113.43942261, -7.97536993 ], [ 113.43936157, -7.9753232 ], [ 113.4386673, -7.97478008 ], [ 113.43830872, -7.97464991 ], [ 113.43797302, -7.97468996 ], [ 113.43778992, -7.97455978 ], [ 113.4377594, -7.97446012 ], [ 113.43771362, -7.97427988 ], [ 113.43753052, -7.97420979 ], [ 113.43733978, -7.97426987 ], [ 113.43681335, -7.97445011 ], [ 113.43663025, -7.97435999 ], [ 113.43654633, -7.97422981 ], [ 113.4365387, -7.97405005 ], [ 113.4365387, -7.97379017 ], [ 113.4363327, -7.9735198 ], [ 113.43618774, -7.97340012 ], [ 113.43601227, -7.97341013 ], [ 113.43590546, -7.97342634 ], [ 113.43543243, -7.97349977 ], [ 113.43496704, -7.97342014 ], [ 113.43489075, -7.97337008 ], [ 113.43489838, -7.9732399 ], [ 113.43489075, -7.9731102 ], [ 113.43473816, -7.9730401 ], [ 113.43419647, -7.9724102 ], [ 113.43409729, -7.97217989 ], [ 113.43398285, -7.97187996 ], [ 113.43383789, -7.97135019 ], [ 113.4336319, -7.97080231 ], [ 113.43334961, -7.9700799 ], [ 113.4332428, -7.96981001 ], [ 113.43315125, -7.96962976 ], [ 113.43286133, -7.96921015 ], [ 113.43273163, -7.96899986 ], [ 113.43222809, -7.96822023 ], [ 113.43148041, -7.96706009 ], [ 113.43096161, -7.966362 ], [ 113.43066406, -7.96594858 ], [ 113.43013, -7.96491003 ], [ 113.42993164, -7.96448994 ], [ 113.42978668, -7.96429014 ], [ 113.42935944, -7.96351337 ], [ 113.42906189, -7.96296978 ], [ 113.42904663, -7.96285009 ], [ 113.42902374, -7.96271992 ], [ 113.4287262, -7.96240997 ], [ 113.4285202, -7.96202993 ], [ 113.42839813, -7.96183014 ], [ 113.42838287, -7.96170998 ], [ 113.42832947, -7.96136999 ], [ 113.42829895, -7.96046019 ], [ 113.4282608, -7.95986986 ], [ 113.42814636, -7.95913982 ], [ 113.42788696, -7.95780993 ], [ 113.427742, -7.9573102 ], [ 113.42756653, -7.95672989 ], [ 113.42716217, -7.95577002 ], [ 113.42671967, -7.95493984 ], [ 113.42648315, -7.95430994 ], [ 113.42614746, -7.95382977 ], [ 113.4258194, -7.95338011 ], [ 113.42569733, -7.95318985 ], [ 113.42534637, -7.95263004 ], [ 113.42481995, -7.9520998 ], [ 113.42459106, -7.95163012 ], [ 113.42459106, -7.9513998 ], [ 113.42456055, -7.95059013 ], [ 113.42456818, -7.94995022 ], [ 113.42440033, -7.94936991 ], [ 113.42420959, -7.94862986 ], [ 113.42395782, -7.94822979 ], [ 113.42398071, -7.94766998 ], [ 113.42411041, -7.94702005 ], [ 113.42411804, -7.94692326 ], [ 113.42415619, -7.94663811 ], [ 113.42417908, -7.94639015 ], [ 113.42388153, -7.94567013 ], [ 113.42371368, -7.94497013 ], [ 113.42289734, -7.94351006 ], [ 113.42199707, -7.94215012 ], [ 113.42179871, -7.94178009 ], [ 113.42159271, -7.94156981 ], [ 113.4214325, -7.9412899 ], [ 113.42140198, -7.94114017 ], [ 113.4213562, -7.9409399 ], [ 113.42118073, -7.94051981 ], [ 113.42092896, -7.94034004 ], [ 113.42050171, -7.93943977 ], [ 113.42034149, -7.93899012 ], [ 113.4201889, -7.93832016 ], [ 113.42003632, -7.93748999 ], [ 113.42002869, -7.93741608 ], [ 113.41993713, -7.93665981 ], [ 113.41983032, -7.93627977 ], [ 113.41969299, -7.93577003 ], [ 113.41928864, -7.93486977 ], [ 113.41876984, -7.93420982 ], [ 113.41819, -7.93324995 ], [ 113.41790771, -7.93265009 ], [ 113.41786194, -7.93201017 ], [ 113.41770935, -7.93141985 ], [ 113.41748047, -7.93056011 ], [ 113.41710663, -7.92958021 ], [ 113.41651917, -7.92858982 ], [ 113.41589355, -7.9275198 ], [ 113.41560364, -7.92705107 ], [ 113.41509247, -7.92620993 ], [ 113.41484833, -7.92521 ], [ 113.41474915, -7.92461872 ], [ 113.41468811, -7.92424011 ], [ 113.41452026, -7.9236002 ], [ 113.41436005, -7.92287016 ], [ 113.41387177, -7.92212009 ], [ 113.4134903, -7.92154741 ], [ 113.41332245, -7.92128992 ], [ 113.4131012, -7.92090988 ], [ 113.41259766, -7.9200902 ], [ 113.41163635, -7.91901016 ], [ 113.41117096, -7.91823006 ], [ 113.41091919, -7.91772985 ], [ 113.41066742, -7.91726017 ], [ 113.41055298, -7.9169898 ], [ 113.41021729, -7.91625023 ], [ 113.41001129, -7.91597509 ], [ 113.40950775, -7.91531992 ], [ 113.40923309, -7.91492987 ], [ 113.40892792, -7.91442013 ], [ 113.40969849, -7.91403008 ], [ 113.40978241, -7.9138999 ], [ 113.4098587, -7.91378021 ], [ 113.41004181, -7.91352987 ], [ 113.41014099, -7.91341019 ], [ 113.41023254, -7.91332006 ], [ 113.41042328, -7.91313982 ], [ 113.41053009, -7.91305017 ], [ 113.41072083, -7.91290998 ], [ 113.41065216, -7.91243982 ], [ 113.4105072, -7.9122901 ], [ 113.41020203, -7.91204023 ], [ 113.41002655, -7.91189003 ], [ 113.40946198, -7.91125011 ], [ 113.4094162, -7.91110992 ], [ 113.40943146, -7.91092014 ], [ 113.40955353, -7.91055012 ], [ 113.40959167, -7.91035986 ], [ 113.40956116, -7.91020012 ], [ 113.40947723, -7.91009998 ], [ 113.40930176, -7.90997982 ], [ 113.40892029, -7.90983009 ], [ 113.40805817, -7.90952015 ], [ 113.40775299, -7.90930986 ], [ 113.40753937, -7.90909004 ], [ 113.4074173, -7.90883017 ], [ 113.40734863, -7.90860987 ], [ 113.40724182, -7.90826988 ], [ 113.40711212, -7.90788984 ], [ 113.40660095, -7.90754986 ], [ 113.40643311, -7.9073 ], [ 113.40628052, -7.90706015 ], [ 113.40609741, -7.90686989 ], [ 113.40608978, -7.90676022 ], [ 113.40615845, -7.90656996 ], [ 113.40646362, -7.90585995 ], [ 113.40655518, -7.90542984 ], [ 113.40661621, -7.90514994 ], [ 113.40656281, -7.90495014 ], [ 113.40641785, -7.90487003 ], [ 113.40608215, -7.90474987 ], [ 113.40582275, -7.90471983 ], [ 113.4052887, -7.90473986 ], [ 113.404953, -7.90471983 ], [ 113.40476227, -7.90472984 ], [ 113.40431213, -7.90478992 ], [ 113.40400696, -7.90488005 ], [ 113.40379333, -7.90492153 ], [ 113.40348816, -7.90498018 ], [ 113.40326691, -7.90497017 ], [ 113.40319824, -7.90491009 ], [ 113.40313721, -7.90477991 ], [ 113.40274811, -7.90318012 ], [ 113.40215302, -7.90229988 ], [ 113.40180969, -7.9014802 ], [ 113.40146637, -7.90038013 ], [ 113.40117645, -7.90016985 ], [ 113.40110016, -7.90002012 ], [ 113.40107727, -7.89985991 ], [ 113.40100098, -7.89945984 ], [ 113.40093994, -7.89926004 ], [ 113.40077972, -7.89870024 ], [ 113.40065765, -7.89830017 ], [ 113.39994049, -7.89634991 ], [ 113.3995285, -7.89581013 ], [ 113.39916992, -7.89552021 ], [ 113.39891052, -7.89529991 ], [ 113.39884186, -7.8951602 ], [ 113.39881134, -7.89503002 ], [ 113.39880371, -7.89446306 ], [ 113.39852142, -7.89409351 ], [ 113.39840698, -7.89394999 ], [ 113.39821625, -7.89319992 ], [ 113.39772034, -7.89214993 ], [ 113.39733124, -7.89118004 ], [ 113.39703369, -7.89037991 ], [ 113.39674377, -7.88957024 ], [ 113.39653778, -7.88902998 ], [ 113.39642334, -7.88867998 ], [ 113.39626312, -7.88822985 ], [ 113.39608002, -7.88828993 ], [ 113.39585876, -7.8882699 ], [ 113.39562225, -7.88816977 ], [ 113.3953476, -7.88797998 ], [ 113.39517212, -7.88780022 ], [ 113.39463806, -7.88704014 ], [ 113.39463806, -7.88676977 ], [ 113.39489746, -7.88684988 ], [ 113.39515686, -7.88687992 ], [ 113.39539337, -7.88685989 ], [ 113.39571381, -7.88703012 ], [ 113.39588165, -7.88712978 ], [ 113.39602661, -7.8871398 ], [ 113.39626312, -7.88709021 ], [ 113.39644623, -7.88702011 ], [ 113.39688873, -7.88708019 ], [ 113.3972168, -7.8871398 ], [ 113.39742279, -7.88712978 ], [ 113.39794922, -7.88665009 ], [ 113.39801788, -7.8865099 ], [ 113.39826965, -7.88613987 ], [ 113.39837646, -7.88604021 ], [ 113.39852142, -7.88599014 ], [ 113.39929962, -7.88620996 ], [ 113.39965057, -7.8863101 ], [ 113.39983368, -7.88630009 ], [ 113.40003967, -7.88619995 ], [ 113.400177, -7.88606024 ], [ 113.4002533, -7.88592005 ], [ 113.40032959, -7.88562012 ], [ 113.40039825, -7.8853898 ], [ 113.40048218, -7.88506985 ], [ 113.40061188, -7.88487005 ], [ 113.40058899, -7.88442993 ], [ 113.40045166, -7.88383007 ], [ 113.40042877, -7.88372469 ], [ 113.400383, -7.88351011 ], [ 113.40016937, -7.88304186 ], [ 113.39997101, -7.88270998 ], [ 113.39990234, -7.88261986 ], [ 113.39972687, -7.88262987 ], [ 113.39958191, -7.88276005 ], [ 113.39938354, -7.88293982 ], [ 113.39923859, -7.88294983 ], [ 113.39916229, -7.8828702 ], [ 113.39904785, -7.88263988 ], [ 113.39878082, -7.88219023 ], [ 113.39864349, -7.88219976 ], [ 113.39846802, -7.88228989 ], [ 113.397789, -7.88268995 ], [ 113.39766693, -7.88265991 ], [ 113.39752197, -7.88255978 ], [ 113.39732361, -7.88256979 ], [ 113.39704132, -7.88265991 ], [ 113.39671326, -7.88275003 ], [ 113.39629364, -7.88271999 ], [ 113.39588928, -7.88256979 ], [ 113.39546967, -7.88244009 ], [ 113.39512634, -7.88239002 ], [ 113.39476013, -7.88235998 ], [ 113.39456177, -7.88225985 ], [ 113.39438629, -7.88209009 ], [ 113.39415741, -7.88185978 ], [ 113.39398193, -7.88184977 ], [ 113.39401245, -7.88171005 ], [ 113.3940506, -7.88138008 ], [ 113.39411163, -7.88121986 ], [ 113.39415741, -7.8811245 ], [ 113.39421082, -7.88102007 ], [ 113.39446259, -7.88055992 ], [ 113.39457703, -7.88042021 ], [ 113.39479065, -7.88038015 ], [ 113.39501953, -7.88036013 ], [ 113.39512634, -7.88031006 ], [ 113.39524841, -7.88012981 ], [ 113.39536285, -7.8797102 ], [ 113.39539337, -7.87946987 ], [ 113.39589691, -7.8794899 ], [ 113.39681244, -7.87940979 ], [ 113.39903259, -7.8790102 ], [ 113.39997101, -7.87884998 ], [ 113.39994812, -7.87821007 ], [ 113.39996338, -7.87810993 ], [ 113.40016937, -7.87802982 ], [ 113.40029144, -7.87792015 ], [ 113.40057373, -7.8776598 ], [ 113.40065765, -7.8775301 ], [ 113.40072632, -7.87726021 ], [ 113.40081024, -7.87685013 ], [ 113.40078735, -7.87611866 ], [ 113.40110779, -7.87619019 ], [ 113.4018631, -7.87642002 ], [ 113.40239716, -7.87659979 ], [ 113.40274811, -7.87672281 ], [ 113.40309143, -7.87681007 ], [ 113.40338135, -7.87694979 ], [ 113.40419769, -7.87726021 ], [ 113.40484619, -7.87750006 ], [ 113.40493011, -7.8775301 ], [ 113.40609741, -7.87798023 ], [ 113.40673065, -7.87812996 ], [ 113.40696716, -7.87820005 ], [ 113.40744019, -7.87834978 ], [ 113.40802002, -7.87844992 ], [ 113.40860748, -7.87858009 ], [ 113.40963745, -7.87887001 ], [ 113.41005707, -7.87926006 ], [ 113.41027069, -7.8794899 ], [ 113.41036224, -7.87965012 ], [ 113.41036987, -7.87978983 ], [ 113.40986633, -7.88043022 ], [ 113.40969849, -7.88067007 ], [ 113.4095993, -7.88098001 ], [ 113.40959167, -7.88114023 ], [ 113.40973663, -7.8814702 ], [ 113.4098587, -7.88165998 ], [ 113.40998077, -7.88185978 ], [ 113.41091919, -7.88296986 ], [ 113.41136169, -7.88325977 ], [ 113.41156769, -7.88333988 ], [ 113.41249847, -7.88339996 ], [ 113.41282654, -7.88336992 ], [ 113.4132309, -7.88323021 ], [ 113.41352081, -7.88312006 ], [ 113.41368866, -7.88308001 ], [ 113.41426849, -7.88332987 ], [ 113.41439056, -7.88340998 ], [ 113.41452026, -7.88360977 ], [ 113.4145813, -7.88381004 ], [ 113.41468048, -7.88414001 ], [ 113.41483307, -7.88476992 ], [ 113.4155426, -7.88472986 ], [ 113.41583252, -7.88460016 ], [ 113.41609955, -7.88453007 ], [ 113.41629028, -7.88451004 ], [ 113.41677856, -7.88436985 ], [ 113.4172821, -7.88401985 ], [ 113.41757202, -7.88356018 ], [ 113.41764832, -7.88306999 ], [ 113.41770172, -7.88283014 ], [ 113.41777802, -7.88237 ], [ 113.41770935, -7.88183022 ], [ 113.4176712, -7.88146019 ], [ 113.4176712, -7.88114977 ], [ 113.4178772, -7.88068008 ], [ 113.41809082, -7.88014984 ], [ 113.41815948, -7.87979984 ], [ 113.4178772, -7.87941074 ], [ 113.41770935, -7.87918329 ], [ 113.41761017, -7.87904978 ], [ 113.4174118, -7.87870979 ], [ 113.41716766, -7.87814999 ], [ 113.4172287, -7.87790012 ], [ 113.41732025, -7.87775993 ], [ 113.41748047, -7.87747002 ], [ 113.41750336, -7.87729979 ], [ 113.41757202, -7.8771801 ], [ 113.41779327, -7.87688017 ], [ 113.41837311, -7.87621021 ], [ 113.4187088, -7.87584019 ], [ 113.41892242, -7.87556982 ], [ 113.41905212, -7.87536001 ], [ 113.41912079, -7.87518978 ], [ 113.4192276, -7.875 ], [ 113.41921997, -7.87434006 ], [ 113.41928864, -7.87373018 ], [ 113.41938019, -7.87327623 ], [ 113.41941833, -7.87305021 ], [ 113.41960144, -7.87228012 ], [ 113.41986084, -7.87165022 ], [ 113.42025757, -7.87094021 ], [ 113.42070007, -7.8703599 ], [ 113.42118073, -7.86997986 ], [ 113.42167664, -7.86970997 ], [ 113.42214203, -7.86958981 ], [ 113.42259216, -7.86952019 ], [ 113.42327118, -7.86923981 ], [ 113.42373657, -7.86926985 ], [ 113.42395782, -7.86932993 ], [ 113.42414093, -7.86926985 ], [ 113.42456818, -7.86919022 ], [ 113.42489624, -7.86898994 ], [ 113.4251709, -7.86880016 ], [ 113.42568207, -7.86861992 ], [ 113.42595673, -7.86858368 ], [ 113.42606354, -7.86856985 ], [ 113.4265213, -7.86857986 ], [ 113.42671967, -7.86857986 ], [ 113.42681885, -7.86857986 ], [ 113.42703247, -7.86853981 ], [ 113.42736053, -7.86841011 ], [ 113.42788696, -7.86821985 ], [ 113.42829895, -7.8680501 ], [ 113.42852783, -7.86795998 ], [ 113.4291687, -7.86773014 ], [ 113.42977905, -7.86750984 ], [ 113.42996216, -7.86745024 ], [ 113.43036652, -7.86739016 ], [ 113.43061829, -7.86736012 ], [ 113.4310379, -7.86728001 ], [ 113.43153381, -7.86726999 ], [ 113.43199158, -7.86730003 ], [ 113.43226624, -7.8674531 ], [ 113.43257141, -7.86772013 ], [ 113.43282318, -7.86800003 ], [ 113.4330368, -7.86811018 ], [ 113.43331909, -7.86822987 ], [ 113.43347168, -7.86826992 ], [ 113.43341827, -7.86853981 ], [ 113.43340302, -7.86866999 ], [ 113.43344116, -7.86888981 ], [ 113.43347931, -7.8691802 ], [ 113.43348694, -7.86940002 ], [ 113.43347931, -7.86963987 ], [ 113.43340302, -7.87001991 ], [ 113.4333725, -7.87021017 ], [ 113.43341064, -7.87031984 ], [ 113.4336319, -7.87052011 ], [ 113.43408203, -7.87085009 ], [ 113.43431091, -7.87104988 ], [ 113.43444824, -7.87125015 ], [ 113.43448639, -7.87145996 ], [ 113.43451691, -7.87184 ], [ 113.43447876, -7.87224007 ], [ 113.43447876, -7.87241983 ], [ 113.43453217, -7.87254 ], [ 113.43460083, -7.87261009 ], [ 113.43473053, -7.87262011 ], [ 113.43489838, -7.87258005 ], [ 113.43515015, -7.87255001 ], [ 113.43531036, -7.87255001 ], [ 113.43559265, -7.87263012 ], [ 113.43573761, -7.87273979 ], [ 113.43582153, -7.87289 ], [ 113.43585968, -7.87310982 ], [ 113.43582916, -7.87341022 ], [ 113.43583679, -7.87357998 ], [ 113.43585968, -7.8736701 ], [ 113.43611908, -7.87375021 ], [ 113.43649292, -7.87388992 ], [ 113.43663788, -7.87407017 ], [ 113.43669891, -7.87423992 ], [ 113.4367218, -7.87447023 ], [ 113.43669891, -7.87501001 ], [ 113.43686676, -7.87525988 ], [ 113.43699646, -7.87549019 ], [ 113.4370575, -7.87608004 ], [ 113.43701935, -7.87657022 ], [ 113.43701935, -7.87666988 ], [ 113.43708038, -7.87677002 ], [ 113.43850708, -7.87701988 ], [ 113.43939209, -7.87738991 ], [ 113.4400177, -7.87816 ], [ 113.44029236, -7.87836981 ], [ 113.44065857, -7.87854004 ], [ 113.44082642, -7.87858009 ], [ 113.44117737, -7.87849998 ], [ 113.44148254, -7.87833023 ], [ 113.44156647, -7.87827015 ], [ 113.44172668, -7.87823009 ], [ 113.44213867, -7.87814999 ], [ 113.44249725, -7.87820005 ], [ 113.44284821, -7.87829018 ], [ 113.44303131, -7.87840986 ], [ 113.44338226, -7.87899017 ], [ 113.44365692, -7.87935019 ], [ 113.44416046, -7.87973022 ], [ 113.44434357, -7.8798399 ], [ 113.44586945, -7.87996006 ], [ 113.44637299, -7.88002014 ], [ 113.44658661, -7.88008022 ], [ 113.44670105, -7.88015985 ], [ 113.44671631, -7.88024998 ], [ 113.4466095, -7.88041592 ], [ 113.44648743, -7.88060999 ], [ 113.44647217, -7.88076019 ], [ 113.44654846, -7.88091993 ], [ 113.44685364, -7.88121986 ], [ 113.4475708, -7.88174009 ], [ 113.44779968, -7.88183022 ], [ 113.4479599, -7.88186979 ], [ 113.44814301, -7.88199997 ], [ 113.448349, -7.88255978 ], [ 113.44841766, -7.88274002 ], [ 113.44857788, -7.88290977 ], [ 113.4489212, -7.88309002 ], [ 113.44915771, -7.88324022 ], [ 113.44927979, -7.88335991 ], [ 113.44940186, -7.88360023 ], [ 113.44956207, -7.88379002 ], [ 113.44980621, -7.88395023 ], [ 113.44996643, -7.8839798 ], [ 113.4502182, -7.88389015 ], [ 113.45069885, -7.8836298 ], [ 113.45079041, -7.88360023 ], [ 113.45092773, -7.88356018 ], [ 113.45105743, -7.88358021 ], [ 113.45120239, -7.88369989 ], [ 113.45133972, -7.88383007 ], [ 113.451828, -7.88424015 ], [ 113.45201111, -7.88435984 ], [ 113.45214081, -7.88436985 ], [ 113.45226288, -7.88430023 ], [ 113.45249176, -7.88400984 ], [ 113.4526062, -7.88387012 ], [ 113.45272064, -7.88382006 ], [ 113.45290375, -7.88382006 ], [ 113.45321655, -7.8839798 ], [ 113.45342255, -7.88411999 ], [ 113.45350647, -7.88418007 ], [ 113.45372009, -7.88426018 ], [ 113.45407867, -7.88431263 ], [ 113.45439148, -7.88429022 ], [ 113.45458221, -7.88423014 ], [ 113.45467377, -7.88418007 ], [ 113.45487976, -7.88414001 ], [ 113.45542908, -7.88375998 ], [ 113.45567322, -7.88363981 ], [ 113.45581818, -7.88360977 ], [ 113.45601654, -7.88369989 ], [ 113.45616913, -7.88384008 ], [ 113.45633698, -7.88419008 ], [ 113.45652008, -7.88472986 ], [ 113.45661163, -7.88495016 ], [ 113.45696259, -7.88534021 ], [ 113.45715332, -7.88550997 ], [ 113.4574585, -7.8856101 ], [ 113.45767212, -7.88563013 ], [ 113.45800018, -7.88558006 ], [ 113.45845795, -7.88539982 ], [ 113.45871735, -7.8853302 ], [ 113.45980072, -7.88583994 ], [ 113.46019745, -7.88609982 ], [ 113.46096802, -7.88660002 ], [ 113.46147919, -7.88718987 ], [ 113.46179199, -7.88751984 ], [ 113.46228027, -7.88784981 ], [ 113.46257782, -7.88804007 ], [ 113.4629364, -7.88834 ], [ 113.46392059, -7.88881016 ], [ 113.46505737, -7.88943005 ], [ 113.46527863, -7.88953018 ], [ 113.46559143, -7.88960981 ], [ 113.46570587, -7.88961363 ], [ 113.46591949, -7.88961983 ], [ 113.46617126, -7.88956022 ], [ 113.46661377, -7.8893199 ], [ 113.46687317, -7.88911009 ], [ 113.46768951, -7.88846016 ], [ 113.46794128, -7.88832998 ], [ 113.46813202, -7.88832998 ], [ 113.46852112, -7.88857985 ], [ 113.46868134, -7.88865995 ], [ 113.46878815, -7.88867998 ], [ 113.46913147, -7.88844013 ], [ 113.46942902, -7.88797998 ], [ 113.46971893, -7.88720989 ], [ 113.46987915, -7.88673019 ], [ 113.46996307, -7.88661003 ], [ 113.47003174, -7.88656998 ], [ 113.47022247, -7.88667011 ], [ 113.47039795, -7.88687992 ], [ 113.47077942, -7.88737011 ], [ 113.47086334, -7.88747978 ], [ 113.47084808, -7.88759995 ], [ 113.47077942, -7.88776016 ], [ 113.47064972, -7.88788986 ], [ 113.4703598, -7.88806009 ], [ 113.47019196, -7.88819981 ], [ 113.4701767, -7.88835001 ], [ 113.47022247, -7.88851023 ], [ 113.47032166, -7.8886199 ], [ 113.47058868, -7.88871002 ], [ 113.47126007, -7.88864994 ], [ 113.47138977, -7.88864994 ], [ 113.47151947, -7.88872004 ], [ 113.47167969, -7.88918018 ], [ 113.47174072, -7.88928986 ], [ 113.47189331, -7.88935995 ], [ 113.47223663, -7.88937998 ], [ 113.47238922, -7.88936996 ], [ 113.47299194, -7.88894987 ], [ 113.4731369, -7.88870001 ], [ 113.4732132, -7.88830996 ], [ 113.47325134, -7.88819981 ], [ 113.47338867, -7.88813019 ], [ 113.47355652, -7.88812017 ], [ 113.47386169, -7.88847017 ], [ 113.47422791, -7.88887978 ], [ 113.4744873, -7.88908005 ], [ 113.47492981, -7.88926983 ], [ 113.4756012, -7.88944006 ], [ 113.47596741, -7.88946009 ], [ 113.47631073, -7.88937998 ], [ 113.47654724, -7.88922977 ], [ 113.47669983, -7.88906002 ], [ 113.47683716, -7.88886023 ], [ 113.4770813, -7.88875008 ], [ 113.47721863, -7.88871765 ], [ 113.47730255, -7.88870001 ], [ 113.47746277, -7.88871002 ], [ 113.4776001, -7.88881016 ], [ 113.47788239, -7.88922024 ], [ 113.47805786, -7.88940001 ], [ 113.47821808, -7.88949013 ], [ 113.47837067, -7.88950014 ], [ 113.47853851, -7.88937998 ], [ 113.47866821, -7.88922024 ], [ 113.47892761, -7.88859987 ], [ 113.47902679, -7.88843012 ], [ 113.47914886, -7.88832998 ], [ 113.47933197, -7.88831997 ], [ 113.47958374, -7.88840008 ], [ 113.47987366, -7.88857985 ], [ 113.48001099, -7.88865995 ], [ 113.48033905, -7.88867998 ], [ 113.48069, -7.88871002 ], [ 113.48110962, -7.88895988 ], [ 113.4812088, -7.88906002 ], [ 113.4813385, -7.88937998 ], [ 113.48136902, -7.88965988 ], [ 113.48136902, -7.88985014 ], [ 113.48149109, -7.89008999 ], [ 113.48169708, -7.89038992 ], [ 113.48175812, -7.89043999 ], [ 113.48181915, -7.89049006 ], [ 113.48194885, -7.8905201 ], [ 113.48233032, -7.89043999 ], [ 113.48246765, -7.89036989 ], [ 113.48256683, -7.89027023 ], [ 113.48261261, -7.89002991 ], [ 113.4824295, -7.88960981 ], [ 113.48239899, -7.88951015 ], [ 113.4824295, -7.88942003 ], [ 113.48255157, -7.88933992 ], [ 113.48265076, -7.88933992 ], [ 113.48297882, -7.88951015 ], [ 113.48335266, -7.88975 ], [ 113.48387909, -7.88999987 ], [ 113.48429871, -7.89015007 ], [ 113.48468018, -7.89015007 ], [ 113.48509216, -7.89002991 ], [ 113.48532867, -7.88997984 ], [ 113.48551941, -7.88999987 ], [ 113.48580933, -7.89013004 ], [ 113.48603821, -7.89041996 ], [ 113.48638916, -7.89086008 ], [ 113.48660278, -7.89108992 ], [ 113.48677826, -7.89118004 ], [ 113.48690033, -7.89118004 ], [ 113.48735046, -7.89062977 ], [ 113.48748779, -7.89039993 ], [ 113.48757935, -7.89026022 ], [ 113.48783112, -7.88996744 ], [ 113.48789978, -7.88989019 ], [ 113.48802948, -7.88977003 ], [ 113.4881897, -7.88972998 ], [ 113.48845673, -7.88953018 ], [ 113.48869324, -7.88937998 ], [ 113.48921204, -7.88876009 ], [ 113.48983002, -7.88780022 ], [ 113.4901886, -7.88717985 ], [ 113.49060059, -7.88660002 ], [ 113.49073029, -7.88640022 ], [ 113.49121857, -7.88563013 ], [ 113.49167633, -7.88485003 ], [ 113.49210358, -7.88406992 ], [ 113.49225616, -7.88382149 ], [ 113.49236298, -7.88364983 ], [ 113.49259186, -7.8832798 ], [ 113.49301147, -7.88282013 ], [ 113.49371338, -7.8822999 ], [ 113.4943924, -7.88193989 ], [ 113.49542999, -7.88148022 ], [ 113.49584198, -7.88129997 ], [ 113.49594879, -7.8812499 ], [ 113.49629974, -7.88107014 ], [ 113.49640656, -7.88101006 ], [ 113.49681854, -7.88068008 ], [ 113.4970932, -7.88039017 ], [ 113.49729156, -7.88017988 ], [ 113.49781036, -7.87984991 ], [ 113.4981308, -7.87974977 ], [ 113.49845123, -7.87977982 ], [ 113.49865723, -7.87992001 ], [ 113.49878693, -7.8799901 ], [ 113.49897003, -7.88016987 ], [ 113.49951935, -7.88062 ], [ 113.49958801, -7.88068008 ], [ 113.5, -7.88106012 ], [ 113.50048828, -7.88137007 ], [ 113.5007782, -7.88154984 ], [ 113.50140381, -7.88200998 ], [ 113.50169373, -7.88221979 ], [ 113.50180817, -7.88230991 ], [ 113.50228882, -7.88248014 ], [ 113.50289154, -7.88273001 ], [ 113.50376129, -7.88324022 ], [ 113.50386047, -7.88328981 ], [ 113.50399017, -7.8833499 ], [ 113.5042038, -7.88353014 ], [ 113.50456238, -7.88379002 ], [ 113.50478363, -7.88398981 ], [ 113.50495148, -7.88414001 ], [ 113.50527191, -7.88423014 ], [ 113.50537109, -7.88425016 ], [ 113.50634003, -7.88465977 ], [ 113.50659943, -7.8847599 ], [ 113.50685883, -7.8847599 ], [ 113.50720978, -7.88467979 ], [ 113.50739288, -7.8846302 ], [ 113.50778961, -7.88465977 ], [ 113.50836182, -7.88456011 ], [ 113.50862885, -7.88453007 ], [ 113.50888062, -7.88459015 ], [ 113.50911713, -7.88465977 ], [ 113.50959778, -7.88479996 ], [ 113.51000977, -7.88486004 ], [ 113.51056671, -7.88500023 ], [ 113.51109314, -7.88503981 ], [ 113.51148987, -7.88511992 ], [ 113.51165771, -7.88522005 ], [ 113.51197052, -7.88557005 ], [ 113.51212311, -7.88577986 ], [ 113.5121994, -7.88591003 ], [ 113.51236725, -7.88604021 ], [ 113.5128479, -7.88582993 ], [ 113.51325989, -7.8856101 ], [ 113.51358032, -7.88551998 ], [ 113.51390839, -7.88546991 ], [ 113.51422882, -7.88552999 ], [ 113.51451111, -7.88562012 ], [ 113.5149231, -7.88530016 ], [ 113.51531219, -7.88481998 ], [ 113.51550293, -7.88468981 ], [ 113.51570129, -7.88462019 ], [ 113.51586151, -7.8846302 ], [ 113.51608276, -7.88479996 ], [ 113.51638794, -7.88492012 ], [ 113.5166626, -7.88495016 ], [ 113.51695251, -7.88490009 ], [ 113.51717377, -7.88486004 ], [ 113.51731873, -7.88489008 ], [ 113.51743317, -7.88496017 ], [ 113.51748657, -7.88513994 ], [ 113.51748657, -7.88540983 ], [ 113.5174942, -7.88556099 ], [ 113.51756287, -7.88571978 ], [ 113.51769257, -7.88577986 ], [ 113.51779938, -7.88581991 ], [ 113.51804352, -7.88598013 ], [ 113.51828003, -7.88606977 ], [ 113.51843262, -7.88609982 ], [ 113.51880646, -7.8865099 ], [ 113.51911926, -7.88698006 ], [ 113.51934052, -7.88722992 ], [ 113.5196228, -7.88752985 ], [ 113.51969147, -7.88770008 ], [ 113.5196228, -7.88815022 ], [ 113.51959991, -7.88829994 ], [ 113.51963806, -7.88847017 ], [ 113.51978302, -7.88859987 ], [ 113.5198822, -7.88863993 ], [ 113.52017212, -7.88862991 ], [ 113.52037048, -7.88859987 ], [ 113.52057648, -7.88865995 ], [ 113.52075958, -7.88875008 ], [ 113.52092743, -7.88886976 ], [ 113.52147675, -7.88902998 ], [ 113.52178192, -7.88913012 ], [ 113.52210236, -7.88935995 ], [ 113.52233887, -7.88958979 ], [ 113.52243805, -7.88972998 ], [ 113.52249908, -7.88991022 ], [ 113.52252197, -7.89002991 ], [ 113.52263641, -7.89020014 ], [ 113.52269745, -7.89027977 ], [ 113.52288818, -7.89043999 ], [ 113.5235672, -7.89065981 ], [ 113.5238266, -7.89077997 ], [ 113.52394104, -7.89087009 ], [ 113.52417755, -7.89125013 ], [ 113.52461243, -7.89168978 ], [ 113.52485657, -7.89192009 ], [ 113.52503967, -7.89204979 ], [ 113.52539063, -7.89209986 ], [ 113.52555084, -7.89210987 ], [ 113.52619171, -7.89188004 ], [ 113.52646637, -7.89171982 ], [ 113.52765656, -7.89104986 ], [ 113.52813721, -7.89081001 ], [ 113.52861023, -7.8907299 ], [ 113.52909088, -7.8907299 ], [ 113.5293808, -7.89076996 ], [ 113.52977753, -7.89091015 ], [ 113.53000641, -7.89104986 ], [ 113.53022003, -7.89125013 ], [ 113.53034973, -7.89144993 ], [ 113.5304184, -7.89176989 ], [ 113.53044891, -7.89204979 ], [ 113.53012848, -7.89277983 ], [ 113.53002167, -7.89302015 ], [ 113.52999878, -7.89318991 ], [ 113.53003693, -7.8933301 ], [ 113.53029633, -7.89363003 ], [ 113.53047943, -7.89373016 ], [ 113.53067017, -7.89378023 ], [ 113.53086853, -7.8937602 ], [ 113.53093719, -7.89372015 ], [ 113.53109741, -7.89362001 ], [ 113.53118896, -7.89348984 ], [ 113.53131104, -7.89308977 ], [ 113.53135681, -7.89299011 ], [ 113.53153229, -7.89285994 ], [ 113.53167725, -7.89281988 ], [ 113.53183746, -7.89284992 ], [ 113.5321579, -7.8931098 ], [ 113.53230286, -7.89319992 ], [ 113.53294373, -7.89327002 ], [ 113.53320313, -7.89327002 ], [ 113.53350067, -7.8933301 ], [ 113.53372192, -7.89343023 ], [ 113.53388214, -7.89361 ], [ 113.53401184, -7.8938098 ], [ 113.53414917, -7.89405012 ], [ 113.5343399, -7.89426994 ], [ 113.5349884, -7.89476013 ], [ 113.53527069, -7.89491987 ], [ 113.53547668, -7.89499998 ], [ 113.53562927, -7.89500999 ], [ 113.5357132, -7.89497995 ], [ 113.53578186, -7.89435005 ], [ 113.53582764, -7.89385986 ], [ 113.53604889, -7.89330006 ], [ 113.53613281, -7.89317989 ], [ 113.53614807, -7.89309978 ], [ 113.53626251, -7.89303017 ], [ 113.53652191, -7.89303017 ], [ 113.53669739, -7.8931098 ], [ 113.53692627, -7.89342022 ], [ 113.53720856, -7.89396 ], [ 113.53735352, -7.89418983 ], [ 113.53752899, -7.89454985 ], [ 113.53759003, -7.89476013 ], [ 113.53772736, -7.89502001 ], [ 113.53778839, -7.89515018 ], [ 113.53806305, -7.89532995 ], [ 113.53820801, -7.89537001 ], [ 113.53840637, -7.89529991 ], [ 113.53900146, -7.89490986 ], [ 113.53941345, -7.89456987 ], [ 113.53975677, -7.89425993 ], [ 113.54006195, -7.89400005 ], [ 113.5403595, -7.89379978 ], [ 113.54068756, -7.8936801 ], [ 113.54097748, -7.89362001 ], [ 113.54116821, -7.89364004 ], [ 113.54135895, -7.8937602 ], [ 113.54154205, -7.89396 ], [ 113.54160309, -7.89407015 ], [ 113.54174805, -7.89443016 ], [ 113.5418396, -7.89460993 ], [ 113.54187012, -7.89470005 ], [ 113.54200745, -7.8948698 ], [ 113.54206848, -7.89500999 ], [ 113.5421524, -7.89515018 ], [ 113.54225159, -7.8952198 ], [ 113.54237366, -7.89523983 ], [ 113.5425415, -7.8952198 ], [ 113.54282379, -7.89514017 ], [ 113.54297638, -7.89511013 ], [ 113.54332733, -7.89508009 ], [ 113.54357147, -7.89506006 ], [ 113.54376984, -7.89512014 ], [ 113.54403687, -7.89531994 ], [ 113.54419708, -7.89554977 ], [ 113.54429626, -7.89587021 ], [ 113.54434204, -7.89603996 ], [ 113.54444885, -7.89619017 ], [ 113.54477692, -7.89638996 ], [ 113.54502869, -7.89647007 ], [ 113.5459671, -7.89638996 ], [ 113.54673767, -7.89630985 ], [ 113.54708862, -7.89628983 ], [ 113.54733276, -7.89632988 ], [ 113.54759216, -7.89652014 ], [ 113.54779816, -7.89675999 ], [ 113.54794312, -7.89697981 ], [ 113.54811096, -7.89720011 ], [ 113.54831696, -7.89751005 ], [ 113.54836273, -7.89773989 ], [ 113.54826355, -7.89811993 ], [ 113.54810333, -7.8984499 ], [ 113.54802704, -7.89876986 ], [ 113.54808807, -7.89888 ], [ 113.54888153, -7.89934015 ], [ 113.54931641, -7.89976549 ], [ 113.54945374, -7.89987993 ], [ 113.54987335, -7.89988995 ], [ 113.5502243, -7.89984894 ], [ 113.55024719, -7.90019989 ], [ 113.55027008, -7.90031004 ], [ 113.55033112, -7.90059996 ], [ 113.55036926, -7.90071011 ], [ 113.55042267, -7.90089989 ], [ 113.55046082, -7.90102005 ], [ 113.55049133, -7.90112019 ], [ 113.55059052, -7.90126991 ], [ 113.55063629, -7.90136003 ], [ 113.55071259, -7.90146017 ], [ 113.55084229, -7.90157986 ], [ 113.5510025, -7.90171003 ], [ 113.5511322, -7.90179014 ], [ 113.55130768, -7.90189981 ], [ 113.55143738, -7.90198994 ], [ 113.551651, -7.90215015 ], [ 113.55172729, -7.90222979 ], [ 113.55182648, -7.90235996 ], [ 113.55207825, -7.90256977 ], [ 113.55226135, -7.90265989 ], [ 113.55232239, -7.90269995 ], [ 113.55252838, -7.90277004 ], [ 113.55262756, -7.90280008 ], [ 113.5530777, -7.90294981 ], [ 113.55329132, -7.90312004 ], [ 113.55345917, -7.90335989 ], [ 113.55362701, -7.90365982 ], [ 113.55371857, -7.90400982 ], [ 113.55374146, -7.90411997 ], [ 113.55375671, -7.90436983 ], [ 113.55387878, -7.90462017 ], [ 113.55403137, -7.90501022 ], [ 113.55407715, -7.90510988 ], [ 113.55438995, -7.90565014 ], [ 113.55477142, -7.90613985 ], [ 113.55534363, -7.90673018 ], [ 113.55603027, -7.90747023 ], [ 113.55625153, -7.90793991 ], [ 113.55657196, -7.90858984 ], [ 113.55684662, -7.90900993 ], [ 113.55734253, -7.90963984 ], [ 113.55821228, -7.91019011 ], [ 113.55912781, -7.91060019 ], [ 113.55951691, -7.91074991 ], [ 113.55991364, -7.91091013 ], [ 113.56079102, -7.91113997 ], [ 113.56173706, -7.91154003 ], [ 113.56243896, -7.9120698 ], [ 113.56298065, -7.91258001 ], [ 113.5639801, -7.9134202 ], [ 113.56421661, -7.91365623 ], [ 113.56465149, -7.91408014 ], [ 113.56486511, -7.91422701 ], [ 113.56507874, -7.91437006 ], [ 113.56572723, -7.91454983 ], [ 113.56643677, -7.91458988 ], [ 113.56674194, -7.91463995 ], [ 113.5670929, -7.91470003 ], [ 113.56812286, -7.91486979 ], [ 113.56891632, -7.91503 ], [ 113.56900024, -7.91504669 ], [ 113.56970978, -7.91519022 ], [ 113.57012939, -7.91546011 ], [ 113.5705719, -7.91590023 ], [ 113.57064819, -7.91595984 ], [ 113.57096863, -7.91630983 ], [ 113.57125854, -7.91655016 ], [ 113.5715332, -7.91669989 ], [ 113.5714798, -7.91694021 ], [ 113.57160187, -7.91717005 ], [ 113.5717392, -7.91739988 ], [ 113.57187653, -7.91764021 ], [ 113.57198334, -7.91795015 ], [ 113.57202911, -7.91820002 ], [ 113.57214355, -7.91844988 ], [ 113.57225037, -7.91862011 ], [ 113.57241058, -7.9188199 ], [ 113.57269287, -7.9190402 ], [ 113.57288361, -7.91917992 ], [ 113.57309723, -7.91929007 ], [ 113.57322693, -7.9193902 ], [ 113.57343292, -7.91957998 ], [ 113.57359314, -7.91971016 ], [ 113.5736618, -7.9197998 ], [ 113.57367706, -7.91989994 ], [ 113.57415771, -7.92008018 ], [ 113.57485199, -7.92017984 ], [ 113.57566833, -7.92026997 ], [ 113.57608795, -7.92040014 ], [ 113.57688904, -7.92069006 ], [ 113.57756042, -7.92106009 ], [ 113.57852936, -7.92163992 ], [ 113.579422, -7.92224979 ], [ 113.57991028, -7.92262983 ], [ 113.58065796, -7.92308998 ], [ 113.58146667, -7.92339993 ], [ 113.58154297, -7.92341805 ], [ 113.58207703, -7.92356014 ], [ 113.58280945, -7.92381001 ], [ 113.58289337, -7.92384005 ], [ 113.58390045, -7.92430019 ], [ 113.5846405, -7.92474985 ], [ 113.58518219, -7.92522001 ], [ 113.58544922, -7.92558765 ], [ 113.58576965, -7.92602015 ], [ 113.58586884, -7.92612982 ], [ 113.58635712, -7.92668009 ], [ 113.58647919, -7.92684984 ], [ 113.58653259, -7.92700005 ], [ 113.58657074, -7.92707014 ], [ 113.5866394, -7.92714977 ], [ 113.58667755, -7.92732 ], [ 113.58677673, -7.92749977 ], [ 113.58686066, -7.92771006 ], [ 113.58698273, -7.92800999 ], [ 113.5871582, -7.92824984 ], [ 113.58731842, -7.92848015 ], [ 113.58750153, -7.92884016 ], [ 113.58772278, -7.92907 ], [ 113.58785248, -7.92917013 ], [ 113.58833313, -7.92954016 ], [ 113.58892059, -7.92979002 ], [ 113.58963013, -7.93009996 ], [ 113.59011841, -7.93043995 ], [ 113.59089661, -7.93084002 ], [ 113.59114838, -7.93095016 ], [ 113.59156036, -7.93084002 ], [ 113.59198761, -7.93073988 ], [ 113.59229279, -7.93072987 ], [ 113.5923996, -7.93073988 ], [ 113.59272766, -7.93079996 ], [ 113.59294891, -7.93088007 ], [ 113.5930481, -7.93097019 ], [ 113.59306335, -7.93108988 ], [ 113.59307098, -7.93116999 ], [ 113.59310913, -7.93128014 ], [ 113.59322357, -7.93149996 ], [ 113.59335327, -7.93170023 ], [ 113.59368134, -7.93212986 ], [ 113.59377289, -7.93220997 ], [ 113.59403229, -7.93240976 ], [ 113.59445953, -7.93277979 ], [ 113.59500885, -7.93324995 ], [ 113.59564209, -7.93379021 ], [ 113.59599304, -7.93416023 ], [ 113.59645081, -7.93462992 ], [ 113.59661102, -7.93472004 ], [ 113.59686279, -7.93477011 ], [ 113.59706116, -7.93476009 ], [ 113.59736633, -7.93467999 ], [ 113.59777832, -7.93447018 ], [ 113.59792328, -7.93435001 ], [ 113.5979538, -7.93422985 ], [ 113.59797668, -7.93410015 ], [ 113.59803772, -7.93386984 ], [ 113.5980835, -7.93373013 ], [ 113.5981369, -7.93349981 ], [ 113.59822083, -7.93340015 ], [ 113.59867859, -7.93302011 ], [ 113.59884644, -7.93297005 ], [ 113.59937286, -7.93288994 ], [ 113.59998322, -7.9327302 ], [ 113.60050964, -7.93260002 ], [ 113.60089111, -7.93253422 ], [ 113.60195923, -7.93235016 ], [ 113.60238647, -7.93225002 ], [ 113.60282898, -7.93205023 ], [ 113.6031189, -7.93189001 ], [ 113.60369873, -7.93155003 ], [ 113.60408783, -7.93150997 ], [ 113.60466766, -7.93149996 ], [ 113.60513306, -7.93140984 ], [ 113.60549164, -7.93130016 ], [ 113.60552979, -7.93122005 ], [ 113.60556793, -7.93114996 ], [ 113.60562897, -7.93107986 ], [ 113.60574341, -7.93097019 ], [ 113.60588074, -7.93086004 ], [ 113.60594177, -7.93070984 ], [ 113.60600281, -7.93060017 ], [ 113.60604858, -7.93052006 ], [ 113.60611725, -7.93041992 ], [ 113.60617828, -7.9303298 ], [ 113.60626221, -7.93021011 ], [ 113.60632324, -7.93013 ], [ 113.60639954, -7.93001986 ], [ 113.60648346, -7.92994022 ], [ 113.6065979, -7.92987013 ], [ 113.6067276, -7.92979002 ], [ 113.60679626, -7.92973995 ], [ 113.60694122, -7.92965984 ], [ 113.60704041, -7.92959976 ], [ 113.60716248, -7.92953014 ], [ 113.60733032, -7.92944002 ], [ 113.60746002, -7.92933989 ], [ 113.60762787, -7.92914009 ], [ 113.60769653, -7.92907 ], [ 113.60775757, -7.9289999 ], [ 113.60784149, -7.92890978 ], [ 113.60801697, -7.92869997 ], [ 113.6083374, -7.92848015 ], [ 113.6085434, -7.92835999 ], [ 113.60870361, -7.92826986 ], [ 113.60884094, -7.92819023 ], [ 113.60903168, -7.9280901 ], [ 113.60922241, -7.92797995 ], [ 113.60939789, -7.9278698 ], [ 113.60958862, -7.92771006 ], [ 113.60967255, -7.92761993 ], [ 113.60984802, -7.9273901 ], [ 113.60993958, -7.92722988 ], [ 113.61006927, -7.92689991 ], [ 113.61009979, -7.9268198 ], [ 113.61049652, -7.92644978 ], [ 113.61126709, -7.92573977 ], [ 113.61183167, -7.92519999 ], [ 113.61235809, -7.92477989 ], [ 113.6129837, -7.92433023 ], [ 113.61328888, -7.92412996 ], [ 113.61382294, -7.92377996 ], [ 113.61460876, -7.92350006 ], [ 113.6156311, -7.92320013 ], [ 113.61643219, -7.92303991 ], [ 113.61752319, -7.92284012 ], [ 113.61869049, -7.92259979 ], [ 113.61953735, -7.9224 ], [ 113.62046814, -7.92195988 ], [ 113.62124634, -7.92149019 ], [ 113.62216949, -7.92103004 ], [ 113.62283325, -7.92071009 ], [ 113.62294006, -7.92067003 ], [ 113.62355804, -7.92047024 ], [ 113.62457275, -7.92026997 ], [ 113.62474823, -7.92024994 ], [ 113.625, -7.9202199 ], [ 113.62532043, -7.92022991 ], [ 113.62550354, -7.9202199 ], [ 113.62573242, -7.92023993 ], [ 113.62600708, -7.92022562 ], [ 113.62599945, -7.92090654 ], [ 113.62577057, -7.92206001 ], [ 113.62567902, -7.92268896 ], [ 113.62559509, -7.92338324 ], [ 113.6255188, -7.92373705 ], [ 113.62543488, -7.92407227 ], [ 113.6252594, -7.92430162 ], [ 113.625, -7.92500257 ], [ 113.62483978, -7.9253459 ], [ 113.6244812, -7.92577124 ], [ 113.62391663, -7.92622995 ], [ 113.62333679, -7.92649984 ], [ 113.62255096, -7.92678738 ], [ 113.62182617, -7.92698002 ], [ 113.62111664, -7.92701626 ], [ 113.62051392, -7.92717075 ], [ 113.62023163, -7.92716503 ], [ 113.62001038, -7.92720604 ], [ 113.61990356, -7.9272604 ], [ 113.61974335, -7.92740774 ], [ 113.61967468, -7.92751598 ], [ 113.61956024, -7.92771244 ], [ 113.61951447, -7.9278388 ], [ 113.61945343, -7.92797232 ], [ 113.61934662, -7.92820215 ], [ 113.61929321, -7.92828226 ], [ 113.6191864, -7.92839813 ], [ 113.61907959, -7.92851639 ], [ 113.61897278, -7.92858934 ], [ 113.61888123, -7.92862225 ], [ 113.61875916, -7.92883825 ], [ 113.61842346, -7.9294486 ], [ 113.6180954, -7.93010902 ], [ 113.61782074, -7.93069124 ], [ 113.61750793, -7.93139887 ], [ 113.61735535, -7.93232536 ], [ 113.61723328, -7.9331727 ], [ 113.61721039, -7.93378448 ], [ 113.6170578, -7.9342432 ], [ 113.61702728, -7.93459797 ], [ 113.61710358, -7.93499517 ], [ 113.61734009, -7.93536234 ], [ 113.61748505, -7.93558168 ], [ 113.61764526, -7.93583536 ], [ 113.61772156, -7.93596077 ], [ 113.61787415, -7.93603039 ], [ 113.61798859, -7.93614817 ], [ 113.61808014, -7.93620729 ], [ 113.61820221, -7.93627405 ], [ 113.61840057, -7.9365449 ], [ 113.61864471, -7.93702221 ], [ 113.61875153, -7.93770456 ], [ 113.6187973, -7.93837023 ], [ 113.61876678, -7.93852854 ], [ 113.61869049, -7.93892002 ], [ 113.61857605, -7.93909359 ], [ 113.61829376, -7.93951035 ], [ 113.61821747, -7.93962288 ], [ 113.6181488, -7.93972349 ], [ 113.61808014, -7.9397707 ], [ 113.61779022, -7.93996906 ], [ 113.6177063, -7.94001245 ], [ 113.61740875, -7.94015932 ], [ 113.61730194, -7.94021082 ], [ 113.61711121, -7.94034624 ], [ 113.61701965, -7.94041681 ], [ 113.61688995, -7.94051075 ], [ 113.61643219, -7.94084597 ], [ 113.61599731, -7.94117117 ], [ 113.61575317, -7.94135141 ], [ 113.61565399, -7.94142151 ], [ 113.61546326, -7.94156408 ], [ 113.61528778, -7.94166851 ], [ 113.6150589, -7.94180965 ], [ 113.6150589, -7.94189501 ], [ 113.61506653, -7.94204712 ], [ 113.61501312, -7.94238949 ], [ 113.61495209, -7.94260883 ], [ 113.61490631, -7.94273996 ], [ 113.61483765, -7.94291878 ], [ 113.6147995, -7.9430151 ], [ 113.61465454, -7.94345188 ], [ 113.61461639, -7.9435544 ], [ 113.61457062, -7.94363308 ], [ 113.61443329, -7.94386864 ], [ 113.61437225, -7.94398069 ], [ 113.61431885, -7.94406891 ], [ 113.61421204, -7.94421148 ], [ 113.61414337, -7.94429207 ], [ 113.61402893, -7.94439697 ], [ 113.61376953, -7.94462729 ], [ 113.6137085, -7.94467735 ], [ 113.61363983, -7.94473457 ], [ 113.61336517, -7.94496584 ], [ 113.61313629, -7.94516134 ], [ 113.61303711, -7.94528341 ], [ 113.6129303, -7.94542408 ], [ 113.61283875, -7.94554663 ], [ 113.61257172, -7.94596004 ], [ 113.6124115, -7.94624233 ], [ 113.61223602, -7.94661474 ], [ 113.61203003, -7.94698763 ], [ 113.61187744, -7.94725418 ], [ 113.61178589, -7.94740486 ], [ 113.61151123, -7.94786453 ], [ 113.61121368, -7.94826746 ], [ 113.61110687, -7.94838238 ], [ 113.61108398, -7.9486804 ], [ 113.61103821, -7.94902515 ], [ 113.61103821, -7.9492588 ], [ 113.61104584, -7.94962168 ], [ 113.61112213, -7.95005751 ], [ 113.6113205, -7.95063972 ], [ 113.61145782, -7.95082283 ], [ 113.61154938, -7.9509387 ], [ 113.61174774, -7.95120192 ], [ 113.61217499, -7.95152855 ], [ 113.61235809, -7.95170307 ], [ 113.61262512, -7.95195198 ], [ 113.61332703, -7.95231581 ], [ 113.61373901, -7.95253277 ], [ 113.61393738, -7.95263433 ], [ 113.61418152, -7.95276165 ], [ 113.61441803, -7.95293474 ], [ 113.6145401, -7.95302582 ], [ 113.61470032, -7.95314074 ], [ 113.61576843, -7.95315409 ], [ 113.61584473, -7.9531517 ], [ 113.61625671, -7.95307875 ], [ 113.6166687, -7.95300436 ], [ 113.6171875, -7.95294285 ], [ 113.61753082, -7.95290232 ], [ 113.61781311, -7.9528327 ], [ 113.61820984, -7.95275068 ], [ 113.6185379, -7.95266008 ], [ 113.61896515, -7.95251989 ], [ 113.61910248, -7.95243549 ], [ 113.61925507, -7.95234203 ], [ 113.61947632, -7.9522686 ], [ 113.61972809, -7.95226669 ], [ 113.62051392, -7.95217037 ], [ 113.62103271, -7.95218801 ], [ 113.62129211, -7.95219707 ], [ 113.62168121, -7.95224094 ], [ 113.62194824, -7.95227098 ], [ 113.62213898, -7.95235682 ], [ 113.62232971, -7.95244169 ], [ 113.62237549, -7.95251179 ], [ 113.62242889, -7.95258474 ], [ 113.62255096, -7.95276928 ], [ 113.62257385, -7.9528904 ], [ 113.62261963, -7.95316124 ], [ 113.62255859, -7.95350552 ], [ 113.62254333, -7.95358515 ], [ 113.62236786, -7.95382214 ], [ 113.62218475, -7.95406437 ], [ 113.62200928, -7.95429468 ], [ 113.62191772, -7.95438528 ], [ 113.6215744, -7.95471811 ], [ 113.62145996, -7.95483112 ], [ 113.62132263, -7.95496559 ], [ 113.62123108, -7.95505142 ], [ 113.62086487, -7.95529509 ], [ 113.62075806, -7.955369 ], [ 113.62039948, -7.95557499 ], [ 113.6199646, -7.95569897 ], [ 113.61950684, -7.95583153 ], [ 113.61934662, -7.95592117 ], [ 113.61927032, -7.95596361 ], [ 113.61908722, -7.95600271 ], [ 113.61869812, -7.95601416 ], [ 113.61837006, -7.95604467 ], [ 113.61826324, -7.95605469 ], [ 113.61800385, -7.95612621 ], [ 113.61751556, -7.95626068 ], [ 113.61682892, -7.95645666 ], [ 113.61669922, -7.95648384 ], [ 113.61643982, -7.95660353 ], [ 113.61630249, -7.95667076 ], [ 113.61595917, -7.95683336 ], [ 113.61576843, -7.95683908 ], [ 113.61566925, -7.95701599 ], [ 113.61560822, -7.95722198 ], [ 113.61556244, -7.95737696 ], [ 113.61555481, -7.95763636 ], [ 113.61554718, -7.95780039 ], [ 113.61559296, -7.9579339 ], [ 113.61566162, -7.95814514 ], [ 113.61608887, -7.95847225 ], [ 113.61616516, -7.9585104 ], [ 113.6164856, -7.95866585 ], [ 113.61662292, -7.95873499 ], [ 113.61671448, -7.95876265 ], [ 113.61692047, -7.95882177 ], [ 113.61736298, -7.95895243 ], [ 113.61756897, -7.95901155 ], [ 113.61764526, -7.95902634 ], [ 113.61826324, -7.95914316 ], [ 113.61862946, -7.95921278 ], [ 113.61891174, -7.95926619 ], [ 113.61925507, -7.95933104 ], [ 113.61997986, -7.95946693 ], [ 113.62073517, -7.95963478 ], [ 113.62142944, -7.95991278 ], [ 113.62207031, -7.96028519 ], [ 113.62216949, -7.96034384 ], [ 113.62268066, -7.96061039 ], [ 113.62284851, -7.96071911 ], [ 113.62310791, -7.96088696 ], [ 113.62323761, -7.96096754 ], [ 113.62366486, -7.9613533 ], [ 113.62380219, -7.96143389 ], [ 113.62362671, -7.96158981 ], [ 113.62349701, -7.9617033 ], [ 113.62342072, -7.96183586 ], [ 113.6233139, -7.96204901 ], [ 113.6232605, -7.96220446 ], [ 113.62349701, -7.96251869 ], [ 113.62395477, -7.96284533 ], [ 113.6245575, -7.9631238 ], [ 113.625, -7.9633255 ], [ 113.62536621, -7.9634223 ], [ 113.62567902, -7.96354437 ], [ 113.62611389, -7.96396971 ], [ 113.62624359, -7.96443033 ], [ 113.626297, -7.9650197 ], [ 113.62625122, -7.96553278 ], [ 113.62630463, -7.96583986 ], [ 113.62641144, -7.96630096 ], [ 113.62667084, -7.96670961 ], [ 113.62698364, -7.96691275 ], [ 113.62744904, -7.96698666 ], [ 113.62814331, -7.96700764 ], [ 113.62865448, -7.9670558 ], [ 113.62906647, -7.96720695 ], [ 113.62927246, -7.96741056 ], [ 113.62937927, -7.96766663 ], [ 113.62937927, -7.96802521 ], [ 113.62922668, -7.96835947 ], [ 113.62895203, -7.96874571 ], [ 113.62866974, -7.96915817 ], [ 113.62863159, -7.96924067 ], [ 113.62849426, -7.96954346 ], [ 113.62849426, -7.97010756 ], [ 113.62860107, -7.97074795 ], [ 113.62876129, -7.97128534 ], [ 113.62904358, -7.97187328 ], [ 113.62928009, -7.97225618 ], [ 113.6295166, -7.97245979 ], [ 113.62979889, -7.97248363 ], [ 113.63015747, -7.97232771 ], [ 113.63076782, -7.9717598 ], [ 113.631073, -7.97132206 ], [ 113.63156128, -7.97054958 ], [ 113.63209534, -7.96954632 ], [ 113.63253021, -7.96880007 ], [ 113.63301086, -7.9678483 ], [ 113.63362122, -7.96687031 ], [ 113.63431549, -7.9661994 ], [ 113.63495636, -7.965734 ], [ 113.63567352, -7.9655757 ], [ 113.63613892, -7.96559811 ], [ 113.63677979, -7.96605539 ], [ 113.63735199, -7.9667697 ], [ 113.63790131, -7.967484 ], [ 113.63852692, -7.96868515 ], [ 113.63925171, -7.96973181 ], [ 113.64008331, -7.97085428 ], [ 113.64086151, -7.9715929 ], [ 113.641716, -7.97227955 ], [ 113.64246368, -7.97271061 ], [ 113.64356232, -7.97311974 ], [ 113.64323425, -7.97345734 ], [ 113.64281464, -7.97386694 ], [ 113.64196014, -7.9744463 ], [ 113.64116669, -7.97483969 ], [ 113.64031219, -7.97519684 ], [ 113.639534, -7.97544241 ], [ 113.63870239, -7.97561407 ], [ 113.63803101, -7.97567368 ], [ 113.63713837, -7.9756422 ], [ 113.63613892, -7.97559357 ], [ 113.63507843, -7.97545195 ], [ 113.63420105, -7.97538376 ], [ 113.6337204, -7.97533131 ], [ 113.63308716, -7.97540903 ], [ 113.63256836, -7.97554207 ], [ 113.63208771, -7.97563744 ], [ 113.63173676, -7.97567701 ], [ 113.63105011, -7.97562551 ], [ 113.62995148, -7.97555876 ], [ 113.62915039, -7.97556353 ], [ 113.62874603, -7.9756403 ], [ 113.62820435, -7.97571802 ], [ 113.62768555, -7.9759059 ], [ 113.62737274, -7.9761672 ], [ 113.62700653, -7.97663212 ], [ 113.62691498, -7.97715044 ], [ 113.62696075, -7.97813082 ], [ 113.62705994, -7.9790926 ], [ 113.62712097, -7.97985077 ], [ 113.62715912, -7.98073864 ], [ 113.6271286, -7.98147869 ], [ 113.62698364, -7.98181295 ], [ 113.6266861, -7.9821291 ], [ 113.6259613, -7.98225594 ], [ 113.62550354, -7.98209381 ], [ 113.62516785, -7.98176575 ], [ 113.625, -7.9817276 ], [ 113.6245575, -7.98186493 ], [ 113.62414551, -7.98189831 ], [ 113.62361908, -7.98194742 ], [ 113.6233139, -7.98208714 ], [ 113.62288666, -7.98238039 ], [ 113.62229156, -7.98261404 ], [ 113.62142944, -7.98277235 ], [ 113.62038422, -7.98287058 ], [ 113.61949921, -7.98310566 ], [ 113.61882019, -7.98349237 ], [ 113.61847687, -7.98402977 ], [ 113.61833954, -7.98453569 ], [ 113.61833954, -7.98487234 ], [ 113.61860657, -7.98534441 ], [ 113.61911774, -7.98599911 ], [ 113.61955261, -7.98654699 ], [ 113.61968994, -7.98708153 ], [ 113.6195755, -7.98758698 ], [ 113.61923981, -7.98792553 ], [ 113.61857605, -7.98828125 ], [ 113.61766052, -7.9886694 ], [ 113.61669159, -7.98901224 ], [ 113.61597443, -7.98933792 ], [ 113.61551666, -7.98961639 ], [ 113.6150589, -7.98998642 ], [ 113.61489105, -7.99038506 ], [ 113.61487579, -7.99082899 ], [ 113.61494446, -7.99137926 ], [ 113.61494446, -7.99189949 ], [ 113.61495209, -7.9924345 ], [ 113.61490631, -7.99264908 ], [ 113.61472321, -7.99271107 ], [ 113.61437988, -7.9926219 ], [ 113.61405945, -7.99242496 ], [ 113.61397552, -7.99235058 ], [ 113.61368561, -7.9920907 ], [ 113.61344147, -7.99161816 ], [ 113.61329651, -7.99106836 ], [ 113.61332703, -7.99051762 ], [ 113.61345673, -7.98996592 ], [ 113.61371613, -7.98941374 ], [ 113.61394501, -7.98898411 ], [ 113.61400604, -7.98881531 ], [ 113.61396027, -7.98869324 ], [ 113.61378479, -7.98857164 ], [ 113.61351013, -7.98851252 ], [ 113.6131897, -7.98857546 ], [ 113.61283875, -7.9888072 ], [ 113.61239624, -7.98916197 ], [ 113.61203003, -7.98942423 ], [ 113.6115799, -7.98944235 ], [ 113.61110687, -7.98932314 ], [ 113.61054993, -7.98911238 ], [ 113.61027527, -7.9889307 ], [ 113.60990143, -7.98887205 ], [ 113.60964203, -7.98890448 ], [ 113.60930634, -7.98905945 ], [ 113.60892487, -7.98936796 ], [ 113.60858917, -7.98964548 ], [ 113.60823822, -7.98984623 ], [ 113.60777283, -7.9899559 ], [ 113.60725403, -7.98999023 ], [ 113.60688782, -7.98996162 ], [ 113.60640717, -7.98975086 ], [ 113.60562134, -7.98908281 ], [ 113.60503387, -7.98829079 ], [ 113.60450745, -7.98742247 ], [ 113.60425568, -7.98676586 ], [ 113.60424805, -7.98620033 ], [ 113.60432434, -7.9856081 ], [ 113.60432434, -7.98511362 ], [ 113.60404205, -7.98467207 ], [ 113.60377502, -7.98421478 ], [ 113.60371399, -7.98375607 ], [ 113.60379028, -7.98318958 ], [ 113.60407257, -7.98243856 ], [ 113.60411835, -7.98184156 ], [ 113.60411072, -7.98129082 ], [ 113.60398865, -7.98061848 ], [ 113.60358429, -7.98008537 ], [ 113.60302734, -7.9797678 ], [ 113.60276031, -7.97965479 ], [ 113.6026001, -7.97958708 ], [ 113.60173798, -7.97956181 ], [ 113.60102844, -7.97964287 ], [ 113.60017395, -7.9799695 ], [ 113.59955597, -7.98030996 ], [ 113.5989151, -7.98042107 ], [ 113.5980835, -7.98025799 ], [ 113.59711456, -7.97977495 ], [ 113.59660339, -7.979671 ], [ 113.59597778, -7.97959805 ], [ 113.59506989, -7.97951221 ], [ 113.59434509, -7.97934866 ], [ 113.59378052, -7.9791379 ], [ 113.59329987, -7.97909498 ], [ 113.59247589, -7.97919226 ], [ 113.59204102, -7.97940874 ], [ 113.59171295, -7.98006868 ], [ 113.59163666, -7.98089504 ], [ 113.59164429, -7.98161411 ], [ 113.59159851, -7.9821496 ], [ 113.59128571, -7.9830389 ], [ 113.59061432, -7.98399162 ], [ 113.58992767, -7.98497486 ], [ 113.5893631, -7.98537636 ], [ 113.58851624, -7.98556519 ], [ 113.58734131, -7.98578691 ], [ 113.58602905, -7.98587132 ], [ 113.58493042, -7.98592424 ], [ 113.58351135, -7.98594856 ], [ 113.5824585, -7.98598528 ], [ 113.58156586, -7.98591471 ], [ 113.58094788, -7.98579597 ], [ 113.5802536, -7.98566294 ], [ 113.57938385, -7.98557663 ], [ 113.57824707, -7.98543072 ], [ 113.57710266, -7.98523903 ], [ 113.5763855, -7.98512125 ], [ 113.57572937, -7.98512506 ], [ 113.57541656, -7.98512697 ], [ 113.57500458, -7.98520613 ], [ 113.57443237, -7.98543882 ], [ 113.5735321, -7.98596478 ], [ 113.57264709, -7.98644447 ], [ 113.57170868, -7.98713875 ], [ 113.57111359, -7.98761654 ], [ 113.57051849, -7.98784971 ], [ 113.56985474, -7.98786879 ], [ 113.56947327, -7.98784876 ], [ 113.56907654, -7.98782778 ], [ 113.56812286, -7.98768091 ], [ 113.56704712, -7.98745823 ], [ 113.56599426, -7.98717403 ], [ 113.56484222, -7.98678303 ], [ 113.5640564, -7.9864974 ], [ 113.56319427, -7.9863348 ], [ 113.56256866, -7.98636913 ], [ 113.56178284, -7.98646593 ], [ 113.56080627, -7.98662519 ], [ 113.56015778, -7.9869194 ], [ 113.55998993, -7.98706436 ], [ 113.55969238, -7.98732615 ], [ 113.55963135, -7.98760176 ], [ 113.55957794, -7.98788166 ], [ 113.55952454, -7.98806143 ], [ 113.55943298, -7.988307 ], [ 113.55937958, -7.98845005 ], [ 113.55934906, -7.9886508 ], [ 113.55931854, -7.98883533 ], [ 113.55924225, -7.98906279 ], [ 113.55915833, -7.98917246 ], [ 113.5590744, -7.98926163 ], [ 113.5589447, -7.98945856 ], [ 113.55886841, -7.98964071 ], [ 113.55873108, -7.98982859 ], [ 113.55845642, -7.99006653 ], [ 113.55860138, -7.9902606 ], [ 113.55876923, -7.99052572 ], [ 113.5587616, -7.99062872 ], [ 113.55874634, -7.99072647 ], [ 113.55867004, -7.99118805 ], [ 113.55857086, -7.99141836 ], [ 113.5583725, -7.9916997 ], [ 113.55809784, -7.99209166 ], [ 113.55800629, -7.99237251 ], [ 113.55782318, -7.99290133 ], [ 113.55773926, -7.99312782 ], [ 113.55763245, -7.99334621 ], [ 113.55747986, -7.99350595 ], [ 113.55721283, -7.99360371 ], [ 113.55697632, -7.99355412 ], [ 113.55677032, -7.99362755 ], [ 113.55647278, -7.99374485 ], [ 113.55617523, -7.99398994 ], [ 113.55568695, -7.99419785 ], [ 113.55521393, -7.99444532 ], [ 113.55480194, -7.99467754 ], [ 113.55451202, -7.99500036 ], [ 113.55438995, -7.99523067 ], [ 113.55425262, -7.99558353 ], [ 113.55410004, -7.99582958 ], [ 113.55382538, -7.99604511 ], [ 113.55344391, -7.99632263 ], [ 113.55313873, -7.99666119 ], [ 113.55290985, -7.99724388 ], [ 113.55276489, -7.9978261 ], [ 113.55253601, -7.99821043 ], [ 113.55212402, -7.99842215 ], [ 113.55195618, -7.99846172 ], [ 113.55164337, -7.99853754 ], [ 113.5514679, -7.9985671 ], [ 113.5513382, -7.99864292 ], [ 113.55117035, -7.9990654 ], [ 113.55112457, -7.99919128 ], [ 113.55103302, -7.99923325 ], [ 113.5509491, -7.99920559 ], [ 113.5508194, -7.99898052 ], [ 113.55052948, -7.99859381 ], [ 113.55041504, -7.99852371 ], [ 113.55023956, -7.99857569 ], [ 113.55010223, -7.99870205 ], [ 113.54999542, -7.99894428 ], [ 113.54999542, -7.99906778 ], [ 113.55003357, -7.99926949 ], [ 113.54995728, -7.99939871 ], [ 113.54967499, -7.99947166 ], [ 113.54951477, -7.99936771 ], [ 113.54940033, -7.99920654 ], [ 113.54927826, -7.999053 ], [ 113.54914856, -7.99899197 ], [ 113.54889679, -7.99889231 ], [ 113.54880524, -7.99888325 ], [ 113.54808044, -7.99913645 ], [ 113.54782867, -7.99921465 ], [ 113.54750824, -7.99917507 ], [ 113.54721069, -7.99913073 ], [ 113.54710388, -7.99914122 ], [ 113.546875, -7.99923468 ], [ 113.54662323, -7.99948311 ], [ 113.54642487, -7.99966526 ], [ 113.5459671, -7.99960852 ], [ 113.54576111, -7.99960089 ], [ 113.54557037, -7.99957848 ], [ 113.54532623, -7.99950886 ], [ 113.54522705, -7.99951744 ], [ 113.54489136, -7.99991989 ], [ 113.54477692, -7.99999952 ], [ 113.54453278, -8.00015926 ], [ 113.54441071, -8.00024223 ], [ 113.54428864, -8.00042152 ], [ 113.54420471, -8.0009222 ], [ 113.54418182, -8.00108719 ], [ 113.54409027, -8.00109386 ], [ 113.54388428, -8.00095081 ], [ 113.54361725, -8.00071526 ], [ 113.54343414, -8.00062084 ], [ 113.54319763, -8.00057793 ], [ 113.54298401, -8.00059795 ], [ 113.54282379, -8.00065136 ], [ 113.54266357, -8.00079155 ], [ 113.54261017, -8.00086498 ], [ 113.54251099, -8.00104237 ], [ 113.54243469, -8.00124931 ], [ 113.54229736, -8.00165749 ], [ 113.54203033, -8.0019331 ], [ 113.54193115, -8.00203037 ], [ 113.54189301, -8.00222683 ], [ 113.54200745, -8.00251579 ], [ 113.54206848, -8.00266075 ], [ 113.54210663, -8.00298882 ], [ 113.542099, -8.00324154 ], [ 113.54203796, -8.00339222 ], [ 113.54187775, -8.00349903 ], [ 113.54175568, -8.00355816 ], [ 113.54160309, -8.00356579 ], [ 113.54140472, -8.0036335 ], [ 113.54122162, -8.0037241 ], [ 113.54116058, -8.00377178 ], [ 113.54102325, -8.00398922 ], [ 113.54098511, -8.0041132 ], [ 113.5409317, -8.0043335 ], [ 113.54078674, -8.00456238 ], [ 113.54050446, -8.00487804 ], [ 113.54019165, -8.00498104 ], [ 113.54003906, -8.00500298 ], [ 113.53913879, -8.00491524 ], [ 113.53903198, -8.00491047 ], [ 113.5389328, -8.00503826 ], [ 113.53892517, -8.00517178 ], [ 113.53901672, -8.00533676 ], [ 113.53937531, -8.00593567 ], [ 113.53942108, -8.00605011 ], [ 113.53938293, -8.00622177 ], [ 113.53926086, -8.00637245 ], [ 113.53914642, -8.00642776 ], [ 113.53868866, -8.00629616 ], [ 113.53804779, -8.00620365 ], [ 113.53787994, -8.00618267 ], [ 113.53764343, -8.00622368 ], [ 113.53710175, -8.00636101 ], [ 113.53666687, -8.00640678 ], [ 113.53649902, -8.00640869 ], [ 113.53637695, -8.00646973 ], [ 113.53616333, -8.00690269 ], [ 113.53605652, -8.0072155 ], [ 113.53598022, -8.00742054 ], [ 113.5358429, -8.00756168 ], [ 113.5356369, -8.00760078 ], [ 113.53544617, -8.00757885 ], [ 113.53507233, -8.00706387 ], [ 113.53496552, -8.00689793 ], [ 113.53475952, -8.00674629 ], [ 113.53456879, -8.00666809 ], [ 113.53440857, -8.00665188 ], [ 113.53427124, -8.00671577 ], [ 113.53420258, -8.00719357 ], [ 113.53421021, -8.00747871 ], [ 113.53421021, -8.00771713 ], [ 113.53369904, -8.0079174 ], [ 113.53359985, -8.00798225 ], [ 113.53351593, -8.00814724 ], [ 113.53333282, -8.00885296 ], [ 113.53323364, -8.00911713 ], [ 113.53310394, -8.0091753 ], [ 113.53284454, -8.00919724 ], [ 113.53259277, -8.00916958 ], [ 113.53139496, -8.00840473 ], [ 113.53104401, -8.00818348 ], [ 113.53083801, -8.00807667 ], [ 113.53051758, -8.00801373 ], [ 113.53038025, -8.008008 ], [ 113.53019714, -8.00810909 ], [ 113.5300293, -8.00826645 ], [ 113.52991486, -8.00842762 ], [ 113.52986908, -8.00859261 ], [ 113.52980042, -8.00884819 ], [ 113.52973175, -8.00894356 ], [ 113.52928925, -8.00938416 ], [ 113.52899933, -8.00995827 ], [ 113.52882385, -8.01083851 ], [ 113.52846527, -8.01160526 ], [ 113.52790833, -8.01263618 ] ] ] ] } }
]
}
