{
"type": "FeatureCollection",
"name": "Kecamatan Gading",
"crs": { "type": "name", "properties": { "name": "urn:ogc:def:crs:OGC:1.3:CRS84" } },
"features": [
{ "type": "Feature", "properties": { "GID_0": "IDN", "NAME_0": "Indonesia", "GID_1": "IDN.11_1", "NAME_1": "Jawa Timur", "NL_NAME_1": null, "GID_2": "IDN.11.30_1", "NAME_2": "Probolinggo", "NL_NAME_2": null, "GID_3": "IDN.11.30.5_1", "NAME_3": "Gading", "VARNAME_3": null, "NL_NAME_3": null, "TYPE_3": "Kecamatan", "ENGTYPE_3": "Sub-district", "CC_3": "3513100", "HASC_3": null }, "geometry": { "type": "MultiPolygon", "coordinates": [ [ [ [ 113.40078735, -7.87611866 ], [ 113.40081024, -7.87685013 ], [ 113.40072632, -7.87726021 ], [ 113.40065765, -7.8775301 ], [ 113.40057373, -7.8776598 ], [ 113.40029144, -7.87792015 ], [ 113.40016937, -7.87802982 ], [ 113.39996338, -7.87810993 ], [ 113.39994812, -7.87821007 ], [ 113.39997101, -7.87884998 ], [ 113.39903259, -7.8790102 ], [ 113.39681244, -7.87940979 ], [ 113.39589691, -7.8794899 ], [ 113.39539337, -7.87946987 ], [ 113.39536285, -7.8797102 ], [ 113.39524841, -7.88012981 ], [ 113.39512634, -7.88031006 ], [ 113.39501953, -7.88036013 ], [ 113.39479065, -7.88038015 ], [ 113.39457703, -7.88042021 ], [ 113.39446259, -7.88055992 ], [ 113.39421082, -7.88102007 ], [ 113.39415741, -7.8811245 ], [ 113.39411163, -7.88121986 ], [ 113.3940506, -7.88138008 ], [ 113.39401245, -7.88171005 ], [ 113.39398193, -7.88184977 ], [ 113.39415741, -7.88185978 ], [ 113.39438629, -7.88209009 ], [ 113.39456177, -7.88225985 ], [ 113.39476013, -7.88235998 ], [ 113.39512634, -7.88239002 ], [ 113.39546967, -7.88244009 ], [ 113.39588928, -7.88256979 ], [ 113.39629364, -7.88271999 ], [ 113.39671326, -7.88275003 ], [ 113.39704132, -7.88265991 ], [ 113.39732361, -7.88256979 ], [ 113.39752197, -7.88255978 ], [ 113.39766693, -7.88265991 ], [ 113.397789, -7.88268995 ], [ 113.39846802, -7.88228989 ], [ 113.39864349, -7.88219976 ], [ 113.39878082, -7.88219023 ], [ 113.39904785, -7.88263988 ], [ 113.39916229, -7.8828702 ], [ 113.39923859, -7.88294983 ], [ 113.39938354, -7.88293982 ], [ 113.39958191, -7.88276005 ], [ 113.39972687, -7.88262987 ], [ 113.39990234, -7.88261986 ], [ 113.39997101, -7.88270998 ], [ 113.40016937, -7.88304186 ], [ 113.400383, -7.88351011 ], [ 113.40042877, -7.88372469 ], [ 113.40045166, -7.88383007 ], [ 113.40058899, -7.88442993 ], [ 113.40061188, -7.88487005 ], [ 113.40048218, -7.88506985 ], [ 113.40039825, -7.8853898 ], [ 113.40032959, -7.88562012 ], [ 113.4002533, -7.88592005 ], [ 113.400177, -7.88606024 ], [ 113.40003967, -7.88619995 ], [ 113.39983368, -7.88630009 ], [ 113.39965057, -7.8863101 ], [ 113.39929962, -7.88620996 ], [ 113.39852142, -7.88599014 ], [ 113.39837646, -7.88604021 ], [ 113.39826965, -7.88613987 ], [ 113.39801788, -7.8865099 ], [ 113.39794922, -7.88665009 ], [ 113.39742279, -7.88712978 ], [ 113.3972168, -7.8871398 ], [ 113.39688873, -7.88708019 ], [ 113.39644623, -7.88702011 ], [ 113.39626312, -7.88709021 ], [ 113.39602661, -7.8871398 ], [ 113.39588165, -7.88712978 ], [ 113.39571381, -7.88703012 ], [ 113.39539337, -7.88685989 ], [ 113.39515686, -7.88687992 ], [ 113.39489746, -7.88684988 ], [ 113.39463806, -7.88676977 ], [ 113.3945694, -7.88673019 ], [ 113.3944397, -7.88670015 ], [ 113.39418793, -7.88669014 ], [ 113.39360809, -7.88672018 ], [ 113.39344025, -7.88665009 ], [ 113.39335632, -7.88654995 ], [ 113.39306641, -7.88610983 ], [ 113.39282227, -7.88602018 ], [ 113.39253998, -7.8860302 ], [ 113.39240265, -7.88609982 ], [ 113.39231873, -7.88618994 ], [ 113.39231873, -7.88636017 ], [ 113.39230347, -7.88662004 ], [ 113.39221191, -7.88697004 ], [ 113.39211273, -7.88707018 ], [ 113.39196014, -7.8871398 ], [ 113.39176941, -7.8871398 ], [ 113.3915329, -7.88705015 ], [ 113.39102173, -7.88687992 ], [ 113.39069366, -7.88689995 ], [ 113.39050293, -7.88700008 ], [ 113.39038849, -7.88711023 ], [ 113.39031219, -7.88729 ], [ 113.39016724, -7.88751984 ], [ 113.38987732, -7.88782978 ], [ 113.38970184, -7.88792992 ], [ 113.38954163, -7.88805008 ], [ 113.38912964, -7.88839006 ], [ 113.3889389, -7.88845015 ], [ 113.38886261, -7.88843012 ], [ 113.38864899, -7.8882699 ], [ 113.38822937, -7.88784981 ], [ 113.38803864, -7.88783979 ], [ 113.38789368, -7.88794994 ], [ 113.38768005, -7.88809633 ], [ 113.38748932, -7.88822985 ], [ 113.38703918, -7.88827991 ], [ 113.38687897, -7.88838005 ], [ 113.38658905, -7.8885498 ], [ 113.38635254, -7.8886199 ], [ 113.38614655, -7.88850021 ], [ 113.38585663, -7.88817978 ], [ 113.38580322, -7.88801003 ], [ 113.38578033, -7.88781977 ], [ 113.38572693, -7.88765001 ], [ 113.38551331, -7.88712978 ], [ 113.38527679, -7.88625002 ], [ 113.38510132, -7.8860898 ], [ 113.38500977, -7.88606024 ], [ 113.38477325, -7.88604021 ], [ 113.38419342, -7.88635015 ], [ 113.38398743, -7.88645983 ], [ 113.38391876, -7.88655996 ], [ 113.38394928, -7.8874898 ], [ 113.38378906, -7.88769007 ], [ 113.38339996, -7.88809013 ], [ 113.38285065, -7.8888402 ], [ 113.38259888, -7.88938999 ], [ 113.38252258, -7.88944006 ], [ 113.38227844, -7.8895402 ], [ 113.38210297, -7.88957977 ], [ 113.38191986, -7.88951015 ], [ 113.38146973, -7.88921022 ], [ 113.38128662, -7.88921022 ], [ 113.38089752, -7.88923979 ], [ 113.3807373, -7.88918018 ], [ 113.38070679, -7.88909006 ], [ 113.38076019, -7.88878012 ], [ 113.38076019, -7.88851023 ], [ 113.38078308, -7.88827991 ], [ 113.38079071, -7.88807011 ], [ 113.38072968, -7.88784981 ], [ 113.3806076, -7.88777018 ], [ 113.38040161, -7.88769007 ], [ 113.37982178, -7.88749981 ], [ 113.37937164, -7.88743019 ], [ 113.37917328, -7.88743019 ], [ 113.37850952, -7.88746977 ], [ 113.3784256, -7.88748503 ], [ 113.37753296, -7.88764 ], [ 113.37702179, -7.88770008 ], [ 113.37676239, -7.88769007 ], [ 113.37669373, -7.88762999 ], [ 113.37667084, -7.88746977 ], [ 113.37671661, -7.88730001 ], [ 113.37686157, -7.88698006 ], [ 113.37705994, -7.88649988 ], [ 113.37709045, -7.88600016 ], [ 113.37699127, -7.8856802 ], [ 113.37683105, -7.88552999 ], [ 113.37654114, -7.88539982 ], [ 113.37628174, -7.88525009 ], [ 113.37612915, -7.88507986 ], [ 113.37528992, -7.88403988 ], [ 113.37512207, -7.88382006 ], [ 113.375, -7.88373995 ], [ 113.37480164, -7.88360977 ], [ 113.3745575, -7.88346004 ], [ 113.37460327, -7.88335991 ], [ 113.37458801, -7.88314009 ], [ 113.3745575, -7.8828001 ], [ 113.37451172, -7.88263988 ], [ 113.3742981, -7.88235903 ], [ 113.37414551, -7.88216877 ], [ 113.37399292, -7.88196993 ], [ 113.37391663, -7.88176012 ], [ 113.37391663, -7.88153982 ], [ 113.37397766, -7.88136005 ], [ 113.3740921, -7.88128996 ], [ 113.37439728, -7.88107014 ], [ 113.37449646, -7.88088989 ], [ 113.37461853, -7.88051987 ], [ 113.37478638, -7.8801198 ], [ 113.37503052, -7.8796401 ], [ 113.37513733, -7.87932014 ], [ 113.37538147, -7.87849998 ], [ 113.37541962, -7.87833023 ], [ 113.37542725, -7.87775993 ], [ 113.37538147, -7.87760019 ], [ 113.37535858, -7.87751007 ], [ 113.37534332, -7.87742996 ], [ 113.37535095, -7.87725019 ], [ 113.37570953, -7.87641001 ], [ 113.37574768, -7.8762598 ], [ 113.37584686, -7.87593985 ], [ 113.37599945, -7.87548018 ], [ 113.37612152, -7.87523174 ], [ 113.3762207, -7.87503004 ], [ 113.37641144, -7.87478018 ], [ 113.37650299, -7.87440014 ], [ 113.37658691, -7.87413979 ], [ 113.3766098, -7.87390995 ], [ 113.3764801, -7.87365007 ], [ 113.37625122, -7.87341976 ], [ 113.37590027, -7.87320995 ], [ 113.37547302, -7.87300014 ], [ 113.37519836, -7.87285995 ], [ 113.375, -7.87262011 ], [ 113.37490845, -7.87254 ], [ 113.37480164, -7.87239981 ], [ 113.37471008, -7.87221003 ], [ 113.37467194, -7.87199926 ], [ 113.37467957, -7.8719101 ], [ 113.37477875, -7.87175989 ], [ 113.37490082, -7.87166023 ], [ 113.375, -7.87160015 ], [ 113.37509155, -7.87157011 ], [ 113.37521362, -7.87150002 ], [ 113.37529755, -7.87136984 ], [ 113.37528229, -7.87129021 ], [ 113.37516785, -7.87120008 ], [ 113.375, -7.87112999 ], [ 113.37489319, -7.87110996 ], [ 113.37457275, -7.87108994 ], [ 113.37419128, -7.87107992 ], [ 113.37384033, -7.87105989 ], [ 113.37355804, -7.87101984 ], [ 113.37333679, -7.87093019 ], [ 113.3731308, -7.87081003 ], [ 113.37296295, -7.87066984 ], [ 113.37249756, -7.87025023 ], [ 113.37232208, -7.87010002 ], [ 113.37213898, -7.87002993 ], [ 113.37206268, -7.8700099 ], [ 113.3719635, -7.87005997 ], [ 113.37188721, -7.87017012 ], [ 113.37180328, -7.87039995 ], [ 113.37171173, -7.87071991 ], [ 113.37155151, -7.87101984 ], [ 113.37136841, -7.87110996 ], [ 113.37120056, -7.87111998 ], [ 113.37104034, -7.87110996 ], [ 113.3707962, -7.87102985 ], [ 113.37017059, -7.87080002 ], [ 113.36975098, -7.87064981 ], [ 113.36955261, -7.8705802 ], [ 113.36929321, -7.87046003 ], [ 113.36885834, -7.8702302 ], [ 113.36843109, -7.86990023 ], [ 113.3682785, -7.86969995 ], [ 113.36824036, -7.8695302 ], [ 113.36823273, -7.86929989 ], [ 113.36826324, -7.86898994 ], [ 113.36830139, -7.86865997 ], [ 113.36829376, -7.86841011 ], [ 113.3682785, -7.86828995 ], [ 113.36820984, -7.86816978 ], [ 113.36807251, -7.86802006 ], [ 113.36794281, -7.86791992 ], [ 113.3677063, -7.86781979 ], [ 113.36756897, -7.86778021 ], [ 113.36726379, -7.86778021 ], [ 113.36702728, -7.86780024 ], [ 113.36701202, -7.86772013 ], [ 113.36701202, -7.86761999 ], [ 113.36695862, -7.86721992 ], [ 113.36695862, -7.86690998 ], [ 113.36695099, -7.86662006 ], [ 113.36699677, -7.86629009 ], [ 113.36743927, -7.86608982 ], [ 113.36804962, -7.86591005 ], [ 113.36998749, -7.86572981 ], [ 113.3707962, -7.86569977 ], [ 113.37172699, -7.86568022 ], [ 113.37259674, -7.86563063 ], [ 113.37277985, -7.86562014 ], [ 113.37384033, -7.86566019 ], [ 113.37443542, -7.86574602 ], [ 113.37480927, -7.8657999 ], [ 113.375, -7.86585999 ], [ 113.37518311, -7.86590862 ], [ 113.37555695, -7.86601019 ], [ 113.37579346, -7.86606979 ], [ 113.3760376, -7.86620998 ], [ 113.37651825, -7.86655998 ], [ 113.37698364, -7.86683989 ], [ 113.37706757, -7.86689091 ], [ 113.37732697, -7.86705017 ], [ 113.37747955, -7.86709023 ], [ 113.37779999, -7.86711979 ], [ 113.37850189, -7.86714983 ], [ 113.37898254, -7.86710978 ], [ 113.37931061, -7.8671298 ], [ 113.37949371, -7.86713982 ], [ 113.37969208, -7.86711979 ], [ 113.37985229, -7.86710978 ], [ 113.38050842, -7.86708021 ], [ 113.38114166, -7.86699009 ], [ 113.38162231, -7.86690998 ], [ 113.38230133, -7.86682987 ], [ 113.38317871, -7.86682987 ], [ 113.38346863, -7.86731005 ], [ 113.38352203, -7.86748981 ], [ 113.38330841, -7.86809015 ], [ 113.38321686, -7.86834002 ], [ 113.38320923, -7.86844015 ], [ 113.38332367, -7.86855984 ], [ 113.3835907, -7.86859989 ], [ 113.38381195, -7.86861992 ], [ 113.38394928, -7.86868 ], [ 113.38404846, -7.86885977 ], [ 113.38414001, -7.86948013 ], [ 113.3841629, -7.86962986 ], [ 113.38411713, -7.87022018 ], [ 113.38423157, -7.8702302 ], [ 113.38439178, -7.87024021 ], [ 113.38494873, -7.87025976 ], [ 113.38519287, -7.87025976 ], [ 113.38587189, -7.8702302 ], [ 113.38651276, -7.87020016 ], [ 113.38674164, -7.87017012 ], [ 113.3868866, -7.87015009 ], [ 113.3870163, -7.87014008 ], [ 113.38736725, -7.87010002 ], [ 113.38764954, -7.87006998 ], [ 113.38777161, -7.87003994 ], [ 113.38883209, -7.86976004 ], [ 113.38898468, -7.86971521 ], [ 113.38907623, -7.86968994 ], [ 113.38919067, -7.8696599 ], [ 113.38931274, -7.86960983 ], [ 113.38954163, -7.86949015 ], [ 113.38986206, -7.86915016 ], [ 113.39025879, -7.86865997 ], [ 113.39058685, -7.86821985 ], [ 113.39099884, -7.86775017 ], [ 113.39125824, -7.86745977 ], [ 113.3914566, -7.86724997 ], [ 113.39164734, -7.86693001 ], [ 113.39179993, -7.8666501 ], [ 113.39196014, -7.86631012 ], [ 113.39212799, -7.86594009 ], [ 113.39228058, -7.86566019 ], [ 113.39244843, -7.86534977 ], [ 113.39266968, -7.86509991 ], [ 113.39295197, -7.86483002 ], [ 113.39337158, -7.86452007 ], [ 113.39376831, -7.86424017 ], [ 113.39404297, -7.86397982 ], [ 113.39427948, -7.86373997 ], [ 113.39445496, -7.86347961 ], [ 113.39450073, -7.86341 ], [ 113.39466858, -7.86311007 ], [ 113.39479065, -7.86275005 ], [ 113.39485168, -7.8625102 ], [ 113.39481354, -7.86217022 ], [ 113.3947525, -7.86188984 ], [ 113.39472198, -7.86155987 ], [ 113.3947525, -7.86123991 ], [ 113.39479828, -7.8608799 ], [ 113.39486694, -7.86054993 ], [ 113.3948822, -7.86019993 ], [ 113.39483643, -7.85988998 ], [ 113.39467621, -7.85932016 ], [ 113.39459229, -7.85901022 ], [ 113.39453125, -7.8589201 ], [ 113.39440155, -7.85870981 ], [ 113.39432526, -7.85857391 ], [ 113.39424133, -7.85840988 ], [ 113.39408112, -7.85804987 ], [ 113.39391327, -7.85769987 ], [ 113.39382935, -7.85753012 ], [ 113.39373779, -7.8573699 ], [ 113.39357758, -7.85721016 ], [ 113.39334869, -7.85707998 ], [ 113.39324188, -7.85687017 ], [ 113.39318085, -7.85671997 ], [ 113.39305115, -7.85635996 ], [ 113.39295197, -7.85606003 ], [ 113.39279175, -7.85578012 ], [ 113.39243317, -7.8552599 ], [ 113.39208984, -7.85477018 ], [ 113.39198303, -7.85467005 ], [ 113.39186096, -7.85459995 ], [ 113.3914032, -7.85449982 ], [ 113.39121246, -7.8543601 ], [ 113.39099121, -7.85402012 ], [ 113.39079285, -7.85370016 ], [ 113.39044952, -7.85326004 ], [ 113.39015198, -7.85280991 ], [ 113.39003754, -7.85264015 ], [ 113.38980103, -7.85244989 ], [ 113.3894577, -7.85219002 ], [ 113.38934326, -7.8520999 ], [ 113.38909912, -7.85183001 ], [ 113.38878632, -7.85148001 ], [ 113.38852692, -7.85124016 ], [ 113.38835144, -7.85113001 ], [ 113.38825226, -7.85101986 ], [ 113.38818359, -7.85071993 ], [ 113.38800812, -7.8503499 ], [ 113.38783264, -7.84997988 ], [ 113.38764954, -7.84982014 ], [ 113.38745117, -7.84975004 ], [ 113.38735962, -7.84962988 ], [ 113.38726807, -7.84953022 ], [ 113.38697815, -7.84931993 ], [ 113.38691711, -7.84900236 ], [ 113.38683319, -7.84859991 ], [ 113.38652802, -7.84808016 ], [ 113.38643646, -7.84789991 ], [ 113.38627625, -7.84757996 ], [ 113.38620758, -7.84717989 ], [ 113.38606262, -7.84671021 ], [ 113.38600922, -7.84646988 ], [ 113.38591003, -7.84597015 ], [ 113.38581848, -7.8457098 ], [ 113.38587189, -7.84553003 ], [ 113.38600922, -7.84519005 ], [ 113.38607025, -7.84471989 ], [ 113.38581848, -7.84427023 ], [ 113.38562775, -7.84394979 ], [ 113.38522339, -7.84358978 ], [ 113.38476563, -7.84338617 ], [ 113.38452911, -7.84327984 ], [ 113.38406372, -7.84303999 ], [ 113.38361359, -7.84286022 ], [ 113.38342285, -7.84279013 ], [ 113.38276672, -7.84250021 ], [ 113.38215637, -7.84227991 ], [ 113.38183594, -7.84219456 ], [ 113.38143921, -7.84209013 ], [ 113.38083649, -7.8419199 ], [ 113.38072968, -7.84188986 ], [ 113.37998962, -7.84173012 ], [ 113.37934875, -7.84165001 ], [ 113.37906647, -7.84159994 ], [ 113.37879944, -7.84151983 ], [ 113.37872314, -7.84148979 ], [ 113.37858582, -7.84143639 ], [ 113.37847137, -7.84139013 ], [ 113.3780365, -7.84111023 ], [ 113.37783813, -7.84097004 ], [ 113.37760925, -7.8407979 ], [ 113.37734985, -7.84061003 ], [ 113.37722778, -7.8405385 ], [ 113.37664795, -7.84018993 ], [ 113.37586212, -7.83968019 ], [ 113.37545776, -7.83931017 ], [ 113.37522125, -7.83901978 ], [ 113.37512207, -7.83865023 ], [ 113.37510681, -7.83849001 ], [ 113.37523651, -7.83831978 ], [ 113.37535095, -7.83809996 ], [ 113.37542725, -7.83783007 ], [ 113.37542725, -7.83747005 ], [ 113.37541962, -7.83733606 ], [ 113.37538147, -7.83695984 ], [ 113.37526703, -7.83643007 ], [ 113.375, -7.83584976 ], [ 113.37483978, -7.8355999 ], [ 113.37461853, -7.83517981 ], [ 113.37438965, -7.83472013 ], [ 113.3743515, -7.8344698 ], [ 113.37438965, -7.83423996 ], [ 113.3744812, -7.83410978 ], [ 113.3747406, -7.83398008 ], [ 113.375, -7.83394003 ], [ 113.37535095, -7.83397007 ], [ 113.37581635, -7.83397007 ], [ 113.3760376, -7.83391047 ], [ 113.37619019, -7.83386993 ], [ 113.37644958, -7.83369017 ], [ 113.37651062, -7.83345985 ], [ 113.37645721, -7.83325005 ], [ 113.37628174, -7.83309984 ], [ 113.37612152, -7.8327899 ], [ 113.37612152, -7.83271456 ], [ 113.37613678, -7.83248997 ], [ 113.37628174, -7.83228016 ], [ 113.37658691, -7.83207989 ], [ 113.37680054, -7.83207989 ], [ 113.3771286, -7.83213997 ], [ 113.37741852, -7.83233976 ], [ 113.3776474, -7.83252001 ], [ 113.37795258, -7.83265018 ], [ 113.37805176, -7.8326602 ], [ 113.37814331, -7.83267879 ], [ 113.37859344, -7.83276987 ], [ 113.37930298, -7.83282995 ], [ 113.38001251, -7.83287001 ], [ 113.38052368, -7.83291006 ], [ 113.38092804, -7.83296013 ], [ 113.3811264, -7.83303022 ], [ 113.38143921, -7.83310986 ], [ 113.38174438, -7.83306646 ], [ 113.38192749, -7.83304024 ], [ 113.3821106, -7.8330102 ], [ 113.38263702, -7.83386993 ], [ 113.3852005, -7.83410978 ], [ 113.38516998, -7.83453989 ], [ 113.38548279, -7.83457994 ], [ 113.3857193, -7.83461809 ], [ 113.3859787, -7.83466005 ], [ 113.38607788, -7.83459997 ], [ 113.38626099, -7.83459997 ], [ 113.38641357, -7.8345499 ], [ 113.38657379, -7.83452988 ], [ 113.38697052, -7.83447981 ], [ 113.38710022, -7.83447981 ], [ 113.38739014, -7.83450985 ], [ 113.38746643, -7.83451939 ], [ 113.38768768, -7.83459997 ], [ 113.38777161, -7.83463001 ], [ 113.38780212, -7.83517981 ], [ 113.38780975, -7.83544016 ], [ 113.38786316, -7.83601999 ], [ 113.38790894, -7.83644009 ], [ 113.38794708, -7.83658981 ], [ 113.38807678, -7.83687019 ], [ 113.3881073, -7.83694983 ], [ 113.38818359, -7.83709002 ], [ 113.38829803, -7.83743 ], [ 113.38841248, -7.83767986 ], [ 113.38858032, -7.83795977 ], [ 113.38874054, -7.83822012 ], [ 113.38900757, -7.83862019 ], [ 113.38912201, -7.83887005 ], [ 113.38974762, -7.83957005 ], [ 113.38989258, -7.83979988 ], [ 113.39041901, -7.84033012 ], [ 113.39047241, -7.84038067 ], [ 113.39054108, -7.84044981 ], [ 113.39103699, -7.84091997 ], [ 113.39128876, -7.84117079 ], [ 113.3914566, -7.84134007 ], [ 113.39157867, -7.8414402 ], [ 113.39218903, -7.84183979 ], [ 113.39247894, -7.84194994 ], [ 113.39292145, -7.8421402 ], [ 113.39302063, -7.84216976 ], [ 113.39334869, -7.84227991 ], [ 113.39344025, -7.84230995 ], [ 113.39420319, -7.84250021 ], [ 113.39453125, -7.84256983 ], [ 113.39491272, -7.84264994 ], [ 113.39556122, -7.84266996 ], [ 113.39596558, -7.84266996 ], [ 113.39621735, -7.84266996 ], [ 113.39668274, -7.8426199 ], [ 113.39756775, -7.84216022 ], [ 113.39766693, -7.84208012 ], [ 113.39784241, -7.84168005 ], [ 113.39781189, -7.84152985 ], [ 113.39756775, -7.84101009 ], [ 113.39756775, -7.84083986 ], [ 113.39762115, -7.84065008 ], [ 113.39775085, -7.84047985 ], [ 113.39797974, -7.84030008 ], [ 113.39810181, -7.84028006 ], [ 113.3981781, -7.84034014 ], [ 113.39840698, -7.84054995 ], [ 113.39852142, -7.84054995 ], [ 113.39861298, -7.84048986 ], [ 113.39868927, -7.84034014 ], [ 113.39875793, -7.83997011 ], [ 113.39888, -7.83911991 ], [ 113.39884186, -7.83887005 ], [ 113.39871979, -7.83860016 ], [ 113.39877319, -7.83846998 ], [ 113.39904022, -7.83834982 ], [ 113.39971161, -7.83803988 ], [ 113.39990234, -7.83795023 ], [ 113.40003967, -7.83781004 ], [ 113.40009308, -7.83769989 ], [ 113.40003204, -7.83761978 ], [ 113.39988708, -7.83747005 ], [ 113.39994812, -7.83735991 ], [ 113.40013123, -7.83701992 ], [ 113.40006256, -7.83689022 ], [ 113.39978027, -7.83641005 ], [ 113.39981079, -7.83615017 ], [ 113.39988708, -7.83561993 ], [ 113.39985657, -7.83538008 ], [ 113.3997879, -7.83515882 ], [ 113.39971161, -7.8348999 ], [ 113.39974976, -7.83469009 ], [ 113.39993286, -7.83403015 ], [ 113.40000153, -7.83304977 ], [ 113.40009308, -7.83295012 ], [ 113.40020752, -7.83276987 ], [ 113.400177, -7.83267021 ], [ 113.40007019, -7.83255005 ], [ 113.39987946, -7.83234978 ], [ 113.39987183, -7.83220005 ], [ 113.3999176, -7.83206987 ], [ 113.40000153, -7.83205986 ], [ 113.40020752, -7.83211994 ], [ 113.400383, -7.83213997 ], [ 113.40042877, -7.83203983 ], [ 113.40116882, -7.83153009 ], [ 113.40170288, -7.8311801 ], [ 113.4020462, -7.8309598 ], [ 113.40238953, -7.83082008 ], [ 113.40274811, -7.83077002 ], [ 113.40300751, -7.83078003 ], [ 113.40312958, -7.83079004 ], [ 113.40368652, -7.83073997 ], [ 113.40392303, -7.83070993 ], [ 113.40409851, -7.83065987 ], [ 113.40525818, -7.83039999 ], [ 113.40672302, -7.83030987 ], [ 113.40814972, -7.8304801 ], [ 113.408638, -7.83052015 ], [ 113.40879059, -7.83031988 ], [ 113.4088974, -7.83010006 ], [ 113.40888977, -7.82995987 ], [ 113.4088974, -7.82964993 ], [ 113.40901184, -7.8294301 ], [ 113.4093399, -7.82881021 ], [ 113.40950012, -7.82873011 ], [ 113.40962982, -7.82870007 ], [ 113.40979004, -7.82876015 ], [ 113.41005707, -7.82888985 ], [ 113.41039276, -7.82903004 ], [ 113.41062927, -7.82907009 ], [ 113.41094208, -7.82904673 ], [ 113.41113281, -7.82898998 ], [ 113.41130066, -7.82886982 ], [ 113.41143799, -7.82869005 ], [ 113.41156769, -7.82852983 ], [ 113.41162109, -7.82838011 ], [ 113.41168976, -7.82813978 ], [ 113.41172791, -7.82802296 ], [ 113.41179657, -7.82778978 ], [ 113.41191864, -7.82713985 ], [ 113.41207123, -7.82652998 ], [ 113.41220093, -7.82594013 ], [ 113.41226196, -7.82565022 ], [ 113.41242981, -7.8252902 ], [ 113.41261292, -7.82495022 ], [ 113.4127121, -7.82484531 ], [ 113.41287994, -7.82467985 ], [ 113.41307068, -7.82456017 ], [ 113.41342163, -7.82437992 ], [ 113.4138031, -7.82427979 ], [ 113.41417694, -7.82425022 ], [ 113.41452789, -7.82424021 ], [ 113.41493988, -7.82426023 ], [ 113.41532898, -7.82426977 ], [ 113.41547394, -7.82427645 ], [ 113.41575623, -7.8242898 ], [ 113.4162674, -7.8242898 ], [ 113.41657257, -7.82427979 ], [ 113.41703033, -7.82422018 ], [ 113.4176178, -7.8241601 ], [ 113.41812134, -7.82410002 ], [ 113.41860199, -7.82404995 ], [ 113.41941071, -7.82395983 ], [ 113.41999054, -7.82391024 ], [ 113.42040253, -7.82385015 ], [ 113.42079163, -7.82380009 ], [ 113.42121124, -7.82372999 ], [ 113.42146301, -7.82367992 ], [ 113.42195892, -7.82361984 ], [ 113.42241669, -7.82356024 ], [ 113.42272949, -7.82349014 ], [ 113.42308044, -7.82340002 ], [ 113.42349243, -7.82305002 ], [ 113.42372894, -7.82279015 ], [ 113.42391205, -7.82251978 ], [ 113.42395782, -7.82244015 ], [ 113.4240799, -7.82208014 ], [ 113.42414856, -7.82194996 ], [ 113.42427826, -7.82179737 ], [ 113.42450714, -7.82164001 ], [ 113.42459106, -7.8214798 ], [ 113.42520142, -7.82129002 ], [ 113.42578125, -7.82119989 ], [ 113.4256897, -7.82105255 ], [ 113.42575836, -7.82090998 ], [ 113.42606354, -7.82095003 ], [ 113.426651, -7.82101011 ], [ 113.42684937, -7.82103014 ], [ 113.42697906, -7.82107019 ], [ 113.42736053, -7.82118988 ], [ 113.42745209, -7.82121992 ], [ 113.42796326, -7.82136011 ], [ 113.42854309, -7.8214798 ], [ 113.42883301, -7.82159996 ], [ 113.42904663, -7.8217802 ], [ 113.42922974, -7.82193995 ], [ 113.42931366, -7.82200003 ], [ 113.42971802, -7.82206011 ], [ 113.43016052, -7.82205009 ], [ 113.43350983, -7.82215023 ], [ 113.43424988, -7.82215977 ], [ 113.43470764, -7.82215977 ], [ 113.43489075, -7.82215977 ], [ 113.43504333, -7.82215977 ], [ 113.4352417, -7.82217979 ], [ 113.43554688, -7.82220984 ], [ 113.436203, -7.82220984 ], [ 113.43643951, -7.82221985 ], [ 113.43682098, -7.82227278 ], [ 113.43702698, -7.82231998 ], [ 113.43749237, -7.82241011 ], [ 113.43778992, -7.82230997 ], [ 113.43801117, -7.82233 ], [ 113.43813324, -7.82239008 ], [ 113.43820953, -7.82250023 ], [ 113.43824768, -7.82256985 ], [ 113.43833923, -7.82275009 ], [ 113.4384613, -7.8228898 ], [ 113.43882751, -7.82292986 ], [ 113.43907928, -7.82293987 ], [ 113.43978119, -7.82297993 ], [ 113.44000244, -7.82294989 ], [ 113.44088745, -7.82284021 ], [ 113.44132996, -7.82279015 ], [ 113.44140625, -7.8227706 ], [ 113.44216919, -7.82257986 ], [ 113.44267273, -7.82239008 ], [ 113.44315338, -7.82212019 ], [ 113.44335938, -7.82207012 ], [ 113.44345856, -7.82204008 ], [ 113.44338989, -7.82233 ], [ 113.44332886, -7.82247019 ], [ 113.44358063, -7.82252979 ], [ 113.44387054, -7.82251978 ], [ 113.44406891, -7.82261992 ], [ 113.44441223, -7.82285976 ], [ 113.44455719, -7.82290983 ], [ 113.44471741, -7.82286692 ], [ 113.44489288, -7.82282019 ], [ 113.44509125, -7.82274008 ], [ 113.44500732, -7.82263994 ], [ 113.44494629, -7.82253408 ], [ 113.44483948, -7.82234001 ], [ 113.4444809, -7.82196999 ], [ 113.44423676, -7.82168007 ], [ 113.44412231, -7.82144022 ], [ 113.44405365, -7.82116985 ], [ 113.44412231, -7.82107019 ], [ 113.44429016, -7.82097006 ], [ 113.44480896, -7.82078981 ], [ 113.44528198, -7.82069016 ], [ 113.44554138, -7.82060003 ], [ 113.44582367, -7.82043982 ], [ 113.44586945, -7.82033014 ], [ 113.44583893, -7.82021999 ], [ 113.44577026, -7.81993008 ], [ 113.44577789, -7.81968021 ], [ 113.44586945, -7.81957006 ], [ 113.44606781, -7.81943989 ], [ 113.44676208, -7.8190999 ], [ 113.44728088, -7.81879997 ], [ 113.44766998, -7.81857014 ], [ 113.44782257, -7.81843996 ], [ 113.44792175, -7.81832981 ], [ 113.44809723, -7.81818008 ], [ 113.44818115, -7.81799984 ], [ 113.44831848, -7.81742001 ], [ 113.44847107, -7.81655979 ], [ 113.44846344, -7.81618977 ], [ 113.44845581, -7.81596184 ], [ 113.44844818, -7.81564999 ], [ 113.44856262, -7.81534004 ], [ 113.44869232, -7.81517982 ], [ 113.44882202, -7.81516981 ], [ 113.44911957, -7.81522989 ], [ 113.44927979, -7.81534004 ], [ 113.4495163, -7.81519985 ], [ 113.44973755, -7.81500006 ], [ 113.44989777, -7.81482983 ], [ 113.4500885, -7.81444979 ], [ 113.45023346, -7.81419992 ], [ 113.45027161, -7.81408024 ], [ 113.45072174, -7.81286001 ], [ 113.45066071, -7.81279993 ], [ 113.45056152, -7.81278992 ], [ 113.45037079, -7.81275988 ], [ 113.4503479, -7.81267023 ], [ 113.45043182, -7.8125701 ], [ 113.45059204, -7.81236982 ], [ 113.45069885, -7.81206989 ], [ 113.45082855, -7.81175995 ], [ 113.45098877, -7.81167984 ], [ 113.45111084, -7.81138992 ], [ 113.45127106, -7.81114006 ], [ 113.45146942, -7.81081009 ], [ 113.45159149, -7.81052017 ], [ 113.45175171, -7.81002998 ], [ 113.45197296, -7.80944014 ], [ 113.45214081, -7.80917978 ], [ 113.4523468, -7.80903006 ], [ 113.45256042, -7.80894995 ], [ 113.45291901, -7.80890989 ], [ 113.45342255, -7.80891991 ], [ 113.45387268, -7.80895996 ], [ 113.45394897, -7.80895996 ], [ 113.45433807, -7.80897999 ], [ 113.45450592, -7.80901003 ], [ 113.45467377, -7.80904007 ], [ 113.4549408, -7.80910015 ], [ 113.45522308, -7.80921984 ], [ 113.45555115, -7.80965996 ], [ 113.45677948, -7.81108999 ], [ 113.45722198, -7.81126022 ], [ 113.45765686, -7.81139994 ], [ 113.45825195, -7.81158018 ], [ 113.45881653, -7.81178999 ], [ 113.45963287, -7.81218004 ], [ 113.46024323, -7.81240988 ], [ 113.46095276, -7.81261015 ], [ 113.4615097, -7.81271982 ], [ 113.46205139, -7.81276989 ], [ 113.46260834, -7.81279993 ], [ 113.46296692, -7.81283998 ], [ 113.46340179, -7.81292009 ], [ 113.46411133, -7.81306982 ], [ 113.46484375, -7.81322002 ], [ 113.46587372, -7.81341982 ], [ 113.4667511, -7.81361008 ], [ 113.46710205, -7.8137002 ], [ 113.46762085, -7.81379986 ], [ 113.46833038, -7.81393003 ], [ 113.46881866, -7.81403017 ], [ 113.4692688, -7.81413984 ], [ 113.46990967, -7.81437016 ], [ 113.47064972, -7.81463003 ], [ 113.47142792, -7.81497002 ], [ 113.47184753, -7.81516981 ], [ 113.47223663, -7.81532001 ], [ 113.47260284, -7.81547022 ], [ 113.47284698, -7.81555986 ], [ 113.47322845, -7.81564999 ], [ 113.47344208, -7.81567001 ], [ 113.47373199, -7.81571007 ], [ 113.47425842, -7.81573009 ], [ 113.47476196, -7.81574011 ], [ 113.47525024, -7.81573009 ], [ 113.47579956, -7.81570005 ], [ 113.47599792, -7.81570005 ], [ 113.47612, -7.81570005 ], [ 113.47627258, -7.81570816 ], [ 113.47667694, -7.81573009 ], [ 113.47720337, -7.81576014 ], [ 113.47763824, -7.81583977 ], [ 113.47815704, -7.81594992 ], [ 113.4788208, -7.81609011 ], [ 113.47942352, -7.81620979 ], [ 113.4798584, -7.81632996 ], [ 113.4802475, -7.81639004 ], [ 113.48078156, -7.81643009 ], [ 113.48120117, -7.81645012 ], [ 113.48175049, -7.81647015 ], [ 113.4821167, -7.81648016 ], [ 113.48259735, -7.8165102 ], [ 113.48290253, -7.81655979 ], [ 113.48339081, -7.8166399 ], [ 113.4838562, -7.81676006 ], [ 113.48419952, -7.81688976 ], [ 113.48448944, -7.81699324 ], [ 113.48480988, -7.81720018 ], [ 113.48512268, -7.81742001 ], [ 113.48542023, -7.8176384 ], [ 113.485672, -7.81777 ], [ 113.48586273, -7.81785011 ], [ 113.48596191, -7.81788015 ], [ 113.48607635, -7.81792021 ], [ 113.48610687, -7.81798983 ], [ 113.48613739, -7.81806993 ], [ 113.48634338, -7.81830978 ], [ 113.4864502, -7.81850004 ], [ 113.48651123, -7.81886005 ], [ 113.48651886, -7.8190999 ], [ 113.48651886, -7.81920004 ], [ 113.4865036, -7.81933022 ], [ 113.48645782, -7.8194499 ], [ 113.48634338, -7.81982994 ], [ 113.4863205, -7.82024384 ], [ 113.48639679, -7.8207202 ], [ 113.48655701, -7.82110977 ], [ 113.48660278, -7.82120991 ], [ 113.48652649, -7.82123995 ], [ 113.48628998, -7.82134008 ], [ 113.48612213, -7.82140017 ], [ 113.48609924, -7.82149982 ], [ 113.4858017, -7.82201004 ], [ 113.48571014, -7.82217979 ], [ 113.48571777, -7.82235003 ], [ 113.48577118, -7.82263994 ], [ 113.48573303, -7.82290983 ], [ 113.4855423, -7.82322979 ], [ 113.48545837, -7.82336998 ], [ 113.4854126, -7.82372999 ], [ 113.48536682, -7.82392979 ], [ 113.48519135, -7.82419014 ], [ 113.48506927, -7.8242898 ], [ 113.48477173, -7.82432985 ], [ 113.48464203, -7.82442999 ], [ 113.48441315, -7.82471991 ], [ 113.48426056, -7.82497978 ], [ 113.48422241, -7.82524014 ], [ 113.48428345, -7.82552004 ], [ 113.48446655, -7.82597017 ], [ 113.48451996, -7.82605362 ], [ 113.48459625, -7.82620001 ], [ 113.48465729, -7.82655001 ], [ 113.48462677, -7.82686996 ], [ 113.48458862, -7.8270402 ], [ 113.48458862, -7.82725 ], [ 113.48461914, -7.82735014 ], [ 113.48490143, -7.82751989 ], [ 113.4852066, -7.82765007 ], [ 113.48535919, -7.82776022 ], [ 113.48542786, -7.82788992 ], [ 113.48545074, -7.82813978 ], [ 113.48529816, -7.82865 ], [ 113.48523712, -7.82882977 ], [ 113.48522186, -7.8289299 ], [ 113.48522186, -7.82928991 ], [ 113.48529816, -7.8298502 ], [ 113.48536682, -7.83016014 ], [ 113.48548126, -7.83041906 ], [ 113.48561096, -7.83059978 ], [ 113.48578644, -7.83071995 ], [ 113.48668671, -7.83119011 ], [ 113.48683929, -7.8312602 ], [ 113.48724365, -7.83159018 ], [ 113.48757172, -7.83201981 ], [ 113.48777008, -7.83240986 ], [ 113.48782349, -7.83261013 ], [ 113.4878006, -7.83280993 ], [ 113.48777771, -7.83292007 ], [ 113.48786926, -7.8334198 ], [ 113.48793793, -7.83368015 ], [ 113.48796844, -7.83390999 ], [ 113.4879837, -7.83438015 ], [ 113.48790741, -7.83471012 ], [ 113.48786163, -7.83482981 ], [ 113.48773193, -7.83497477 ], [ 113.4874115, -7.83533001 ], [ 113.48745728, -7.83548021 ], [ 113.48741913, -7.8357501 ], [ 113.48748016, -7.8358202 ], [ 113.48766327, -7.83584976 ], [ 113.48806763, -7.83588982 ], [ 113.48806, -7.83605003 ], [ 113.48806, -7.83665991 ], [ 113.48806, -7.83695984 ], [ 113.4881134, -7.83726978 ], [ 113.4883194, -7.8380599 ], [ 113.48834991, -7.83820009 ], [ 113.48851013, -7.83886003 ], [ 113.48774719, -7.83908987 ], [ 113.48770142, -7.83934021 ], [ 113.48758698, -7.83966017 ], [ 113.48753357, -7.83985996 ], [ 113.48751831, -7.84006023 ], [ 113.48757172, -7.84032011 ], [ 113.48782349, -7.84072018 ], [ 113.48802948, -7.84097004 ], [ 113.48842621, -7.8412199 ], [ 113.48858643, -7.84132004 ], [ 113.48877716, -7.84153986 ], [ 113.48889923, -7.84174013 ], [ 113.48895264, -7.84309006 ], [ 113.4889679, -7.8432498 ], [ 113.48925781, -7.84336996 ], [ 113.48977661, -7.84343004 ], [ 113.48980713, -7.84328985 ], [ 113.48983765, -7.84316015 ], [ 113.48990631, -7.84295988 ], [ 113.49008942, -7.84295988 ], [ 113.490242, -7.84301996 ], [ 113.49040985, -7.84322023 ], [ 113.49072266, -7.84385014 ], [ 113.4909668, -7.8442502 ], [ 113.49105835, -7.84442997 ], [ 113.49143219, -7.84498978 ], [ 113.49195862, -7.84556007 ], [ 113.49256134, -7.84608984 ], [ 113.49285889, -7.84636545 ], [ 113.49295807, -7.84645987 ], [ 113.49310303, -7.84665012 ], [ 113.49327087, -7.84691 ], [ 113.49336243, -7.8470602 ], [ 113.49343872, -7.84723949 ], [ 113.49384308, -7.84761 ], [ 113.49455261, -7.84813023 ], [ 113.49506378, -7.84855986 ], [ 113.49536133, -7.84884024 ], [ 113.49559021, -7.84913015 ], [ 113.49575043, -7.84939003 ], [ 113.49591827, -7.84958982 ], [ 113.4962616, -7.84983015 ], [ 113.49700165, -7.85013008 ], [ 113.49764252, -7.85042 ], [ 113.4981308, -7.85063982 ], [ 113.49827576, -7.85075235 ], [ 113.49851227, -7.85094023 ], [ 113.49878693, -7.85128021 ], [ 113.49899292, -7.85159016 ], [ 113.49923706, -7.8519001 ], [ 113.49951935, -7.85215998 ], [ 113.49977875, -7.85232019 ], [ 113.5, -7.85242987 ], [ 113.50104523, -7.85278702 ], [ 113.5020752, -7.85304785 ], [ 113.50260162, -7.85317993 ], [ 113.50273895, -7.85320997 ], [ 113.5038681, -7.85324001 ], [ 113.50434113, -7.85305023 ], [ 113.50462341, -7.85268021 ], [ 113.50469208, -7.85258007 ], [ 113.50479126, -7.85241985 ], [ 113.50498199, -7.85220003 ], [ 113.50531769, -7.85175991 ], [ 113.50556183, -7.85075998 ], [ 113.50570679, -7.85039997 ], [ 113.50611877, -7.85004997 ], [ 113.50675964, -7.84966946 ], [ 113.50750732, -7.84925985 ], [ 113.50787354, -7.84917021 ], [ 113.50830841, -7.84926987 ], [ 113.50875854, -7.84948015 ], [ 113.50919342, -7.84962988 ], [ 113.50958252, -7.84974003 ], [ 113.51016998, -7.85020018 ], [ 113.51046753, -7.85044003 ], [ 113.51126862, -7.85075998 ], [ 113.51213074, -7.85108995 ], [ 113.51268768, -7.85131979 ], [ 113.51329041, -7.85175991 ], [ 113.51363373, -7.85238981 ], [ 113.51394653, -7.85301018 ], [ 113.51429749, -7.85349989 ], [ 113.51445007, -7.85360003 ], [ 113.51473999, -7.85378981 ], [ 113.51503754, -7.85400009 ], [ 113.51525116, -7.85423994 ], [ 113.51551819, -7.85464001 ], [ 113.51567078, -7.85481024 ], [ 113.51582336, -7.85493994 ], [ 113.51618958, -7.85501003 ], [ 113.51656342, -7.8551898 ], [ 113.51689911, -7.85529995 ], [ 113.51721191, -7.85535002 ], [ 113.51792908, -7.85522985 ], [ 113.51853943, -7.85520983 ], [ 113.51876831, -7.85531998 ], [ 113.51950073, -7.85571003 ], [ 113.52031708, -7.85621023 ], [ 113.52055359, -7.8562398 ], [ 113.52101898, -7.85607004 ], [ 113.52140045, -7.85612011 ], [ 113.52224731, -7.85647011 ], [ 113.52301788, -7.85672998 ], [ 113.52422333, -7.85703993 ], [ 113.52497864, -7.85732985 ], [ 113.52574158, -7.85775995 ], [ 113.52661896, -7.85819006 ], [ 113.52747345, -7.85860014 ], [ 113.5282135, -7.85885 ], [ 113.52893829, -7.8586998 ], [ 113.52986908, -7.85848999 ], [ 113.53072357, -7.85845995 ], [ 113.53138733, -7.85854006 ], [ 113.53206635, -7.85863018 ], [ 113.5328598, -7.85865021 ], [ 113.53336334, -7.85897017 ], [ 113.53388977, -7.8593998 ], [ 113.53450012, -7.85972023 ], [ 113.53543854, -7.85995007 ], [ 113.53582001, -7.86011982 ], [ 113.53619385, -7.8603034 ], [ 113.53626251, -7.86033583 ], [ 113.53640747, -7.86041021 ], [ 113.53691101, -7.86064005 ], [ 113.53720093, -7.86072016 ], [ 113.53746033, -7.86059999 ], [ 113.53822327, -7.86009979 ], [ 113.53868866, -7.85983992 ], [ 113.53922272, -7.85969019 ], [ 113.53986359, -7.85958004 ], [ 113.54093933, -7.85962009 ], [ 113.54155731, -7.8598299 ], [ 113.54212952, -7.86014986 ], [ 113.54235077, -7.86039019 ], [ 113.54244995, -7.86042023 ], [ 113.54261017, -7.86043978 ], [ 113.5428009, -7.86042023 ], [ 113.54306793, -7.86019993 ], [ 113.5437088, -7.85966015 ], [ 113.54398346, -7.85949993 ], [ 113.54428101, -7.85943985 ], [ 113.54551697, -7.85953999 ], [ 113.54634857, -7.85945988 ], [ 113.54705048, -7.85934019 ], [ 113.54747772, -7.85924006 ], [ 113.54782867, -7.85921001 ], [ 113.54846954, -7.85917997 ], [ 113.54888153, -7.85916996 ], [ 113.54930878, -7.85930014 ], [ 113.54971313, -7.85945988 ], [ 113.55014038, -7.85953999 ], [ 113.55065918, -7.85999012 ], [ 113.55124664, -7.86014986 ], [ 113.5521698, -7.86028004 ], [ 113.55254364, -7.86021996 ], [ 113.552948, -7.85998011 ], [ 113.55355835, -7.85968018 ], [ 113.55433655, -7.85975981 ], [ 113.55499268, -7.85999012 ], [ 113.55551147, -7.86025 ], [ 113.55619812, -7.86029005 ], [ 113.55670929, -7.86028004 ], [ 113.55709839, -7.86016989 ], [ 113.55787659, -7.85972977 ], [ 113.55835724, -7.85937977 ], [ 113.55874634, -7.85909986 ], [ 113.55893707, -7.85901022 ], [ 113.55912018, -7.8589201 ], [ 113.55929565, -7.85893154 ], [ 113.55941772, -7.85894012 ], [ 113.56018066, -7.85898018 ], [ 113.56092072, -7.85908985 ], [ 113.56141663, -7.85917997 ], [ 113.56175232, -7.8592701 ], [ 113.56253052, -7.8593502 ], [ 113.56305695, -7.8593998 ], [ 113.56407166, -7.85932016 ], [ 113.56455994, -7.8594799 ], [ 113.56494904, -7.85996008 ], [ 113.56513977, -7.86026001 ], [ 113.56555939, -7.86071014 ], [ 113.56616211, -7.86116982 ], [ 113.56661987, -7.86159992 ], [ 113.56745148, -7.86186981 ], [ 113.56816864, -7.86214018 ], [ 113.56865692, -7.8620615 ], [ 113.56903076, -7.86190987 ], [ 113.56929016, -7.86192989 ], [ 113.56934357, -7.86198997 ], [ 113.56941986, -7.86204004 ], [ 113.56945038, -7.86214018 ], [ 113.56945038, -7.86223984 ], [ 113.56945038, -7.86234999 ], [ 113.56945038, -7.86253023 ], [ 113.56926727, -7.86284018 ], [ 113.5690918, -7.86324978 ], [ 113.56916809, -7.86358976 ], [ 113.56929779, -7.86385012 ], [ 113.56942749, -7.86399984 ], [ 113.56955719, -7.86418009 ], [ 113.56990051, -7.86490011 ], [ 113.57010651, -7.86519003 ], [ 113.57022095, -7.86541986 ], [ 113.57042694, -7.86569977 ], [ 113.57079315, -7.86624002 ], [ 113.57128906, -7.86663008 ], [ 113.57170868, -7.86682987 ], [ 113.57259369, -7.86698008 ], [ 113.57279968, -7.86699009 ], [ 113.57292938, -7.86689997 ], [ 113.57331085, -7.86641979 ], [ 113.57356262, -7.86604977 ], [ 113.57386017, -7.86555004 ], [ 113.57414246, -7.86494017 ], [ 113.5745697, -7.86434984 ], [ 113.5749054, -7.8640151 ], [ 113.57498169, -7.86393976 ], [ 113.57523346, -7.86387014 ], [ 113.575737, -7.86390018 ], [ 113.5760498, -7.86404991 ], [ 113.57637787, -7.86422014 ], [ 113.57662201, -7.86432981 ], [ 113.57701874, -7.86437988 ], [ 113.57753754, -7.86435986 ], [ 113.57804871, -7.86434984 ], [ 113.5785675, -7.86441994 ], [ 113.57904053, -7.86470985 ], [ 113.57933044, -7.86497021 ], [ 113.57956696, -7.86506987 ], [ 113.58042145, -7.86526012 ], [ 113.58070374, -7.86538982 ], [ 113.58100128, -7.86572742 ], [ 113.58113098, -7.86587 ], [ 113.58129883, -7.86604977 ], [ 113.5818634, -7.86629009 ], [ 113.58222198, -7.86641979 ], [ 113.5826416, -7.86639977 ], [ 113.58319855, -7.8663702 ], [ 113.58355713, -7.86643982 ], [ 113.5838089, -7.86648989 ], [ 113.58415985, -7.86644983 ], [ 113.5846405, -7.86636019 ], [ 113.58495331, -7.86630011 ], [ 113.58544922, -7.86619997 ], [ 113.58579254, -7.86618996 ], [ 113.58651733, -7.86624002 ], [ 113.58699799, -7.86625004 ], [ 113.58769226, -7.86625004 ], [ 113.58815765, -7.86632013 ], [ 113.58849335, -7.86643982 ], [ 113.58876038, -7.86670017 ], [ 113.58898926, -7.86717987 ], [ 113.5892334, -7.8674798 ], [ 113.58965302, -7.86776018 ], [ 113.59004211, -7.86807013 ], [ 113.59046173, -7.86822987 ], [ 113.59092712, -7.86839008 ], [ 113.59127045, -7.86856985 ], [ 113.59165955, -7.86909008 ], [ 113.59221649, -7.86934996 ], [ 113.59269714, -7.86978006 ], [ 113.59308624, -7.87005997 ], [ 113.59375763, -7.87032986 ], [ 113.59398651, -7.87047005 ], [ 113.59411621, -7.87069988 ], [ 113.59422302, -7.87120008 ], [ 113.59420776, -7.87159014 ], [ 113.5942688, -7.87188005 ], [ 113.59442139, -7.87208986 ], [ 113.59462738, -7.87239981 ], [ 113.59467316, -7.87254 ], [ 113.59468842, -7.8726902 ], [ 113.59462738, -7.87306023 ], [ 113.59458923, -7.87349987 ], [ 113.59469604, -7.87371016 ], [ 113.5949707, -7.87413979 ], [ 113.5951004, -7.87427998 ], [ 113.59559631, -7.87456989 ], [ 113.59620667, -7.875 ], [ 113.59644318, -7.87513018 ], [ 113.59699249, -7.8755002 ], [ 113.59726715, -7.87571001 ], [ 113.59751129, -7.8759799 ], [ 113.59764099, -7.87614012 ], [ 113.59799194, -7.87631989 ], [ 113.59844208, -7.87653017 ], [ 113.59874725, -7.87664986 ], [ 113.59889221, -7.87684011 ], [ 113.59883118, -7.87688017 ], [ 113.59877014, -7.87692022 ], [ 113.59870911, -7.87715006 ], [ 113.59866333, -7.87751007 ], [ 113.59864044, -7.87774992 ], [ 113.59868622, -7.87790012 ], [ 113.59884644, -7.87809992 ], [ 113.59909821, -7.87824011 ], [ 113.59928131, -7.87830019 ], [ 113.5995636, -7.87834978 ], [ 113.59977722, -7.87838984 ], [ 113.60015869, -7.87848997 ], [ 113.60038757, -7.87855005 ], [ 113.60076904, -7.87858009 ], [ 113.60108185, -7.87864017 ], [ 113.6011734, -7.8786788 ], [ 113.60131836, -7.87873983 ], [ 113.60150146, -7.87890005 ], [ 113.60159302, -7.87907982 ], [ 113.60164642, -7.87934017 ], [ 113.60169983, -7.87959003 ], [ 113.60172272, -7.87967014 ], [ 113.60178375, -7.87984991 ], [ 113.60189056, -7.8800602 ], [ 113.60195923, -7.88017988 ], [ 113.60215759, -7.88047981 ], [ 113.60227966, -7.88060999 ], [ 113.60246277, -7.88076019 ], [ 113.60275269, -7.88103008 ], [ 113.60289001, -7.8811698 ], [ 113.6031189, -7.88134003 ], [ 113.60330963, -7.88144016 ], [ 113.60340118, -7.88149023 ], [ 113.603508, -7.88156986 ], [ 113.60365295, -7.88168001 ], [ 113.60379028, -7.88181019 ], [ 113.60398102, -7.88202 ], [ 113.60414124, -7.88219976 ], [ 113.60430145, -7.88235998 ], [ 113.60437012, -7.88240004 ], [ 113.60447693, -7.88249016 ], [ 113.6046524, -7.88262987 ], [ 113.60475159, -7.88267994 ], [ 113.60482788, -7.88271999 ], [ 113.60500336, -7.8828001 ], [ 113.60552216, -7.88316011 ], [ 113.60623169, -7.88365984 ], [ 113.60710144, -7.88418007 ], [ 113.60806274, -7.88435984 ], [ 113.60894775, -7.88442993 ], [ 113.61012268, -7.88473988 ], [ 113.6104126, -7.88512993 ], [ 113.61087799, -7.88572979 ], [ 113.61187744, -7.88627005 ], [ 113.61277771, -7.88680983 ], [ 113.61347198, -7.88699007 ], [ 113.61422729, -7.88715982 ], [ 113.61528778, -7.88743353 ], [ 113.61580658, -7.88809252 ], [ 113.61611176, -7.88847399 ], [ 113.61643219, -7.88885689 ], [ 113.6166687, -7.88913774 ], [ 113.61741638, -7.88965368 ], [ 113.61820984, -7.89012289 ], [ 113.61981964, -7.89109945 ], [ 113.62042236, -7.89143085 ], [ 113.62060547, -7.89156055 ], [ 113.6210022, -7.89189911 ], [ 113.6216507, -7.89251184 ], [ 113.62217712, -7.89322233 ], [ 113.62246704, -7.89360476 ], [ 113.62281036, -7.89410162 ], [ 113.62307739, -7.89457512 ], [ 113.62320709, -7.8948307 ], [ 113.62332916, -7.89511967 ], [ 113.62342834, -7.89547586 ], [ 113.62351227, -7.89639854 ], [ 113.62355042, -7.8971839 ], [ 113.62371063, -7.89785147 ], [ 113.62384796, -7.8986187 ], [ 113.62386322, -7.89869404 ], [ 113.62388611, -7.89930487 ], [ 113.62380219, -7.90009069 ], [ 113.62373352, -7.90077448 ], [ 113.62355042, -7.90186644 ], [ 113.62345123, -7.90271044 ], [ 113.62338257, -7.90352535 ], [ 113.62338257, -7.90361881 ], [ 113.62334442, -7.90464544 ], [ 113.62332916, -7.9049654 ], [ 113.62332153, -7.90528488 ], [ 113.62319183, -7.90567875 ], [ 113.62288666, -7.90602922 ], [ 113.62252808, -7.90639544 ], [ 113.62233734, -7.90664387 ], [ 113.6222229, -7.90693521 ], [ 113.62225342, -7.90716743 ], [ 113.62231445, -7.90728903 ], [ 113.62244415, -7.9075737 ], [ 113.62288666, -7.90839958 ], [ 113.62306976, -7.90895128 ], [ 113.62342834, -7.90976906 ], [ 113.62359619, -7.91008663 ], [ 113.62380981, -7.91061115 ], [ 113.62428284, -7.91178656 ], [ 113.62458801, -7.91260719 ], [ 113.62496185, -7.91367483 ], [ 113.625, -7.91381264 ], [ 113.62519836, -7.91419792 ], [ 113.62534332, -7.91450644 ], [ 113.62551117, -7.91477394 ], [ 113.62565613, -7.91499996 ], [ 113.62596893, -7.91555548 ], [ 113.62627411, -7.91645384 ], [ 113.62628937, -7.91702986 ], [ 113.62624359, -7.91795969 ], [ 113.6261673, -7.9190464 ], [ 113.62600708, -7.92022562 ], [ 113.62573242, -7.92023993 ], [ 113.62550354, -7.9202199 ], [ 113.62532043, -7.92022991 ], [ 113.625, -7.9202199 ], [ 113.62474823, -7.92024994 ], [ 113.62457275, -7.92026997 ], [ 113.62355804, -7.92047024 ], [ 113.62294006, -7.92067003 ], [ 113.62283325, -7.92071009 ], [ 113.62216949, -7.92103004 ], [ 113.62124634, -7.92149019 ], [ 113.62046814, -7.92195988 ], [ 113.61953735, -7.9224 ], [ 113.61869049, -7.92259979 ], [ 113.61752319, -7.92284012 ], [ 113.61643219, -7.92303991 ], [ 113.6156311, -7.92320013 ], [ 113.61460876, -7.92350006 ], [ 113.61382294, -7.92377996 ], [ 113.61328888, -7.92412996 ], [ 113.6129837, -7.92433023 ], [ 113.61235809, -7.92477989 ], [ 113.61183167, -7.92519999 ], [ 113.61126709, -7.92573977 ], [ 113.61049652, -7.92644978 ], [ 113.61009979, -7.9268198 ], [ 113.61006927, -7.92689991 ], [ 113.60993958, -7.92722988 ], [ 113.60984802, -7.9273901 ], [ 113.60967255, -7.92761993 ], [ 113.60958862, -7.92771006 ], [ 113.60939789, -7.9278698 ], [ 113.60922241, -7.92797995 ], [ 113.60903168, -7.9280901 ], [ 113.60884094, -7.92819023 ], [ 113.60870361, -7.92826986 ], [ 113.6085434, -7.92835999 ], [ 113.6083374, -7.92848015 ], [ 113.60801697, -7.92869997 ], [ 113.60784149, -7.92890978 ], [ 113.60775757, -7.9289999 ], [ 113.60769653, -7.92907 ], [ 113.60762787, -7.92914009 ], [ 113.60746002, -7.92933989 ], [ 113.60733032, -7.92944002 ], [ 113.60716248, -7.92953014 ], [ 113.60704041, -7.92959976 ], [ 113.60694122, -7.92965984 ], [ 113.60679626, -7.92973995 ], [ 113.6067276, -7.92979002 ], [ 113.6065979, -7.92987013 ], [ 113.60648346, -7.92994022 ], [ 113.60639954, -7.93001986 ], [ 113.60632324, -7.93013 ], [ 113.60626221, -7.93021011 ], [ 113.60617828, -7.9303298 ], [ 113.60611725, -7.93041992 ], [ 113.60604858, -7.93052006 ], [ 113.60600281, -7.93060017 ], [ 113.60594177, -7.93070984 ], [ 113.60588074, -7.93086004 ], [ 113.60574341, -7.93097019 ], [ 113.60562897, -7.93107986 ], [ 113.60556793, -7.93114996 ], [ 113.60552979, -7.93122005 ], [ 113.60549164, -7.93130016 ], [ 113.60513306, -7.93140984 ], [ 113.60466766, -7.93149996 ], [ 113.60408783, -7.93150997 ], [ 113.60369873, -7.93155003 ], [ 113.6031189, -7.93189001 ], [ 113.60282898, -7.93205023 ], [ 113.60238647, -7.93225002 ], [ 113.60195923, -7.93235016 ], [ 113.60089111, -7.93253422 ], [ 113.60050964, -7.93260002 ], [ 113.59998322, -7.9327302 ], [ 113.59937286, -7.93288994 ], [ 113.59884644, -7.93297005 ], [ 113.59867859, -7.93302011 ], [ 113.59822083, -7.93340015 ], [ 113.5981369, -7.93349981 ], [ 113.5980835, -7.93373013 ], [ 113.59803772, -7.93386984 ], [ 113.59797668, -7.93410015 ], [ 113.5979538, -7.93422985 ], [ 113.59792328, -7.93435001 ], [ 113.59777832, -7.93447018 ], [ 113.59736633, -7.93467999 ], [ 113.59706116, -7.93476009 ], [ 113.59686279, -7.93477011 ], [ 113.59661102, -7.93472004 ], [ 113.59645081, -7.93462992 ], [ 113.59599304, -7.93416023 ], [ 113.59564209, -7.93379021 ], [ 113.59500885, -7.93324995 ], [ 113.59445953, -7.93277979 ], [ 113.59403229, -7.93240976 ], [ 113.59377289, -7.93220997 ], [ 113.59368134, -7.93212986 ], [ 113.59335327, -7.93170023 ], [ 113.59322357, -7.93149996 ], [ 113.59310913, -7.93128014 ], [ 113.59307098, -7.93116999 ], [ 113.59306335, -7.93108988 ], [ 113.5930481, -7.93097019 ], [ 113.59294891, -7.93088007 ], [ 113.59272766, -7.93079996 ], [ 113.5923996, -7.93073988 ], [ 113.59229279, -7.93072987 ], [ 113.59198761, -7.93073988 ], [ 113.59156036, -7.93084002 ], [ 113.59114838, -7.93095016 ], [ 113.59089661, -7.93084002 ], [ 113.59011841, -7.93043995 ], [ 113.58963013, -7.93009996 ], [ 113.58892059, -7.92979002 ], [ 113.58833313, -7.92954016 ], [ 113.58785248, -7.92917013 ], [ 113.58772278, -7.92907 ], [ 113.58750153, -7.92884016 ], [ 113.58731842, -7.92848015 ], [ 113.5871582, -7.92824984 ], [ 113.58698273, -7.92800999 ], [ 113.58686066, -7.92771006 ], [ 113.58677673, -7.92749977 ], [ 113.58667755, -7.92732 ], [ 113.5866394, -7.92714977 ], [ 113.58657074, -7.92707014 ], [ 113.58653259, -7.92700005 ], [ 113.58647919, -7.92684984 ], [ 113.58635712, -7.92668009 ], [ 113.58586884, -7.92612982 ], [ 113.58576965, -7.92602015 ], [ 113.58544922, -7.92558765 ], [ 113.58518219, -7.92522001 ], [ 113.5846405, -7.92474985 ], [ 113.58390045, -7.92430019 ], [ 113.58289337, -7.92384005 ], [ 113.58280945, -7.92381001 ], [ 113.58207703, -7.92356014 ], [ 113.58154297, -7.92341805 ], [ 113.58146667, -7.92339993 ], [ 113.58065796, -7.92308998 ], [ 113.57991028, -7.92262983 ], [ 113.579422, -7.92224979 ], [ 113.57852936, -7.92163992 ], [ 113.57756042, -7.92106009 ], [ 113.57688904, -7.92069006 ], [ 113.57608795, -7.92040014 ], [ 113.57566833, -7.92026997 ], [ 113.57485199, -7.92017984 ], [ 113.57415771, -7.92008018 ], [ 113.57367706, -7.91989994 ], [ 113.5736618, -7.9197998 ], [ 113.57359314, -7.91971016 ], [ 113.57343292, -7.91957998 ], [ 113.57322693, -7.9193902 ], [ 113.57309723, -7.91929007 ], [ 113.57288361, -7.91917992 ], [ 113.57269287, -7.9190402 ], [ 113.57241058, -7.9188199 ], [ 113.57225037, -7.91862011 ], [ 113.57214355, -7.91844988 ], [ 113.57202911, -7.91820002 ], [ 113.57198334, -7.91795015 ], [ 113.57187653, -7.91764021 ], [ 113.5717392, -7.91739988 ], [ 113.57160187, -7.91717005 ], [ 113.5714798, -7.91694021 ], [ 113.5715332, -7.91669989 ], [ 113.57125854, -7.91655016 ], [ 113.57096863, -7.91630983 ], [ 113.57064819, -7.91595984 ], [ 113.5705719, -7.91590023 ], [ 113.57012939, -7.91546011 ], [ 113.56970978, -7.91519022 ], [ 113.56900024, -7.91504669 ], [ 113.56891632, -7.91503 ], [ 113.56812286, -7.91486979 ], [ 113.5670929, -7.91470003 ], [ 113.56674194, -7.91463995 ], [ 113.56643677, -7.91458988 ], [ 113.56572723, -7.91454983 ], [ 113.56507874, -7.91437006 ], [ 113.56486511, -7.91422701 ], [ 113.56465149, -7.91408014 ], [ 113.56421661, -7.91365623 ], [ 113.5639801, -7.9134202 ], [ 113.56298065, -7.91258001 ], [ 113.56243896, -7.9120698 ], [ 113.56173706, -7.91154003 ], [ 113.56079102, -7.91113997 ], [ 113.55991364, -7.91091013 ], [ 113.55951691, -7.91074991 ], [ 113.55912781, -7.91060019 ], [ 113.55821228, -7.91019011 ], [ 113.55734253, -7.90963984 ], [ 113.55684662, -7.90900993 ], [ 113.55657196, -7.90858984 ], [ 113.55625153, -7.90793991 ], [ 113.55603027, -7.90747023 ], [ 113.55534363, -7.90673018 ], [ 113.55477142, -7.90613985 ], [ 113.55438995, -7.90565014 ], [ 113.55407715, -7.90510988 ], [ 113.55403137, -7.90501022 ], [ 113.55387878, -7.90462017 ], [ 113.55375671, -7.90436983 ], [ 113.55374146, -7.90411997 ], [ 113.55371857, -7.90400982 ], [ 113.55362701, -7.90365982 ], [ 113.55345917, -7.90335989 ], [ 113.55329132, -7.90312004 ], [ 113.5530777, -7.90294981 ], [ 113.55262756, -7.90280008 ], [ 113.55252838, -7.90277004 ], [ 113.55232239, -7.90269995 ], [ 113.55226135, -7.90265989 ], [ 113.55207825, -7.90256977 ], [ 113.55182648, -7.90235996 ], [ 113.55172729, -7.90222979 ], [ 113.551651, -7.90215015 ], [ 113.55143738, -7.90198994 ], [ 113.55130768, -7.90189981 ], [ 113.5511322, -7.90179014 ], [ 113.5510025, -7.90171003 ], [ 113.55084229, -7.90157986 ], [ 113.55071259, -7.90146017 ], [ 113.55063629, -7.90136003 ], [ 113.55059052, -7.90126991 ], [ 113.55049133, -7.90112019 ], [ 113.55046082, -7.90102005 ], [ 113.55042267, -7.90089989 ], [ 113.55036926, -7.90071011 ], [ 113.55033112, -7.90059996 ], [ 113.55027008, -7.90031004 ], [ 113.55024719, -7.90019989 ], [ 113.5502243, -7.89984894 ], [ 113.54987335, -7.89988995 ], [ 113.54945374, -7.89987993 ], [ 113.54931641, -7.89976549 ], [ 113.54888153, -7.89934015 ], [ 113.54808807, -7.89888 ], [ 113.54802704, -7.89876986 ], [ 113.54810333, -7.8984499 ], [ 113.54826355, -7.89811993 ], [ 113.54836273, -7.89773989 ], [ 113.54831696, -7.89751005 ], [ 113.54811096, -7.89720011 ], [ 113.54794312, -7.89697981 ], [ 113.54779816, -7.89675999 ], [ 113.54759216, -7.89652014 ], [ 113.54733276, -7.89632988 ], [ 113.54708862, -7.89628983 ], [ 113.54673767, -7.89630985 ], [ 113.5459671, -7.89638996 ], [ 113.54502869, -7.89647007 ], [ 113.54477692, -7.89638996 ], [ 113.54444885, -7.89619017 ], [ 113.54434204, -7.89603996 ], [ 113.54429626, -7.89587021 ], [ 113.54419708, -7.89554977 ], [ 113.54403687, -7.89531994 ], [ 113.54376984, -7.89512014 ], [ 113.54357147, -7.89506006 ], [ 113.54332733, -7.89508009 ], [ 113.54297638, -7.89511013 ], [ 113.54282379, -7.89514017 ], [ 113.5425415, -7.8952198 ], [ 113.54237366, -7.89523983 ], [ 113.54225159, -7.8952198 ], [ 113.5421524, -7.89515018 ], [ 113.54206848, -7.89500999 ], [ 113.54200745, -7.8948698 ], [ 113.54187012, -7.89470005 ], [ 113.5418396, -7.89460993 ], [ 113.54174805, -7.89443016 ], [ 113.54160309, -7.89407015 ], [ 113.54154205, -7.89396 ], [ 113.54135895, -7.8937602 ], [ 113.54116821, -7.89364004 ], [ 113.54097748, -7.89362001 ], [ 113.54068756, -7.8936801 ], [ 113.5403595, -7.89379978 ], [ 113.54006195, -7.89400005 ], [ 113.53975677, -7.89425993 ], [ 113.53941345, -7.89456987 ], [ 113.53900146, -7.89490986 ], [ 113.53840637, -7.89529991 ], [ 113.53820801, -7.89537001 ], [ 113.53806305, -7.89532995 ], [ 113.53778839, -7.89515018 ], [ 113.53772736, -7.89502001 ], [ 113.53759003, -7.89476013 ], [ 113.53752899, -7.89454985 ], [ 113.53735352, -7.89418983 ], [ 113.53720856, -7.89396 ], [ 113.53692627, -7.89342022 ], [ 113.53669739, -7.8931098 ], [ 113.53652191, -7.89303017 ], [ 113.53626251, -7.89303017 ], [ 113.53614807, -7.89309978 ], [ 113.53613281, -7.89317989 ], [ 113.53604889, -7.89330006 ], [ 113.53582764, -7.89385986 ], [ 113.53578186, -7.89435005 ], [ 113.5357132, -7.89497995 ], [ 113.53562927, -7.89500999 ], [ 113.53547668, -7.89499998 ], [ 113.53527069, -7.89491987 ], [ 113.5349884, -7.89476013 ], [ 113.5343399, -7.89426994 ], [ 113.53414917, -7.89405012 ], [ 113.53401184, -7.8938098 ], [ 113.53388214, -7.89361 ], [ 113.53372192, -7.89343023 ], [ 113.53350067, -7.8933301 ], [ 113.53320313, -7.89327002 ], [ 113.53294373, -7.89327002 ], [ 113.53230286, -7.89319992 ], [ 113.5321579, -7.8931098 ], [ 113.53183746, -7.89284992 ], [ 113.53167725, -7.89281988 ], [ 113.53153229, -7.89285994 ], [ 113.53135681, -7.89299011 ], [ 113.53131104, -7.89308977 ], [ 113.53118896, -7.89348984 ], [ 113.53109741, -7.89362001 ], [ 113.53093719, -7.89372015 ], [ 113.53086853, -7.8937602 ], [ 113.53067017, -7.89378023 ], [ 113.53047943, -7.89373016 ], [ 113.53029633, -7.89363003 ], [ 113.53003693, -7.8933301 ], [ 113.52999878, -7.89318991 ], [ 113.53002167, -7.89302015 ], [ 113.53012848, -7.89277983 ], [ 113.53044891, -7.89204979 ], [ 113.5304184, -7.89176989 ], [ 113.53034973, -7.89144993 ], [ 113.53022003, -7.89125013 ], [ 113.53000641, -7.89104986 ], [ 113.52977753, -7.89091015 ], [ 113.5293808, -7.89076996 ], [ 113.52909088, -7.8907299 ], [ 113.52861023, -7.8907299 ], [ 113.52813721, -7.89081001 ], [ 113.52765656, -7.89104986 ], [ 113.52646637, -7.89171982 ], [ 113.52619171, -7.89188004 ], [ 113.52555084, -7.89210987 ], [ 113.52539063, -7.89209986 ], [ 113.52503967, -7.89204979 ], [ 113.52485657, -7.89192009 ], [ 113.52461243, -7.89168978 ], [ 113.52417755, -7.89125013 ], [ 113.52394104, -7.89087009 ], [ 113.5238266, -7.89077997 ], [ 113.5235672, -7.89065981 ], [ 113.52288818, -7.89043999 ], [ 113.52269745, -7.89027977 ], [ 113.52263641, -7.89020014 ], [ 113.52252197, -7.89002991 ], [ 113.52249908, -7.88991022 ], [ 113.52243805, -7.88972998 ], [ 113.52233887, -7.88958979 ], [ 113.52210236, -7.88935995 ], [ 113.52178192, -7.88913012 ], [ 113.52147675, -7.88902998 ], [ 113.52092743, -7.88886976 ], [ 113.52075958, -7.88875008 ], [ 113.52057648, -7.88865995 ], [ 113.52037048, -7.88859987 ], [ 113.52017212, -7.88862991 ], [ 113.5198822, -7.88863993 ], [ 113.51978302, -7.88859987 ], [ 113.51963806, -7.88847017 ], [ 113.51959991, -7.88829994 ], [ 113.5196228, -7.88815022 ], [ 113.51969147, -7.88770008 ], [ 113.5196228, -7.88752985 ], [ 113.51934052, -7.88722992 ], [ 113.51911926, -7.88698006 ], [ 113.51880646, -7.8865099 ], [ 113.51843262, -7.88609982 ], [ 113.51828003, -7.88606977 ], [ 113.51804352, -7.88598013 ], [ 113.51779938, -7.88581991 ], [ 113.51769257, -7.88577986 ], [ 113.51756287, -7.88571978 ], [ 113.5174942, -7.88556099 ], [ 113.51748657, -7.88540983 ], [ 113.51748657, -7.88513994 ], [ 113.51743317, -7.88496017 ], [ 113.51731873, -7.88489008 ], [ 113.51717377, -7.88486004 ], [ 113.51695251, -7.88490009 ], [ 113.5166626, -7.88495016 ], [ 113.51638794, -7.88492012 ], [ 113.51608276, -7.88479996 ], [ 113.51586151, -7.8846302 ], [ 113.51570129, -7.88462019 ], [ 113.51550293, -7.88468981 ], [ 113.51531219, -7.88481998 ], [ 113.5149231, -7.88530016 ], [ 113.51451111, -7.88562012 ], [ 113.51422882, -7.88552999 ], [ 113.51390839, -7.88546991 ], [ 113.51358032, -7.88551998 ], [ 113.51325989, -7.8856101 ], [ 113.5128479, -7.88582993 ], [ 113.51236725, -7.88604021 ], [ 113.5121994, -7.88591003 ], [ 113.51212311, -7.88577986 ], [ 113.51197052, -7.88557005 ], [ 113.51165771, -7.88522005 ], [ 113.51148987, -7.88511992 ], [ 113.51109314, -7.88503981 ], [ 113.51056671, -7.88500023 ], [ 113.51000977, -7.88486004 ], [ 113.50959778, -7.88479996 ], [ 113.50911713, -7.88465977 ], [ 113.50888062, -7.88459015 ], [ 113.50862885, -7.88453007 ], [ 113.50836182, -7.88456011 ], [ 113.50778961, -7.88465977 ], [ 113.50739288, -7.8846302 ], [ 113.50720978, -7.88467979 ], [ 113.50685883, -7.8847599 ], [ 113.50659943, -7.8847599 ], [ 113.50634003, -7.88465977 ], [ 113.50537109, -7.88425016 ], [ 113.50527191, -7.88423014 ], [ 113.50495148, -7.88414001 ], [ 113.50478363, -7.88398981 ], [ 113.50456238, -7.88379002 ], [ 113.5042038, -7.88353014 ], [ 113.50399017, -7.8833499 ], [ 113.50386047, -7.88328981 ], [ 113.50376129, -7.88324022 ], [ 113.50289154, -7.88273001 ], [ 113.50228882, -7.88248014 ], [ 113.50180817, -7.88230991 ], [ 113.50169373, -7.88221979 ], [ 113.50140381, -7.88200998 ], [ 113.5007782, -7.88154984 ], [ 113.50048828, -7.88137007 ], [ 113.5, -7.88106012 ], [ 113.49958801, -7.88068008 ], [ 113.49951935, -7.88062 ], [ 113.49897003, -7.88016987 ], [ 113.49878693, -7.8799901 ], [ 113.49865723, -7.87992001 ], [ 113.49845123, -7.87977982 ], [ 113.4981308, -7.87974977 ], [ 113.49781036, -7.87984991 ], [ 113.49729156, -7.88017988 ], [ 113.4970932, -7.88039017 ], [ 113.49681854, -7.88068008 ], [ 113.49640656, -7.88101006 ], [ 113.49629974, -7.88107014 ], [ 113.49594879, -7.8812499 ], [ 113.49584198, -7.88129997 ], [ 113.49542999, -7.88148022 ], [ 113.4943924, -7.88193989 ], [ 113.49371338, -7.8822999 ], [ 113.49301147, -7.88282013 ], [ 113.49259186, -7.8832798 ], [ 113.49236298, -7.88364983 ], [ 113.49225616, -7.88382149 ], [ 113.49210358, -7.88406992 ], [ 113.49167633, -7.88485003 ], [ 113.49121857, -7.88563013 ], [ 113.49073029, -7.88640022 ], [ 113.49060059, -7.88660002 ], [ 113.4901886, -7.88717985 ], [ 113.48983002, -7.88780022 ], [ 113.48921204, -7.88876009 ], [ 113.48869324, -7.88937998 ], [ 113.48845673, -7.88953018 ], [ 113.4881897, -7.88972998 ], [ 113.48802948, -7.88977003 ], [ 113.48789978, -7.88989019 ], [ 113.48783112, -7.88996744 ], [ 113.48757935, -7.89026022 ], [ 113.48748779, -7.89039993 ], [ 113.48735046, -7.89062977 ], [ 113.48690033, -7.89118004 ], [ 113.48677826, -7.89118004 ], [ 113.48660278, -7.89108992 ], [ 113.48638916, -7.89086008 ], [ 113.48603821, -7.89041996 ], [ 113.48580933, -7.89013004 ], [ 113.48551941, -7.88999987 ], [ 113.48532867, -7.88997984 ], [ 113.48509216, -7.89002991 ], [ 113.48468018, -7.89015007 ], [ 113.48429871, -7.89015007 ], [ 113.48387909, -7.88999987 ], [ 113.48335266, -7.88975 ], [ 113.48297882, -7.88951015 ], [ 113.48265076, -7.88933992 ], [ 113.48255157, -7.88933992 ], [ 113.4824295, -7.88942003 ], [ 113.48239899, -7.88951015 ], [ 113.4824295, -7.88960981 ], [ 113.48261261, -7.89002991 ], [ 113.48256683, -7.89027023 ], [ 113.48246765, -7.89036989 ], [ 113.48233032, -7.89043999 ], [ 113.48194885, -7.8905201 ], [ 113.48181915, -7.89049006 ], [ 113.48175812, -7.89043999 ], [ 113.48169708, -7.89038992 ], [ 113.48149109, -7.89008999 ], [ 113.48136902, -7.88985014 ], [ 113.48136902, -7.88965988 ], [ 113.4813385, -7.88937998 ], [ 113.4812088, -7.88906002 ], [ 113.48110962, -7.88895988 ], [ 113.48069, -7.88871002 ], [ 113.48033905, -7.88867998 ], [ 113.48001099, -7.88865995 ], [ 113.47987366, -7.88857985 ], [ 113.47958374, -7.88840008 ], [ 113.47933197, -7.88831997 ], [ 113.47914886, -7.88832998 ], [ 113.47902679, -7.88843012 ], [ 113.47892761, -7.88859987 ], [ 113.47866821, -7.88922024 ], [ 113.47853851, -7.88937998 ], [ 113.47837067, -7.88950014 ], [ 113.47821808, -7.88949013 ], [ 113.47805786, -7.88940001 ], [ 113.47788239, -7.88922024 ], [ 113.4776001, -7.88881016 ], [ 113.47746277, -7.88871002 ], [ 113.47730255, -7.88870001 ], [ 113.47721863, -7.88871765 ], [ 113.4770813, -7.88875008 ], [ 113.47683716, -7.88886023 ], [ 113.47669983, -7.88906002 ], [ 113.47654724, -7.88922977 ], [ 113.47631073, -7.88937998 ], [ 113.47596741, -7.88946009 ], [ 113.4756012, -7.88944006 ], [ 113.47492981, -7.88926983 ], [ 113.4744873, -7.88908005 ], [ 113.47422791, -7.88887978 ], [ 113.47386169, -7.88847017 ], [ 113.47355652, -7.88812017 ], [ 113.47338867, -7.88813019 ], [ 113.47325134, -7.88819981 ], [ 113.4732132, -7.88830996 ], [ 113.4731369, -7.88870001 ], [ 113.47299194, -7.88894987 ], [ 113.47238922, -7.88936996 ], [ 113.47223663, -7.88937998 ], [ 113.47189331, -7.88935995 ], [ 113.47174072, -7.88928986 ], [ 113.47167969, -7.88918018 ], [ 113.47151947, -7.88872004 ], [ 113.47138977, -7.88864994 ], [ 113.47126007, -7.88864994 ], [ 113.47058868, -7.88871002 ], [ 113.47032166, -7.8886199 ], [ 113.47022247, -7.88851023 ], [ 113.4701767, -7.88835001 ], [ 113.47019196, -7.88819981 ], [ 113.4703598, -7.88806009 ], [ 113.47064972, -7.88788986 ], [ 113.47077942, -7.88776016 ], [ 113.47084808, -7.88759995 ], [ 113.47086334, -7.88747978 ], [ 113.47077942, -7.88737011 ], [ 113.47039795, -7.88687992 ], [ 113.47022247, -7.88667011 ], [ 113.47003174, -7.88656998 ], [ 113.46996307, -7.88661003 ], [ 113.46987915, -7.88673019 ], [ 113.46971893, -7.88720989 ], [ 113.46942902, -7.88797998 ], [ 113.46913147, -7.88844013 ], [ 113.46878815, -7.88867998 ], [ 113.46868134, -7.88865995 ], [ 113.46852112, -7.88857985 ], [ 113.46813202, -7.88832998 ], [ 113.46794128, -7.88832998 ], [ 113.46768951, -7.88846016 ], [ 113.46687317, -7.88911009 ], [ 113.46661377, -7.8893199 ], [ 113.46617126, -7.88956022 ], [ 113.46591949, -7.88961983 ], [ 113.46570587, -7.88961363 ], [ 113.46559143, -7.88960981 ], [ 113.46527863, -7.88953018 ], [ 113.46505737, -7.88943005 ], [ 113.46392059, -7.88881016 ], [ 113.4629364, -7.88834 ], [ 113.46257782, -7.88804007 ], [ 113.46228027, -7.88784981 ], [ 113.46179199, -7.88751984 ], [ 113.46147919, -7.88718987 ], [ 113.46096802, -7.88660002 ], [ 113.46019745, -7.88609982 ], [ 113.45980072, -7.88583994 ], [ 113.45871735, -7.8853302 ], [ 113.45845795, -7.88539982 ], [ 113.45800018, -7.88558006 ], [ 113.45767212, -7.88563013 ], [ 113.4574585, -7.8856101 ], [ 113.45715332, -7.88550997 ], [ 113.45696259, -7.88534021 ], [ 113.45661163, -7.88495016 ], [ 113.45652008, -7.88472986 ], [ 113.45633698, -7.88419008 ], [ 113.45616913, -7.88384008 ], [ 113.45601654, -7.88369989 ], [ 113.45581818, -7.88360977 ], [ 113.45567322, -7.88363981 ], [ 113.45542908, -7.88375998 ], [ 113.45487976, -7.88414001 ], [ 113.45467377, -7.88418007 ], [ 113.45458221, -7.88423014 ], [ 113.45439148, -7.88429022 ], [ 113.45407867, -7.88431263 ], [ 113.45372009, -7.88426018 ], [ 113.45350647, -7.88418007 ], [ 113.45342255, -7.88411999 ], [ 113.45321655, -7.8839798 ], [ 113.45290375, -7.88382006 ], [ 113.45272064, -7.88382006 ], [ 113.4526062, -7.88387012 ], [ 113.45249176, -7.88400984 ], [ 113.45226288, -7.88430023 ], [ 113.45214081, -7.88436985 ], [ 113.45201111, -7.88435984 ], [ 113.451828, -7.88424015 ], [ 113.45133972, -7.88383007 ], [ 113.45120239, -7.88369989 ], [ 113.45105743, -7.88358021 ], [ 113.45092773, -7.88356018 ], [ 113.45079041, -7.88360023 ], [ 113.45069885, -7.8836298 ], [ 113.4502182, -7.88389015 ], [ 113.44996643, -7.8839798 ], [ 113.44980621, -7.88395023 ], [ 113.44956207, -7.88379002 ], [ 113.44940186, -7.88360023 ], [ 113.44927979, -7.88335991 ], [ 113.44915771, -7.88324022 ], [ 113.4489212, -7.88309002 ], [ 113.44857788, -7.88290977 ], [ 113.44841766, -7.88274002 ], [ 113.448349, -7.88255978 ], [ 113.44814301, -7.88199997 ], [ 113.4479599, -7.88186979 ], [ 113.44779968, -7.88183022 ], [ 113.4475708, -7.88174009 ], [ 113.44685364, -7.88121986 ], [ 113.44654846, -7.88091993 ], [ 113.44647217, -7.88076019 ], [ 113.44648743, -7.88060999 ], [ 113.4466095, -7.88041592 ], [ 113.44671631, -7.88024998 ], [ 113.44670105, -7.88015985 ], [ 113.44658661, -7.88008022 ], [ 113.44637299, -7.88002014 ], [ 113.44586945, -7.87996006 ], [ 113.44434357, -7.8798399 ], [ 113.44416046, -7.87973022 ], [ 113.44365692, -7.87935019 ], [ 113.44338226, -7.87899017 ], [ 113.44303131, -7.87840986 ], [ 113.44284821, -7.87829018 ], [ 113.44249725, -7.87820005 ], [ 113.44213867, -7.87814999 ], [ 113.44172668, -7.87823009 ], [ 113.44156647, -7.87827015 ], [ 113.44148254, -7.87833023 ], [ 113.44117737, -7.87849998 ], [ 113.44082642, -7.87858009 ], [ 113.44065857, -7.87854004 ], [ 113.44029236, -7.87836981 ], [ 113.4400177, -7.87816 ], [ 113.43939209, -7.87738991 ], [ 113.43850708, -7.87701988 ], [ 113.43708038, -7.87677002 ], [ 113.43701935, -7.87666988 ], [ 113.43701935, -7.87657022 ], [ 113.4370575, -7.87608004 ], [ 113.43699646, -7.87549019 ], [ 113.43686676, -7.87525988 ], [ 113.43669891, -7.87501001 ], [ 113.4367218, -7.87447023 ], [ 113.43669891, -7.87423992 ], [ 113.43663788, -7.87407017 ], [ 113.43649292, -7.87388992 ], [ 113.43611908, -7.87375021 ], [ 113.43585968, -7.8736701 ], [ 113.43583679, -7.87357998 ], [ 113.43582916, -7.87341022 ], [ 113.43585968, -7.87310982 ], [ 113.43582153, -7.87289 ], [ 113.43573761, -7.87273979 ], [ 113.43559265, -7.87263012 ], [ 113.43531036, -7.87255001 ], [ 113.43515015, -7.87255001 ], [ 113.43489838, -7.87258005 ], [ 113.43473053, -7.87262011 ], [ 113.43460083, -7.87261009 ], [ 113.43453217, -7.87254 ], [ 113.43447876, -7.87241983 ], [ 113.43447876, -7.87224007 ], [ 113.43451691, -7.87184 ], [ 113.43448639, -7.87145996 ], [ 113.43444824, -7.87125015 ], [ 113.43431091, -7.87104988 ], [ 113.43408203, -7.87085009 ], [ 113.4336319, -7.87052011 ], [ 113.43341064, -7.87031984 ], [ 113.4333725, -7.87021017 ], [ 113.43340302, -7.87001991 ], [ 113.43347931, -7.86963987 ], [ 113.43348694, -7.86940002 ], [ 113.43347931, -7.8691802 ], [ 113.43344116, -7.86888981 ], [ 113.43340302, -7.86866999 ], [ 113.43341827, -7.86853981 ], [ 113.43347168, -7.86826992 ], [ 113.43331909, -7.86822987 ], [ 113.4330368, -7.86811018 ], [ 113.43282318, -7.86800003 ], [ 113.43257141, -7.86772013 ], [ 113.43226624, -7.8674531 ], [ 113.43199158, -7.86730003 ], [ 113.43153381, -7.86726999 ], [ 113.4310379, -7.86728001 ], [ 113.43061829, -7.86736012 ], [ 113.43036652, -7.86739016 ], [ 113.42996216, -7.86745024 ], [ 113.42977905, -7.86750984 ], [ 113.4291687, -7.86773014 ], [ 113.42852783, -7.86795998 ], [ 113.42829895, -7.8680501 ], [ 113.42788696, -7.86821985 ], [ 113.42736053, -7.86841011 ], [ 113.42703247, -7.86853981 ], [ 113.42681885, -7.86857986 ], [ 113.42671967, -7.86857986 ], [ 113.4265213, -7.86857986 ], [ 113.42606354, -7.86856985 ], [ 113.42595673, -7.86858368 ], [ 113.42568207, -7.86861992 ], [ 113.4251709, -7.86880016 ], [ 113.42489624, -7.86898994 ], [ 113.42456818, -7.86919022 ], [ 113.42414093, -7.86926985 ], [ 113.42395782, -7.86932993 ], [ 113.42373657, -7.86926985 ], [ 113.42327118, -7.86923981 ], [ 113.42259216, -7.86952019 ], [ 113.42214203, -7.86958981 ], [ 113.42167664, -7.86970997 ], [ 113.42118073, -7.86997986 ], [ 113.42070007, -7.8703599 ], [ 113.42025757, -7.87094021 ], [ 113.41986084, -7.87165022 ], [ 113.41960144, -7.87228012 ], [ 113.41941833, -7.87305021 ], [ 113.41938019, -7.87327623 ], [ 113.41928864, -7.87373018 ], [ 113.41921997, -7.87434006 ], [ 113.4192276, -7.875 ], [ 113.41912079, -7.87518978 ], [ 113.41905212, -7.87536001 ], [ 113.41892242, -7.87556982 ], [ 113.4187088, -7.87584019 ], [ 113.41837311, -7.87621021 ], [ 113.41779327, -7.87688017 ], [ 113.41757202, -7.8771801 ], [ 113.41750336, -7.87729979 ], [ 113.41748047, -7.87747002 ], [ 113.41732025, -7.87775993 ], [ 113.4172287, -7.87790012 ], [ 113.41716766, -7.87814999 ], [ 113.4174118, -7.87870979 ], [ 113.41761017, -7.87904978 ], [ 113.41770935, -7.87918329 ], [ 113.4178772, -7.87941074 ], [ 113.41815948, -7.87979984 ], [ 113.41809082, -7.88014984 ], [ 113.4178772, -7.88068008 ], [ 113.4176712, -7.88114977 ], [ 113.4176712, -7.88146019 ], [ 113.41770935, -7.88183022 ], [ 113.41777802, -7.88237 ], [ 113.41770172, -7.88283014 ], [ 113.41764832, -7.88306999 ], [ 113.41757202, -7.88356018 ], [ 113.4172821, -7.88401985 ], [ 113.41677856, -7.88436985 ], [ 113.41629028, -7.88451004 ], [ 113.41609955, -7.88453007 ], [ 113.41583252, -7.88460016 ], [ 113.4155426, -7.88472986 ], [ 113.41483307, -7.88476992 ], [ 113.41468048, -7.88414001 ], [ 113.4145813, -7.88381004 ], [ 113.41452026, -7.88360977 ], [ 113.41439056, -7.88340998 ], [ 113.41426849, -7.88332987 ], [ 113.41368866, -7.88308001 ], [ 113.41352081, -7.88312006 ], [ 113.4132309, -7.88323021 ], [ 113.41282654, -7.88336992 ], [ 113.41249847, -7.88339996 ], [ 113.41156769, -7.88333988 ], [ 113.41136169, -7.88325977 ], [ 113.41091919, -7.88296986 ], [ 113.40998077, -7.88185978 ], [ 113.4098587, -7.88165998 ], [ 113.40973663, -7.8814702 ], [ 113.40959167, -7.88114023 ], [ 113.4095993, -7.88098001 ], [ 113.40969849, -7.88067007 ], [ 113.40986633, -7.88043022 ], [ 113.41036987, -7.87978983 ], [ 113.41036224, -7.87965012 ], [ 113.41027069, -7.8794899 ], [ 113.41005707, -7.87926006 ], [ 113.40963745, -7.87887001 ], [ 113.40860748, -7.87858009 ], [ 113.40802002, -7.87844992 ], [ 113.40744019, -7.87834978 ], [ 113.40696716, -7.87820005 ], [ 113.40673065, -7.87812996 ], [ 113.40609741, -7.87798023 ], [ 113.40493011, -7.8775301 ], [ 113.40484619, -7.87750006 ], [ 113.40419769, -7.87726021 ], [ 113.40338135, -7.87694979 ], [ 113.40309143, -7.87681007 ], [ 113.40274811, -7.87672281 ], [ 113.40239716, -7.87659979 ], [ 113.4018631, -7.87642002 ], [ 113.40110779, -7.87619019 ], [ 113.40078735, -7.87611866 ] ] ] ] } }
]
}
