{
"type": "FeatureCollection",
"name": "Kecamatan Kuripan",
"crs": { "type": "name", "properties": { "name": "urn:ogc:def:crs:OGC:1.3:CRS84" } },
"features": [
{ "type": "Feature", "properties": { "GID_0": "IDN", "NAME_0": "Indonesia", "GID_1": "IDN.11_1", "NAME_1": "Jawa Timur", "NL_NAME_1": null, "GID_2": "IDN.11.30_1", "NAME_2": "Probolinggo", "NL_NAME_2": null, "GID_3": "IDN.11.30.11_1", "NAME_3": "Kuripan", "VARNAME_3": null, "NL_NAME_3": null, "TYPE_3": "Kecamatan", "ENGTYPE_3": "Sub-district", "CC_3": "3513030", "HASC_3": null }, "geometry": { "type": "MultiPolygon", "coordinates": [ [ [ [ 113.11974335, -7.90022993 ], [ 113.11907196, -7.90057993 ], [ 113.11894989, -7.90065002 ], [ 113.11849976, -7.90115023 ], [ 113.11846924, -7.90121984 ], [ 113.11820221, -7.90179014 ], [ 113.11805725, -7.90209007 ], [ 113.11781311, -7.90262985 ], [ 113.11760712, -7.90304995 ], [ 113.11737823, -7.90352011 ], [ 113.11723328, -7.90383005 ], [ 113.11721039, -7.90390015 ], [ 113.11694336, -7.90438986 ], [ 113.11666107, -7.90482998 ], [ 113.11650085, -7.90495014 ], [ 113.11641693, -7.90508986 ], [ 113.11614227, -7.90578985 ], [ 113.11589813, -7.90626001 ], [ 113.11575317, -7.90653992 ], [ 113.11568451, -7.90668774 ], [ 113.11562347, -7.90682983 ], [ 113.11522675, -7.90764999 ], [ 113.1151123, -7.90782022 ], [ 113.11486053, -7.90812016 ], [ 113.11455536, -7.90846586 ], [ 113.11446381, -7.90856981 ], [ 113.11435699, -7.90867996 ], [ 113.1140976, -7.90900993 ], [ 113.11392975, -7.90922022 ], [ 113.1137619, -7.90944004 ], [ 113.11348724, -7.90977001 ], [ 113.11325073, -7.90995979 ], [ 113.11299896, -7.91019011 ], [ 113.11276245, -7.91046 ], [ 113.11247253, -7.91075993 ], [ 113.11225891, -7.91093016 ], [ 113.11193848, -7.91109991 ], [ 113.11154175, -7.9113102 ], [ 113.1114502, -7.91135979 ], [ 113.11122131, -7.91154003 ], [ 113.11044312, -7.91180992 ], [ 113.10945892, -7.91223001 ], [ 113.10810089, -7.91374016 ], [ 113.10793304, -7.91407013 ], [ 113.10784912, -7.91450024 ], [ 113.10782623, -7.91483021 ], [ 113.10784149, -7.91513014 ], [ 113.10768127, -7.91530991 ], [ 113.10739899, -7.91561985 ], [ 113.10735321, -7.91569996 ], [ 113.1072464, -7.91593981 ], [ 113.10716248, -7.91630983 ], [ 113.1071167, -7.91683006 ], [ 113.10701752, -7.91689014 ], [ 113.10688019, -7.91689014 ], [ 113.10658264, -7.91690016 ], [ 113.10645294, -7.91697979 ], [ 113.10637665, -7.91709995 ], [ 113.10626221, -7.91725016 ], [ 113.10611725, -7.9172802 ], [ 113.10601807, -7.91724014 ], [ 113.10575867, -7.9170599 ], [ 113.10562897, -7.91706991 ], [ 113.1055603, -7.91715002 ], [ 113.10555267, -7.9172802 ], [ 113.1055069, -7.91753006 ], [ 113.10542297, -7.91764021 ], [ 113.1052475, -7.91770983 ], [ 113.10510254, -7.91771984 ], [ 113.10498047, -7.91765022 ], [ 113.1046524, -7.91738987 ], [ 113.10449982, -7.91739988 ], [ 113.10421753, -7.91747999 ], [ 113.10360718, -7.91771984 ], [ 113.10327911, -7.9177599 ], [ 113.10308838, -7.91776991 ], [ 113.10294342, -7.91785002 ], [ 113.10276031, -7.91802979 ], [ 113.10257721, -7.91829014 ], [ 113.10253143, -7.91850996 ], [ 113.10247803, -7.91879988 ], [ 113.1023407, -7.91908979 ], [ 113.102211, -7.91920996 ], [ 113.10205078, -7.91928005 ], [ 113.10187531, -7.91936874 ], [ 113.10157776, -7.9195199 ], [ 113.10102844, -7.91971016 ], [ 113.10086823, -7.9197998 ], [ 113.1004715, -7.91997004 ], [ 113.10002136, -7.92012978 ], [ 113.09986115, -7.92028999 ], [ 113.0996933, -7.92054987 ], [ 113.09967041, -7.92069006 ], [ 113.09963989, -7.92082024 ], [ 113.0994873, -7.92101002 ], [ 113.09938049, -7.9211998 ], [ 113.09938049, -7.92133999 ], [ 113.09945679, -7.92153978 ], [ 113.09947968, -7.92171001 ], [ 113.09941101, -7.92187023 ], [ 113.09909821, -7.92233992 ], [ 113.09895325, -7.9224 ], [ 113.09857178, -7.92244005 ], [ 113.09825897, -7.92242002 ], [ 113.09796906, -7.92243004 ], [ 113.09767914, -7.92249012 ], [ 113.09754181, -7.92258978 ], [ 113.09734344, -7.92271996 ], [ 113.09712219, -7.92277002 ], [ 113.09693909, -7.92284012 ], [ 113.09686279, -7.9229598 ], [ 113.0968399, -7.92311001 ], [ 113.09680939, -7.92331982 ], [ 113.09671783, -7.92343998 ], [ 113.09654999, -7.92355013 ], [ 113.09632111, -7.92363977 ], [ 113.09604645, -7.92374992 ], [ 113.09591675, -7.92369986 ], [ 113.09574127, -7.92364979 ], [ 113.09551239, -7.92364979 ], [ 113.09539032, -7.92369986 ], [ 113.0953598, -7.92363024 ], [ 113.09525299, -7.92348003 ], [ 113.09516144, -7.92333984 ], [ 113.09515381, -7.92312002 ], [ 113.09515381, -7.9229598 ], [ 113.09503174, -7.9226799 ], [ 113.09432983, -7.92209005 ], [ 113.09397888, -7.92164993 ], [ 113.09322357, -7.92122984 ], [ 113.09304047, -7.92109013 ], [ 113.09266663, -7.92124987 ], [ 113.09233856, -7.92141008 ], [ 113.09216309, -7.92145014 ], [ 113.09159088, -7.9215498 ], [ 113.09143066, -7.92168999 ], [ 113.09114838, -7.92188978 ], [ 113.09085846, -7.92199993 ], [ 113.09065247, -7.92213154 ], [ 113.09059143, -7.92217016 ], [ 113.09024811, -7.92244005 ], [ 113.09001923, -7.92254019 ], [ 113.08975983, -7.92269993 ], [ 113.08953857, -7.92282009 ], [ 113.08918762, -7.92300987 ], [ 113.08891296, -7.92315006 ], [ 113.08881378, -7.92320013 ], [ 113.08846283, -7.92319012 ], [ 113.08824921, -7.9230299 ], [ 113.08815765, -7.92292023 ], [ 113.08789063, -7.92257023 ], [ 113.08785248, -7.92244005 ], [ 113.08773804, -7.92217016 ], [ 113.08757019, -7.92193985 ], [ 113.0872879, -7.92171001 ], [ 113.08711243, -7.92152977 ], [ 113.08677673, -7.92120981 ], [ 113.08657837, -7.92104006 ], [ 113.08631897, -7.92081022 ], [ 113.08609772, -7.92061996 ], [ 113.08599091, -7.92053986 ], [ 113.08535767, -7.92005014 ], [ 113.08517456, -7.91991949 ], [ 113.0850296, -7.91981411 ], [ 113.08435822, -7.91934013 ], [ 113.08367157, -7.91890001 ], [ 113.08335876, -7.91870022 ], [ 113.08278656, -7.91831017 ], [ 113.08216095, -7.91797018 ], [ 113.08203125, -7.91790009 ], [ 113.08129883, -7.91757011 ], [ 113.08088684, -7.91739988 ], [ 113.08049774, -7.91723013 ], [ 113.07997894, -7.91697979 ], [ 113.08026123, -7.91685009 ], [ 113.08039093, -7.91677999 ], [ 113.08056641, -7.91644001 ], [ 113.08078003, -7.91606998 ], [ 113.08093262, -7.91571999 ], [ 113.08101654, -7.91548014 ], [ 113.08100128, -7.91526985 ], [ 113.08097076, -7.91509008 ], [ 113.08110809, -7.91478014 ], [ 113.08117676, -7.91445017 ], [ 113.08114624, -7.91423988 ], [ 113.08090973, -7.91390991 ], [ 113.08082581, -7.91377258 ], [ 113.08081818, -7.91368008 ], [ 113.08087921, -7.91352987 ], [ 113.0812912, -7.91331005 ], [ 113.08161163, -7.91303015 ], [ 113.08165741, -7.91297007 ], [ 113.08190155, -7.91274023 ], [ 113.08217621, -7.91261005 ], [ 113.08238983, -7.91252995 ], [ 113.08257294, -7.91234016 ], [ 113.08286285, -7.9120698 ], [ 113.08299255, -7.9119401 ], [ 113.08306885, -7.91175985 ], [ 113.08307648, -7.91160011 ], [ 113.08299255, -7.9113698 ], [ 113.0827179, -7.91079998 ], [ 113.08267212, -7.91063976 ], [ 113.08271027, -7.91041994 ], [ 113.08289337, -7.91009998 ], [ 113.08332062, -7.90954018 ], [ 113.08341217, -7.90936995 ], [ 113.08345795, -7.90914011 ], [ 113.08332062, -7.90874004 ], [ 113.08325958, -7.90858984 ], [ 113.08335114, -7.90825987 ], [ 113.08341217, -7.90814018 ], [ 113.08390045, -7.90776014 ], [ 113.08412933, -7.90755987 ], [ 113.08429718, -7.90701008 ], [ 113.08428192, -7.90672016 ], [ 113.0842514, -7.90648985 ], [ 113.08451843, -7.90611982 ], [ 113.08460999, -7.90600014 ], [ 113.08453369, -7.90587854 ], [ 113.08448029, -7.90578985 ], [ 113.08442688, -7.90569019 ], [ 113.08444977, -7.90556002 ], [ 113.08464813, -7.90535021 ], [ 113.08473206, -7.9052701 ], [ 113.08482361, -7.90491009 ], [ 113.08486938, -7.9047699 ], [ 113.08509064, -7.90456009 ], [ 113.08556366, -7.90425014 ], [ 113.08576965, -7.90408993 ], [ 113.08589172, -7.90386009 ], [ 113.08595276, -7.90360022 ], [ 113.08612823, -7.90327978 ], [ 113.08634949, -7.90291977 ], [ 113.08643341, -7.90268993 ], [ 113.08638, -7.90207005 ], [ 113.08637238, -7.90186977 ], [ 113.08641052, -7.90171003 ], [ 113.08654785, -7.9015398 ], [ 113.08673096, -7.90138006 ], [ 113.08682251, -7.90116978 ], [ 113.08679962, -7.90101004 ], [ 113.0867691, -7.90087986 ], [ 113.08672333, -7.90075016 ], [ 113.08669281, -7.90063 ], [ 113.08666992, -7.90050983 ], [ 113.08667755, -7.90037012 ], [ 113.0867691, -7.90024996 ], [ 113.08689117, -7.9001298 ], [ 113.08705902, -7.89998007 ], [ 113.08719635, -7.89986992 ], [ 113.0875473, -7.89974022 ], [ 113.08786011, -7.89964008 ], [ 113.08824921, -7.89954996 ], [ 113.08843231, -7.89945984 ], [ 113.08859253, -7.89933014 ], [ 113.08867645, -7.89912987 ], [ 113.08870697, -7.89894009 ], [ 113.08860779, -7.89853001 ], [ 113.08856201, -7.89834976 ], [ 113.08867645, -7.89784002 ], [ 113.08879852, -7.89743996 ], [ 113.08885193, -7.89731646 ], [ 113.08892822, -7.89712 ], [ 113.08908081, -7.89688015 ], [ 113.08927155, -7.8966198 ], [ 113.08940887, -7.89639997 ], [ 113.08947754, -7.89618015 ], [ 113.0894928, -7.89590979 ], [ 113.08940887, -7.89546013 ], [ 113.08930969, -7.89495993 ], [ 113.08924866, -7.8945899 ], [ 113.08921051, -7.89426994 ], [ 113.08927155, -7.89408016 ], [ 113.08937836, -7.89397001 ], [ 113.0894928, -7.89386988 ], [ 113.08976746, -7.89378023 ], [ 113.09020233, -7.89365005 ], [ 113.09046936, -7.89350986 ], [ 113.09056091, -7.89316988 ], [ 113.09078979, -7.89273977 ], [ 113.09031677, -7.89236021 ], [ 113.08986664, -7.89223003 ], [ 113.08933258, -7.89211988 ], [ 113.08856964, -7.89204979 ], [ 113.08773041, -7.89203978 ], [ 113.08657837, -7.89206982 ], [ 113.08573914, -7.89192009 ], [ 113.08483887, -7.89184999 ], [ 113.08431244, -7.8918252 ], [ 113.08379364, -7.89179993 ], [ 113.08257294, -7.8920598 ], [ 113.08234406, -7.89196205 ], [ 113.08236694, -7.89156246 ], [ 113.08261871, -7.89108849 ], [ 113.08262634, -7.89039326 ], [ 113.0824585, -7.88990688 ], [ 113.0823288, -7.88926792 ], [ 113.08226776, -7.88871193 ], [ 113.08236694, -7.88855839 ], [ 113.08260345, -7.88845968 ], [ 113.08268738, -7.88809776 ], [ 113.08283234, -7.8874712 ], [ 113.08293152, -7.88713694 ], [ 113.08302307, -7.8867054 ], [ 113.08313751, -7.88613415 ], [ 113.08330536, -7.88572502 ], [ 113.08302307, -7.88592625 ], [ 113.08274078, -7.88609457 ], [ 113.08231354, -7.88608265 ], [ 113.08229828, -7.88619423 ], [ 113.08209229, -7.8863759 ], [ 113.08189392, -7.8864603 ], [ 113.08172607, -7.88664198 ], [ 113.08164215, -7.88665628 ], [ 113.0815506, -7.88703251 ], [ 113.08129883, -7.88718653 ], [ 113.08110809, -7.88711834 ], [ 113.0810318, -7.88709068 ], [ 113.08065796, -7.88695335 ], [ 113.08045959, -7.88721848 ], [ 113.08069611, -7.8874259 ], [ 113.08063507, -7.88769054 ], [ 113.08048248, -7.88803911 ], [ 113.08001709, -7.88822222 ], [ 113.07967377, -7.8882103 ], [ 113.07946014, -7.88839197 ], [ 113.07907104, -7.88874149 ], [ 113.07862854, -7.88907766 ], [ 113.078125, -7.88930273 ], [ 113.07810211, -7.88941717 ], [ 113.07793427, -7.88947058 ], [ 113.07769775, -7.88958311 ], [ 113.07758331, -7.88966703 ], [ 113.07756042, -7.88983393 ], [ 113.0774765, -7.89004326 ], [ 113.07733917, -7.8901968 ], [ 113.07710266, -7.89036465 ], [ 113.07713318, -7.89060116 ], [ 113.07691956, -7.89071369 ], [ 113.07688141, -7.89082479 ], [ 113.07681274, -7.89097834 ], [ 113.07689667, -7.89121437 ], [ 113.0769043, -7.89131451 ], [ 113.07662201, -7.89166069 ], [ 113.07633972, -7.89191246 ], [ 113.07596588, -7.89209509 ], [ 113.07574463, -7.89238834 ], [ 113.07550812, -7.89248705 ], [ 113.07534027, -7.89289093 ], [ 113.07495117, -7.89331007 ], [ 113.07455444, -7.8936739 ], [ 113.07403564, -7.89407969 ], [ 113.07334137, -7.89434767 ], [ 113.07249451, -7.89475536 ], [ 113.0725708, -7.89382267 ], [ 113.07247162, -7.89354515 ], [ 113.07257843, -7.89314127 ], [ 113.07289886, -7.89286137 ], [ 113.07310486, -7.89247084 ], [ 113.07359314, -7.89191246 ], [ 113.07359314, -7.89210701 ], [ 113.07389069, -7.89193869 ], [ 113.07426453, -7.89146376 ], [ 113.07444, -7.8910594 ], [ 113.0743866, -7.89078188 ], [ 113.07446289, -7.89065599 ], [ 113.07421112, -7.8906002 ], [ 113.07350922, -7.89036989 ], [ 113.0732193, -7.89024019 ], [ 113.0727005, -7.89000988 ], [ 113.07247925, -7.88993979 ], [ 113.07216644, -7.88981009 ], [ 113.07107544, -7.88940287 ], [ 113.07093048, -7.88934994 ], [ 113.07068634, -7.88926983 ], [ 113.07012939, -7.88905001 ], [ 113.06994629, -7.88897991 ], [ 113.06938934, -7.88862991 ], [ 113.06910706, -7.8882699 ], [ 113.06903076, -7.88787889 ], [ 113.06909943, -7.88777542 ], [ 113.06919098, -7.88741016 ], [ 113.06945801, -7.88669014 ], [ 113.06996155, -7.88589001 ], [ 113.07055664, -7.8851099 ], [ 113.07073975, -7.88487005 ], [ 113.07077789, -7.88479996 ], [ 113.07099152, -7.88442993 ], [ 113.07118225, -7.88417006 ], [ 113.07131958, -7.88398981 ], [ 113.07147217, -7.88374996 ], [ 113.07164001, -7.88357019 ], [ 113.0725708, -7.8825202 ], [ 113.07303619, -7.88206005 ], [ 113.07359314, -7.88135004 ], [ 113.07414246, -7.88075018 ], [ 113.07472992, -7.88029003 ], [ 113.0749588, -7.88014984 ], [ 113.07540131, -7.87984991 ], [ 113.07617188, -7.8794198 ], [ 113.07627106, -7.8793602 ], [ 113.07707977, -7.87883997 ], [ 113.07782745, -7.87841988 ], [ 113.0786438, -7.87802982 ], [ 113.07881165, -7.87790012 ], [ 113.07919312, -7.87775993 ], [ 113.07936096, -7.87764978 ], [ 113.07945251, -7.87756014 ], [ 113.0795517, -7.87747002 ], [ 113.07971191, -7.87727022 ], [ 113.07997894, -7.87687016 ], [ 113.0802536, -7.87664986 ], [ 113.08062744, -7.87657022 ], [ 113.08087158, -7.87643003 ], [ 113.08106232, -7.87623978 ], [ 113.08125305, -7.8761301 ], [ 113.08155823, -7.87587023 ], [ 113.08187866, -7.87561989 ], [ 113.08231354, -7.87545013 ], [ 113.08245087, -7.87537003 ], [ 113.08254242, -7.87522984 ], [ 113.08267975, -7.87501001 ], [ 113.08289337, -7.87479019 ], [ 113.08319092, -7.87455988 ], [ 113.08338165, -7.87450981 ], [ 113.08367157, -7.87442017 ], [ 113.0839386, -7.87421989 ], [ 113.08428955, -7.87390995 ], [ 113.08450317, -7.87377024 ], [ 113.08464813, -7.8736701 ], [ 113.08489227, -7.8735199 ], [ 113.08592987, -7.87256002 ], [ 113.08625031, -7.87266016 ], [ 113.08666229, -7.87271976 ], [ 113.08742523, -7.87265205 ], [ 113.08756256, -7.87264013 ], [ 113.08779907, -7.87252998 ], [ 113.08796692, -7.87236977 ], [ 113.08805847, -7.87217999 ], [ 113.08809662, -7.87193012 ], [ 113.08804321, -7.87157011 ], [ 113.08789063, -7.87122011 ], [ 113.08770752, -7.87083006 ], [ 113.08763123, -7.8705101 ], [ 113.08764648, -7.87029982 ], [ 113.08779144, -7.87003994 ], [ 113.08791351, -7.86999989 ], [ 113.08820343, -7.86996984 ], [ 113.08866882, -7.86980343 ], [ 113.08888245, -7.86973 ], [ 113.08927917, -7.86969995 ], [ 113.08938599, -7.86970806 ], [ 113.08953857, -7.86971998 ], [ 113.0894165, -7.86956978 ], [ 113.08943939, -7.86931992 ], [ 113.08944702, -7.86898994 ], [ 113.08944702, -7.86857986 ], [ 113.08943176, -7.86831999 ], [ 113.08940887, -7.86813211 ], [ 113.08940125, -7.86802006 ], [ 113.08937073, -7.86785984 ], [ 113.08885956, -7.86772013 ], [ 113.08865356, -7.86766005 ], [ 113.08824158, -7.86772013 ], [ 113.08812714, -7.86773014 ], [ 113.08786774, -7.86753988 ], [ 113.08772278, -7.86743879 ], [ 113.08740997, -7.86737013 ], [ 113.08728027, -7.8673501 ], [ 113.08698273, -7.86709976 ], [ 113.08679199, -7.86695004 ], [ 113.0865097, -7.86680984 ], [ 113.08621216, -7.86676979 ], [ 113.08596802, -7.86680984 ], [ 113.0856781, -7.86689997 ], [ 113.08547974, -7.86690998 ], [ 113.08500671, -7.86675978 ], [ 113.08470154, -7.8666501 ], [ 113.08444214, -7.86664009 ], [ 113.08431244, -7.86652994 ], [ 113.08416748, -7.8663702 ], [ 113.0840683, -7.86625004 ], [ 113.08383942, -7.86591005 ], [ 113.08376312, -7.86568022 ], [ 113.08370972, -7.86518002 ], [ 113.08365631, -7.86467981 ], [ 113.08364105, -7.86449003 ], [ 113.08357239, -7.86398983 ], [ 113.08352661, -7.86358976 ], [ 113.08349609, -7.86328459 ], [ 113.08390045, -7.86319017 ], [ 113.08512115, -7.86308002 ], [ 113.08592987, -7.86318016 ], [ 113.08634186, -7.86316013 ], [ 113.08670807, -7.86308002 ], [ 113.08740997, -7.86282015 ], [ 113.08818817, -7.8625598 ], [ 113.08927155, -7.86226988 ], [ 113.09013367, -7.86210012 ], [ 113.09082794, -7.86199999 ], [ 113.09143066, -7.86182022 ], [ 113.09163666, -7.86179018 ], [ 113.09207153, -7.8618598 ], [ 113.092453, -7.86187983 ], [ 113.09298706, -7.86178017 ], [ 113.09320068, -7.86168003 ], [ 113.09338379, -7.86154985 ], [ 113.09365082, -7.86133003 ], [ 113.09400177, -7.86116982 ], [ 113.09426117, -7.86110306 ], [ 113.09439087, -7.86107016 ], [ 113.09461212, -7.86091995 ], [ 113.09475708, -7.86084986 ], [ 113.0949707, -7.86084986 ], [ 113.0951004, -7.86090994 ], [ 113.09520721, -7.86104012 ], [ 113.09541321, -7.86128998 ], [ 113.0954895, -7.86129999 ], [ 113.09559631, -7.86129379 ], [ 113.09573364, -7.86124992 ], [ 113.09580231, -7.86114979 ], [ 113.09590149, -7.86099005 ], [ 113.09603882, -7.86090994 ], [ 113.09618378, -7.86090994 ], [ 113.09705353, -7.86092997 ], [ 113.09736633, -7.86062002 ], [ 113.097435, -7.86057138 ], [ 113.09796906, -7.8601799 ], [ 113.09810638, -7.86018991 ], [ 113.09824371, -7.86028004 ], [ 113.09838104, -7.86046982 ], [ 113.09851837, -7.86061001 ], [ 113.09868622, -7.86058998 ], [ 113.09882355, -7.86051989 ], [ 113.09889221, -7.8604002 ], [ 113.09899139, -7.86025 ], [ 113.09906769, -7.86023998 ], [ 113.09914398, -7.86026621 ], [ 113.09931946, -7.86041021 ], [ 113.09957123, -7.86063004 ], [ 113.09989929, -7.86051989 ], [ 113.10015106, -7.86048985 ], [ 113.10041046, -7.86044979 ], [ 113.10051727, -7.86035013 ], [ 113.10059357, -7.86021996 ], [ 113.10059357, -7.86004019 ], [ 113.10063171, -7.8599 ], [ 113.10088348, -7.85958004 ], [ 113.10108948, -7.85945988 ], [ 113.10166168, -7.85913992 ], [ 113.10183716, -7.85901022 ], [ 113.10198975, -7.85899019 ], [ 113.10220337, -7.85903978 ], [ 113.10256958, -7.85914993 ], [ 113.10276794, -7.85913992 ], [ 113.1029129, -7.85903978 ], [ 113.10327148, -7.85875988 ], [ 113.10340881, -7.85896015 ], [ 113.1035614, -7.85917997 ], [ 113.10365295, -7.85923004 ], [ 113.10375214, -7.85921001 ], [ 113.10384369, -7.85911989 ], [ 113.10385132, -7.85902023 ], [ 113.10391235, -7.85880995 ], [ 113.10402679, -7.85870981 ], [ 113.10411835, -7.85871983 ], [ 113.10459137, -7.85888004 ], [ 113.10475159, -7.85901022 ], [ 113.10478973, -7.85921001 ], [ 113.10497284, -7.85916996 ], [ 113.10533905, -7.85896015 ], [ 113.10549927, -7.85931015 ], [ 113.10561371, -7.85956001 ], [ 113.10569763, -7.85962009 ], [ 113.10582733, -7.85959005 ], [ 113.10614777, -7.85948658 ], [ 113.10645294, -7.85938978 ], [ 113.10659027, -7.8593998 ], [ 113.1072464, -7.85926008 ], [ 113.10758972, -7.85894012 ], [ 113.1076889, -7.85898018 ], [ 113.10777283, -7.85909986 ], [ 113.10781097, -7.8592701 ], [ 113.10787201, -7.8594799 ], [ 113.10806274, -7.85972023 ], [ 113.10823822, -7.8598299 ], [ 113.10838318, -7.85980988 ], [ 113.10868073, -7.85972977 ], [ 113.10900879, -7.85953999 ], [ 113.10923767, -7.85933018 ], [ 113.10942841, -7.85903978 ], [ 113.10958099, -7.85898018 ], [ 113.11045074, -7.85885 ], [ 113.11147308, -7.85863018 ], [ 113.11170959, -7.85851002 ], [ 113.11206818, -7.85860014 ], [ 113.11260223, -7.85871983 ], [ 113.11276245, -7.85864639 ], [ 113.11283875, -7.85861015 ], [ 113.11296082, -7.8585 ], [ 113.11318207, -7.85824013 ], [ 113.11351013, -7.85801983 ], [ 113.11382294, -7.85796022 ], [ 113.1140976, -7.85800982 ], [ 113.11435699, -7.85819006 ], [ 113.11464691, -7.85838985 ], [ 113.11508179, -7.85846996 ], [ 113.11524963, -7.85845852 ], [ 113.11537933, -7.85844994 ], [ 113.1155777, -7.85846996 ], [ 113.11589813, -7.85853004 ], [ 113.11612701, -7.85846996 ], [ 113.11652374, -7.85830021 ], [ 113.11672211, -7.85821009 ], [ 113.11691284, -7.85812998 ], [ 113.1169281, -7.85801983 ], [ 113.11698914, -7.85782003 ], [ 113.11714172, -7.85762978 ], [ 113.11740112, -7.85741997 ], [ 113.11766815, -7.85726023 ], [ 113.11778259, -7.85722017 ], [ 113.11798859, -7.85715008 ], [ 113.11811829, -7.85716009 ], [ 113.11831665, -7.85712004 ], [ 113.11849213, -7.85699987 ], [ 113.11859894, -7.85684013 ], [ 113.11863708, -7.85667992 ], [ 113.1186676, -7.85643005 ], [ 113.11872101, -7.85612011 ], [ 113.11881256, -7.85600996 ], [ 113.11897278, -7.85589981 ], [ 113.11937714, -7.85567999 ], [ 113.11978912, -7.8555398 ], [ 113.11997223, -7.85555983 ], [ 113.12017822, -7.85558987 ], [ 113.12081146, -7.85569 ], [ 113.12088776, -7.85567999 ], [ 113.12101746, -7.85564756 ], [ 113.12109375, -7.85562992 ], [ 113.12130737, -7.85545015 ], [ 113.12142181, -7.85529995 ], [ 113.12158203, -7.8550601 ], [ 113.1219101, -7.85479021 ], [ 113.12207794, -7.85468006 ], [ 113.12226868, -7.85458994 ], [ 113.12277985, -7.8544302 ], [ 113.12307739, -7.85434008 ], [ 113.123909, -7.85410023 ], [ 113.12404633, -7.85404015 ], [ 113.12412262, -7.85399008 ], [ 113.12419128, -7.85386992 ], [ 113.1242981, -7.85346985 ], [ 113.12454224, -7.85311985 ], [ 113.12467194, -7.85290003 ], [ 113.12473297, -7.8527298 ], [ 113.12476349, -7.85259008 ], [ 113.12478638, -7.85219002 ], [ 113.12483215, -7.85201979 ], [ 113.12493896, -7.85181999 ], [ 113.125, -7.85172987 ], [ 113.12515259, -7.85152006 ], [ 113.12528229, -7.85145998 ], [ 113.12536621, -7.85146999 ], [ 113.12561035, -7.85156012 ], [ 113.12586975, -7.85164022 ], [ 113.12586212, -7.85198021 ], [ 113.12615204, -7.85234022 ], [ 113.126297, -7.85253 ], [ 113.12638092, -7.85298395 ], [ 113.12661743, -7.85331011 ], [ 113.12689209, -7.85372019 ], [ 113.1271286, -7.85418987 ], [ 113.12726593, -7.85438156 ], [ 113.12735748, -7.85451984 ], [ 113.12776184, -7.85502005 ], [ 113.12796021, -7.85534 ], [ 113.12847137, -7.85598993 ], [ 113.12870789, -7.85680008 ], [ 113.12879181, -7.85753012 ], [ 113.12879181, -7.85778952 ], [ 113.12879181, -7.85795021 ], [ 113.12872314, -7.85845995 ], [ 113.12875366, -7.85889006 ], [ 113.12875366, -7.85934019 ], [ 113.12876129, -7.85983467 ], [ 113.12876129, -7.85993004 ], [ 113.12863159, -7.8600502 ], [ 113.12854004, -7.86023998 ], [ 113.12857819, -7.8604598 ], [ 113.12872314, -7.86091995 ], [ 113.12879181, -7.86109495 ], [ 113.12882996, -7.86118984 ], [ 113.12891388, -7.86133099 ], [ 113.12917328, -7.86178255 ], [ 113.12957001, -7.86248016 ], [ 113.12973785, -7.86244011 ], [ 113.13002014, -7.86247015 ], [ 113.13023376, -7.86253023 ], [ 113.1306076, -7.86271 ], [ 113.13072205, -7.86275005 ], [ 113.13088989, -7.86290979 ], [ 113.13101959, -7.86296988 ], [ 113.13111877, -7.86291981 ], [ 113.13128662, -7.8628602 ], [ 113.13141632, -7.86288977 ], [ 113.13175201, -7.86303997 ], [ 113.13191986, -7.86315012 ], [ 113.13195801, -7.86322975 ], [ 113.13200378, -7.86330986 ], [ 113.13208771, -7.86386013 ], [ 113.13210297, -7.8641901 ], [ 113.13214111, -7.86442995 ], [ 113.13217926, -7.86474991 ], [ 113.13214111, -7.86507988 ], [ 113.13200378, -7.86547995 ], [ 113.13182831, -7.8661499 ], [ 113.13175964, -7.8662014 ], [ 113.13186646, -7.86629009 ], [ 113.13201141, -7.86646986 ], [ 113.13208008, -7.86659002 ], [ 113.13213348, -7.86678982 ], [ 113.13220215, -7.86688995 ], [ 113.13265991, -7.86687994 ], [ 113.13316345, -7.86701012 ], [ 113.13340759, -7.86704016 ], [ 113.13375092, -7.86714983 ], [ 113.13407898, -7.86717987 ], [ 113.13421631, -7.86713171 ], [ 113.13436127, -7.86708021 ], [ 113.13459015, -7.86701012 ], [ 113.13516235, -7.86709023 ], [ 113.13549042, -7.86704016 ], [ 113.13574982, -7.8670001 ], [ 113.13594818, -7.86691999 ], [ 113.13610077, -7.86680984 ], [ 113.13623047, -7.86661005 ], [ 113.13625336, -7.86646938 ], [ 113.13627625, -7.86635017 ], [ 113.1362915, -7.86622 ], [ 113.13638306, -7.86612988 ], [ 113.13665009, -7.86613989 ], [ 113.13680267, -7.86612988 ], [ 113.13707733, -7.86590004 ], [ 113.13726807, -7.86569977 ], [ 113.13739777, -7.86542988 ], [ 113.13742828, -7.86522007 ], [ 113.13744354, -7.86508989 ], [ 113.13751221, -7.8650198 ], [ 113.13767242, -7.86499977 ], [ 113.13780975, -7.8650198 ], [ 113.13796234, -7.86488008 ], [ 113.13806152, -7.86478996 ], [ 113.13819885, -7.86474991 ], [ 113.13848877, -7.86495018 ], [ 113.13874817, -7.8650198 ], [ 113.13886261, -7.86505985 ], [ 113.13886261, -7.86534977 ], [ 113.13878632, -7.86554003 ], [ 113.13900757, -7.86583996 ], [ 113.13909912, -7.86596012 ], [ 113.13912964, -7.86611986 ], [ 113.1391983, -7.86619997 ], [ 113.13928986, -7.86624002 ], [ 113.13941956, -7.86618996 ], [ 113.13996887, -7.86618996 ], [ 113.14035797, -7.86615992 ], [ 113.14057159, -7.86613989 ], [ 113.14087677, -7.86625004 ], [ 113.14100647, -7.86634016 ], [ 113.14103699, -7.86640978 ], [ 113.14086151, -7.86661005 ], [ 113.14067078, -7.86679983 ], [ 113.14057922, -7.86699009 ], [ 113.14055634, -7.86716986 ], [ 113.14066315, -7.86745977 ], [ 113.14074707, -7.86758995 ], [ 113.14099884, -7.86775017 ], [ 113.14122009, -7.8678298 ], [ 113.14144135, -7.86781979 ], [ 113.14163971, -7.86779022 ], [ 113.14173889, -7.86780977 ], [ 113.14180756, -7.86793995 ], [ 113.14183807, -7.86809015 ], [ 113.141922, -7.86816978 ], [ 113.14201355, -7.8681798 ], [ 113.14206696, -7.86787987 ], [ 113.14209747, -7.8677702 ], [ 113.1421814, -7.86769009 ], [ 113.14241791, -7.86766005 ], [ 113.14263916, -7.86769009 ], [ 113.14289093, -7.86781979 ], [ 113.14302063, -7.86790991 ], [ 113.14315796, -7.86791992 ], [ 113.14340973, -7.86788988 ], [ 113.14360809, -7.86791992 ], [ 113.14378357, -7.86798 ], [ 113.14430237, -7.8675499 ], [ 113.14453125, -7.86744022 ], [ 113.14437103, -7.86831999 ], [ 113.14421844, -7.86890984 ], [ 113.14413452, -7.86929941 ], [ 113.14394379, -7.87017012 ], [ 113.14363098, -7.87082005 ], [ 113.14350891, -7.87090015 ], [ 113.14306641, -7.87124014 ], [ 113.14276123, -7.87159014 ], [ 113.1425705, -7.87193012 ], [ 113.14218903, -7.87272978 ], [ 113.14207458, -7.87295485 ], [ 113.14196777, -7.87315989 ], [ 113.14163971, -7.87383986 ], [ 113.14143372, -7.87428999 ], [ 113.14137268, -7.87457991 ], [ 113.14134216, -7.87478018 ], [ 113.14131165, -7.875 ], [ 113.14128113, -7.87526989 ], [ 113.14144135, -7.87593985 ], [ 113.1415329, -7.87635994 ], [ 113.14176178, -7.87696981 ], [ 113.14199066, -7.87734985 ], [ 113.1424408, -7.87769985 ], [ 113.14292145, -7.87795019 ], [ 113.14305878, -7.87800074 ], [ 113.14349365, -7.87814999 ], [ 113.14395905, -7.87823009 ], [ 113.14438629, -7.87824011 ], [ 113.14469147, -7.87829018 ], [ 113.14517975, -7.87838984 ], [ 113.14577484, -7.87851667 ], [ 113.14591217, -7.87856007 ], [ 113.14656067, -7.87871456 ], [ 113.14666748, -7.87873983 ], [ 113.14677429, -7.87877846 ], [ 113.14743042, -7.8790102 ], [ 113.14788818, -7.87909985 ], [ 113.14824677, -7.87912989 ], [ 113.14859009, -7.87908983 ], [ 113.14907074, -7.87894011 ], [ 113.14951324, -7.87887001 ], [ 113.15006256, -7.87887001 ], [ 113.15054321, -7.87892008 ], [ 113.15065765, -7.87895012 ], [ 113.15110016, -7.87905979 ], [ 113.1517334, -7.87927008 ], [ 113.15235901, -7.87947989 ], [ 113.15289307, -7.87981987 ], [ 113.1530838, -7.87999344 ], [ 113.15351868, -7.88039017 ], [ 113.1541214, -7.88092995 ], [ 113.15418243, -7.88098001 ], [ 113.15473938, -7.88146019 ], [ 113.15509796, -7.88178015 ], [ 113.15531921, -7.88204002 ], [ 113.15557861, -7.8822999 ], [ 113.15589142, -7.88271999 ], [ 113.15595245, -7.88284159 ], [ 113.15599823, -7.88294983 ], [ 113.15603638, -7.88301325 ], [ 113.15653992, -7.88322115 ], [ 113.15750122, -7.88420391 ], [ 113.15713501, -7.8849926 ], [ 113.1574173, -7.88522577 ], [ 113.15751648, -7.88494062 ], [ 113.15790558, -7.88493872 ], [ 113.15849304, -7.88433266 ], [ 113.15908051, -7.88404512 ], [ 113.15930939, -7.88389349 ], [ 113.15982819, -7.88307047 ], [ 113.1602478, -7.88269997 ], [ 113.16101837, -7.88254499 ], [ 113.16166687, -7.88207293 ], [ 113.16239166, -7.88215303 ], [ 113.16252899, -7.88218355 ], [ 113.16365051, -7.88243103 ], [ 113.1641922, -7.88259554 ], [ 113.16403961, -7.88293123 ], [ 113.16412354, -7.88298893 ], [ 113.16490173, -7.88352966 ], [ 113.16632843, -7.88385725 ], [ 113.16745758, -7.8842864 ], [ 113.16783905, -7.88386583 ], [ 113.16847992, -7.88418055 ], [ 113.1696701, -7.88338995 ], [ 113.16973114, -7.88316011 ], [ 113.16983795, -7.88298988 ], [ 113.16998291, -7.88290977 ], [ 113.17008972, -7.8828702 ], [ 113.17035675, -7.88279009 ], [ 113.17095947, -7.8824501 ], [ 113.1711731, -7.88233995 ], [ 113.17131805, -7.88230991 ], [ 113.17150116, -7.88235998 ], [ 113.17170715, -7.88253021 ], [ 113.17179871, -7.88259983 ], [ 113.17196655, -7.8825798 ], [ 113.17227173, -7.88242006 ], [ 113.17250061, -7.88225985 ], [ 113.1725769, -7.88216019 ], [ 113.1725235, -7.88193989 ], [ 113.17247772, -7.8818202 ], [ 113.17250824, -7.88168001 ], [ 113.17263031, -7.88155985 ], [ 113.17281342, -7.88149977 ], [ 113.17310333, -7.88151979 ], [ 113.17340088, -7.88157988 ], [ 113.17356873, -7.88156986 ], [ 113.17371368, -7.88149023 ], [ 113.17376709, -7.88140011 ], [ 113.17369843, -7.88118982 ], [ 113.17366791, -7.88110018 ], [ 113.17415619, -7.88083982 ], [ 113.17436981, -7.88077021 ], [ 113.17453003, -7.88076019 ], [ 113.17472076, -7.88094282 ], [ 113.17484283, -7.88106012 ], [ 113.17500305, -7.88120985 ], [ 113.17516327, -7.88127995 ], [ 113.17536926, -7.88129997 ], [ 113.17558289, -7.8812499 ], [ 113.17577362, -7.88109016 ], [ 113.17601776, -7.88079023 ], [ 113.17710114, -7.88008022 ], [ 113.17727661, -7.87996006 ], [ 113.17736053, -7.8798399 ], [ 113.18326569, -7.88167191 ], [ 113.18708801, -7.88287592 ], [ 113.18717957, -7.88290453 ], [ 113.18735504, -7.88295984 ], [ 113.18733978, -7.8834691 ], [ 113.18735504, -7.88382435 ], [ 113.18736267, -7.88403845 ], [ 113.18734741, -7.88432789 ], [ 113.18715668, -7.88452864 ], [ 113.18675995, -7.88502979 ], [ 113.18667603, -7.88553953 ], [ 113.1867981, -7.88601828 ], [ 113.18688965, -7.88647699 ], [ 113.18704987, -7.88688564 ], [ 113.1873703, -7.88717365 ], [ 113.18772125, -7.88739157 ], [ 113.18771362, -7.88746977 ], [ 113.18757629, -7.88762188 ], [ 113.18703461, -7.88763475 ], [ 113.18653107, -7.88758755 ], [ 113.1864624, -7.88766766 ], [ 113.18645477, -7.88777733 ], [ 113.18654633, -7.88803673 ], [ 113.1867981, -7.88813019 ], [ 113.18704224, -7.88838005 ], [ 113.18714905, -7.88855982 ], [ 113.18711853, -7.88867998 ], [ 113.18701935, -7.8888402 ], [ 113.18682098, -7.88894367 ], [ 113.18675232, -7.88939333 ], [ 113.18684387, -7.88962698 ], [ 113.18697357, -7.88998127 ], [ 113.18714905, -7.89024019 ], [ 113.18731689, -7.89036989 ], [ 113.18730164, -7.89048004 ], [ 113.1871109, -7.89054012 ], [ 113.18697357, -7.89077044 ], [ 113.18695831, -7.89091206 ], [ 113.18695068, -7.89103985 ], [ 113.18704224, -7.89134979 ], [ 113.1870575, -7.89168072 ], [ 113.18699646, -7.89198017 ], [ 113.18695068, -7.89203739 ], [ 113.18689728, -7.89208984 ], [ 113.18681335, -7.89209986 ], [ 113.1867218, -7.89201021 ], [ 113.18668365, -7.89186001 ], [ 113.18673706, -7.89166021 ], [ 113.18667603, -7.89155054 ], [ 113.18662262, -7.8914113 ], [ 113.18642426, -7.89142227 ], [ 113.18625641, -7.89147282 ], [ 113.18592072, -7.89152479 ], [ 113.18553162, -7.89149666 ], [ 113.18548584, -7.89162683 ], [ 113.18547058, -7.89177656 ], [ 113.18572235, -7.89215469 ], [ 113.18560028, -7.89239502 ], [ 113.1857605, -7.89258385 ], [ 113.1860199, -7.8925128 ], [ 113.18627167, -7.89239979 ], [ 113.18640137, -7.89248991 ], [ 113.18652344, -7.89265013 ], [ 113.18652344, -7.89274979 ], [ 113.18644714, -7.89281988 ], [ 113.18628693, -7.89287996 ], [ 113.18588257, -7.89307022 ], [ 113.18567657, -7.89326 ], [ 113.18540192, -7.89363003 ], [ 113.18522644, -7.89383984 ], [ 113.185112, -7.89386988 ], [ 113.1848526, -7.8938899 ], [ 113.18466187, -7.8940177 ], [ 113.18462372, -7.89432716 ], [ 113.18473053, -7.8948102 ], [ 113.18425751, -7.89508009 ], [ 113.18413544, -7.89519835 ], [ 113.18380737, -7.89550018 ], [ 113.18367767, -7.89588022 ], [ 113.18350983, -7.89624977 ], [ 113.1833725, -7.89636993 ], [ 113.18321228, -7.89651012 ], [ 113.1831665, -7.89665985 ], [ 113.1831665, -7.89680672 ], [ 113.1831665, -7.89718008 ], [ 113.18305969, -7.89744997 ], [ 113.18300629, -7.89758015 ], [ 113.18292236, -7.89761019 ], [ 113.18271637, -7.89766979 ], [ 113.18266296, -7.89780998 ], [ 113.18254089, -7.89811993 ], [ 113.18251801, -7.89823008 ], [ 113.18250275, -7.89835978 ], [ 113.18231964, -7.89855003 ], [ 113.18224335, -7.89863014 ], [ 113.18224335, -7.89877987 ], [ 113.18226624, -7.89897013 ], [ 113.18234253, -7.89925003 ], [ 113.18238831, -7.8994298 ], [ 113.18261719, -7.89985991 ], [ 113.18256378, -7.89998007 ], [ 113.18241119, -7.9001298 ], [ 113.18203735, -7.90048981 ], [ 113.18186951, -7.90080976 ], [ 113.18179321, -7.90103006 ], [ 113.18177032, -7.90132999 ], [ 113.18170929, -7.90158987 ], [ 113.1815567, -7.90193987 ], [ 113.18141174, -7.90214014 ], [ 113.18106842, -7.90243006 ], [ 113.18080139, -7.90266991 ], [ 113.18067169, -7.90288019 ], [ 113.18063354, -7.90305996 ], [ 113.18065643, -7.90391016 ], [ 113.18005371, -7.90473986 ], [ 113.17964172, -7.90532017 ], [ 113.17920685, -7.90596008 ], [ 113.17906189, -7.9061923 ], [ 113.17900848, -7.90627003 ], [ 113.17893219, -7.90653992 ], [ 113.1789093, -7.90674019 ], [ 113.17888641, -7.90697002 ], [ 113.17893219, -7.90725994 ], [ 113.17931366, -7.90794992 ], [ 113.17974091, -7.90858984 ], [ 113.1803894, -7.90920019 ], [ 113.18103027, -7.90962982 ], [ 113.18180847, -7.91014004 ], [ 113.18187714, -7.91018009 ], [ 113.18247986, -7.91056013 ], [ 113.18299103, -7.91093016 ], [ 113.18360138, -7.91151094 ], [ 113.18366241, -7.91157007 ], [ 113.18431854, -7.91209984 ], [ 113.1849823, -7.91273022 ], [ 113.18537903, -7.9131999 ], [ 113.18572998, -7.91368341 ], [ 113.18618011, -7.91429567 ], [ 113.18627167, -7.91442013 ], [ 113.18681335, -7.91512012 ], [ 113.18739319, -7.91577339 ], [ 113.18744659, -7.91584015 ], [ 113.18846893, -7.91665983 ], [ 113.18893433, -7.91711283 ], [ 113.18910217, -7.91727018 ], [ 113.18917084, -7.91733646 ], [ 113.18965149, -7.91779995 ], [ 113.19046021, -7.91862011 ], [ 113.19142914, -7.91942978 ], [ 113.19208527, -7.92001057 ], [ 113.19235992, -7.92024994 ], [ 113.19315338, -7.92087984 ], [ 113.19420624, -7.92174006 ], [ 113.19436646, -7.92182779 ], [ 113.19532013, -7.92236996 ], [ 113.19622803, -7.92282009 ], [ 113.19634247, -7.92286015 ], [ 113.19689178, -7.92306995 ], [ 113.19744873, -7.92327976 ], [ 113.19820404, -7.92353725 ], [ 113.19864655, -7.92368984 ], [ 113.19917297, -7.92387009 ], [ 113.20005798, -7.9243598 ], [ 113.20063782, -7.92484999 ], [ 113.20120239, -7.92549992 ], [ 113.2015686, -7.92602015 ], [ 113.20207214, -7.92675018 ], [ 113.20249176, -7.92750978 ], [ 113.20281219, -7.92820072 ], [ 113.20272064, -7.92826033 ], [ 113.20262146, -7.92838144 ], [ 113.20259857, -7.92850208 ], [ 113.20263672, -7.9286623 ], [ 113.2027359, -7.92901278 ], [ 113.2026825, -7.92915869 ], [ 113.2025528, -7.92928028 ], [ 113.20223236, -7.92944622 ], [ 113.20204926, -7.92947721 ], [ 113.20184326, -7.92942619 ], [ 113.20149994, -7.92926836 ], [ 113.20069885, -7.92895031 ], [ 113.20049286, -7.92896223 ], [ 113.20028687, -7.92904902 ], [ 113.20011139, -7.92919016 ], [ 113.19952393, -7.92985535 ], [ 113.19950104, -7.93003845 ], [ 113.19956207, -7.93029213 ], [ 113.19957733, -7.93047333 ], [ 113.19950104, -7.93075037 ], [ 113.19941711, -7.93088818 ], [ 113.19933319, -7.93088007 ], [ 113.19917297, -7.93078661 ], [ 113.19893646, -7.93066931 ], [ 113.19880676, -7.93067312 ], [ 113.19864655, -7.930758 ], [ 113.19852448, -7.93089151 ], [ 113.19843292, -7.93109179 ], [ 113.19831848, -7.93120766 ], [ 113.19796753, -7.93152666 ], [ 113.19786835, -7.93176889 ], [ 113.19766998, -7.93244267 ], [ 113.19757843, -7.9327898 ], [ 113.19748688, -7.93321753 ], [ 113.19734955, -7.93359518 ], [ 113.197258, -7.93393469 ], [ 113.197258, -7.93419361 ], [ 113.19731903, -7.93435192 ], [ 113.19743347, -7.93466616 ], [ 113.19739532, -7.93487501 ], [ 113.19723511, -7.93526936 ], [ 113.19700623, -7.93568563 ], [ 113.19667053, -7.93610954 ], [ 113.1965332, -7.93617201 ], [ 113.19641113, -7.93614817 ], [ 113.19628143, -7.93615007 ], [ 113.19623566, -7.9362278 ], [ 113.1962204, -7.93633318 ], [ 113.19625854, -7.93657112 ], [ 113.19626617, -7.93673086 ], [ 113.19618988, -7.93688726 ], [ 113.19605255, -7.93702888 ], [ 113.1958313, -7.9371624 ], [ 113.19544983, -7.93738413 ], [ 113.194664, -7.93807745 ], [ 113.19425201, -7.93830442 ], [ 113.19417572, -7.93848705 ], [ 113.19417572, -7.93855906 ], [ 113.19418335, -7.9386363 ], [ 113.19423676, -7.9390955 ], [ 113.19416809, -7.93933916 ], [ 113.19412231, -7.93956041 ], [ 113.1941452, -7.94001913 ], [ 113.19415283, -7.94023466 ], [ 113.1941452, -7.94036484 ], [ 113.19412994, -7.94056559 ], [ 113.19400787, -7.94086504 ], [ 113.19376373, -7.94121647 ], [ 113.193573, -7.94144869 ], [ 113.19339752, -7.94165945 ], [ 113.19316864, -7.94180775 ], [ 113.19273376, -7.94199705 ], [ 113.19257355, -7.94209623 ], [ 113.19208527, -7.94258642 ], [ 113.19152832, -7.94332743 ], [ 113.19146729, -7.94340944 ], [ 113.1913681, -7.94359159 ], [ 113.1913147, -7.94380569 ], [ 113.19134521, -7.94406319 ], [ 113.19134521, -7.94433498 ], [ 113.19126892, -7.94458151 ], [ 113.19112396, -7.94475603 ], [ 113.1908493, -7.94498348 ], [ 113.19069672, -7.94500828 ], [ 113.1905365, -7.94496632 ], [ 113.19012451, -7.94484663 ], [ 113.18989563, -7.94483471 ], [ 113.18961334, -7.94489098 ], [ 113.18939209, -7.94503021 ], [ 113.1892395, -7.94518614 ], [ 113.18914032, -7.94539452 ], [ 113.18913269, -7.94558382 ], [ 113.18913269, -7.94585896 ], [ 113.18906403, -7.94592619 ], [ 113.18897247, -7.9459281 ], [ 113.18880463, -7.9458456 ], [ 113.188591, -7.94563437 ], [ 113.1882782, -7.94526625 ], [ 113.18810272, -7.94512701 ], [ 113.18789673, -7.94504929 ], [ 113.18769073, -7.94503641 ], [ 113.18752289, -7.94509792 ], [ 113.18739319, -7.94523191 ], [ 113.18728638, -7.94544983 ], [ 113.18708801, -7.94598579 ], [ 113.18690491, -7.94618845 ], [ 113.18677521, -7.94626045 ], [ 113.18664551, -7.94625425 ], [ 113.18635559, -7.94615746 ], [ 113.18592072, -7.94600582 ], [ 113.1856842, -7.94599152 ], [ 113.18546295, -7.94603825 ], [ 113.18534851, -7.94612694 ], [ 113.18531036, -7.94621658 ], [ 113.18534851, -7.94633532 ], [ 113.18539429, -7.94639874 ], [ 113.18547821, -7.94650507 ], [ 113.18566132, -7.94676399 ], [ 113.18569183, -7.946908 ], [ 113.18565369, -7.94711304 ], [ 113.18557739, -7.9472661 ], [ 113.18545532, -7.94734097 ], [ 113.18528748, -7.94734097 ], [ 113.18461609, -7.94731665 ], [ 113.18430328, -7.94744015 ], [ 113.18392944, -7.94752264 ], [ 113.18353271, -7.9476347 ], [ 113.18264008, -7.9479928 ], [ 113.18231201, -7.94818974 ], [ 113.18192291, -7.94842339 ], [ 113.18160248, -7.94874382 ], [ 113.1815033, -7.94894505 ], [ 113.18145752, -7.94919395 ], [ 113.18138123, -7.94964027 ], [ 113.18127441, -7.9497633 ], [ 113.18112183, -7.94983387 ], [ 113.18081665, -7.94990253 ], [ 113.18026733, -7.9500246 ], [ 113.18014526, -7.95013285 ], [ 113.18008423, -7.95026255 ], [ 113.18009186, -7.95041323 ], [ 113.18015289, -7.95109701 ], [ 113.18009949, -7.95134068 ], [ 113.1800766, -7.95146227 ], [ 113.17988586, -7.95155716 ], [ 113.17974854, -7.95161057 ], [ 113.1795578, -7.95168686 ], [ 113.17938995, -7.95175362 ], [ 113.17932892, -7.95185804 ], [ 113.17934418, -7.95196009 ], [ 113.17955017, -7.95229387 ], [ 113.17960358, -7.95246506 ], [ 113.17974091, -7.95298052 ], [ 113.17973328, -7.95309734 ], [ 113.17964935, -7.95318365 ], [ 113.17950439, -7.95324135 ], [ 113.17917633, -7.95329618 ], [ 113.17889404, -7.95338345 ], [ 113.17871094, -7.95351076 ], [ 113.17835999, -7.95377684 ], [ 113.17817688, -7.95377588 ], [ 113.17797089, -7.95380306 ], [ 113.17777252, -7.9539094 ], [ 113.1775589, -7.95410633 ], [ 113.17746735, -7.95425844 ], [ 113.17735291, -7.95461464 ], [ 113.17725372, -7.95506907 ], [ 113.17729187, -7.95533133 ], [ 113.17733002, -7.95560312 ], [ 113.1772995, -7.95628643 ], [ 113.17712402, -7.95649052 ], [ 113.17634583, -7.95743847 ], [ 113.17604828, -7.95780611 ], [ 113.17580414, -7.95810747 ], [ 113.17553711, -7.95823288 ], [ 113.17516327, -7.95831347 ], [ 113.17491913, -7.95829916 ], [ 113.17446899, -7.95824051 ], [ 113.17427063, -7.95830727 ], [ 113.17404938, -7.95850897 ], [ 113.17391968, -7.9586997 ], [ 113.17389679, -7.95886803 ], [ 113.17392731, -7.95936346 ], [ 113.17389679, -7.95965004 ], [ 113.17386627, -7.95975447 ], [ 113.17378235, -7.95984364 ], [ 113.17354584, -7.95992947 ], [ 113.17314911, -7.96009302 ], [ 113.17272949, -7.96028042 ], [ 113.1725769, -7.96040392 ], [ 113.17229462, -7.96071672 ], [ 113.17209625, -7.96111345 ], [ 113.17184448, -7.96147537 ], [ 113.17175293, -7.96158791 ], [ 113.17156982, -7.96168661 ], [ 113.17125702, -7.96173763 ], [ 113.17090607, -7.96169901 ], [ 113.17073059, -7.96158648 ], [ 113.17032623, -7.96133184 ], [ 113.17016602, -7.96132469 ], [ 113.17001343, -7.96139145 ], [ 113.16989136, -7.96153736 ], [ 113.16954803, -7.96200752 ], [ 113.16925812, -7.96160984 ], [ 113.16854095, -7.9607501 ], [ 113.16793823, -7.96001053 ], [ 113.16780853, -7.95984983 ], [ 113.16687012, -7.95855999 ], [ 113.16623688, -7.95741987 ], [ 113.16610718, -7.95717001 ], [ 113.16584015, -7.95668983 ], [ 113.1654129, -7.95593977 ], [ 113.16510773, -7.9553771 ], [ 113.16475677, -7.95474005 ], [ 113.16454315, -7.95432091 ], [ 113.16436005, -7.95395803 ], [ 113.16428375, -7.95380259 ], [ 113.16416931, -7.9535799 ], [ 113.16371918, -7.95257998 ], [ 113.16362762, -7.95239019 ], [ 113.16326904, -7.95127869 ], [ 113.16307068, -7.95065022 ], [ 113.16303253, -7.95049 ], [ 113.16280365, -7.94966984 ], [ 113.16268158, -7.94877005 ], [ 113.16256714, -7.94784021 ], [ 113.16249847, -7.94679022 ], [ 113.16240692, -7.9450798 ], [ 113.16239166, -7.94478607 ], [ 113.16236877, -7.94449997 ], [ 113.16233826, -7.94399977 ], [ 113.16217804, -7.94227982 ], [ 113.162117, -7.9417901 ], [ 113.16205597, -7.94131088 ], [ 113.16201782, -7.94104004 ], [ 113.16188049, -7.93948984 ], [ 113.16174316, -7.93807983 ], [ 113.16155243, -7.93683004 ], [ 113.16145325, -7.9365201 ], [ 113.16140747, -7.93639994 ], [ 113.16137695, -7.93626738 ], [ 113.16127777, -7.93584013 ], [ 113.16104126, -7.93555021 ], [ 113.16078949, -7.93530989 ], [ 113.16056824, -7.93516016 ], [ 113.16046143, -7.93511152 ], [ 113.15999603, -7.93496418 ], [ 113.1595459, -7.93484974 ], [ 113.15885925, -7.93480301 ], [ 113.15848541, -7.93462133 ], [ 113.15810394, -7.93447304 ], [ 113.15753174, -7.93464327 ], [ 113.15744781, -7.93496037 ], [ 113.15718842, -7.93534565 ], [ 113.15673065, -7.93526459 ], [ 113.15633392, -7.93513298 ], [ 113.15604401, -7.93508434 ], [ 113.15594482, -7.93513489 ], [ 113.15564728, -7.935637 ], [ 113.15544891, -7.93607187 ], [ 113.15523529, -7.93625689 ], [ 113.15493011, -7.9364419 ], [ 113.15466309, -7.93640995 ], [ 113.15441132, -7.93632746 ], [ 113.15406036, -7.93617916 ], [ 113.15389252, -7.93606329 ], [ 113.15367889, -7.93621445 ], [ 113.15357971, -7.93658209 ], [ 113.15361023, -7.93699932 ], [ 113.15359497, -7.93731642 ], [ 113.15338135, -7.93756771 ], [ 113.15331268, -7.93781805 ], [ 113.15309906, -7.93815279 ], [ 113.15302277, -7.93824005 ], [ 113.15274811, -7.93853521 ], [ 113.15247345, -7.93852997 ], [ 113.15177155, -7.93846989 ], [ 113.15126801, -7.93837023 ], [ 113.15042877, -7.93809986 ], [ 113.14971924, -7.93788004 ], [ 113.14938354, -7.9377799 ], [ 113.14903259, -7.93767977 ], [ 113.1488266, -7.93759012 ], [ 113.14826202, -7.9373498 ], [ 113.14743805, -7.93697023 ], [ 113.14655304, -7.93649006 ], [ 113.14585876, -7.93600988 ], [ 113.14533234, -7.9354701 ], [ 113.14491272, -7.93486023 ], [ 113.1448288, -7.93470001 ], [ 113.14453888, -7.93413019 ], [ 113.1442337, -7.93349981 ], [ 113.14415741, -7.93329 ], [ 113.14404297, -7.93295383 ], [ 113.14398193, -7.93276978 ], [ 113.14382935, -7.93230009 ], [ 113.14376831, -7.93212986 ], [ 113.14369965, -7.93173599 ], [ 113.14366913, -7.93157005 ], [ 113.14364624, -7.93148994 ], [ 113.14356995, -7.93073988 ], [ 113.14353943, -7.93049049 ], [ 113.14352417, -7.93035793 ], [ 113.14221191, -7.92999029 ], [ 113.13954926, -7.92799473 ], [ 113.13899231, -7.92817163 ], [ 113.13873291, -7.92804623 ], [ 113.13855743, -7.92795849 ], [ 113.13835907, -7.92768383 ], [ 113.13786316, -7.9273138 ], [ 113.13760376, -7.92703104 ], [ 113.13733673, -7.92680168 ], [ 113.13708496, -7.92650986 ], [ 113.13702393, -7.92602205 ], [ 113.13758087, -7.92610788 ], [ 113.13766479, -7.92603636 ], [ 113.1378479, -7.92590237 ], [ 113.13799286, -7.92575073 ], [ 113.138237, -7.92558956 ], [ 113.13835907, -7.92542934 ], [ 113.13852692, -7.92525101 ], [ 113.13883972, -7.92491198 ], [ 113.13893127, -7.92468929 ], [ 113.13903809, -7.92439604 ], [ 113.13913727, -7.92423582 ], [ 113.139328, -7.92367983 ], [ 113.13925934, -7.92364979 ], [ 113.13907623, -7.92356014 ], [ 113.1384964, -7.92332983 ], [ 113.13791656, -7.9231801 ], [ 113.13696289, -7.92292023 ], [ 113.13623047, -7.9228301 ], [ 113.1361084, -7.92281485 ], [ 113.13574982, -7.92277002 ], [ 113.1354599, -7.92272997 ], [ 113.13459015, -7.9226799 ], [ 113.13439941, -7.9226656 ], [ 113.13395691, -7.92263174 ], [ 113.13366699, -7.92260981 ], [ 113.13327789, -7.92251015 ], [ 113.13314819, -7.92248011 ], [ 113.13266754, -7.92227983 ], [ 113.13210297, -7.92202997 ], [ 113.13182068, -7.92183018 ], [ 113.13157654, -7.92156982 ], [ 113.13143921, -7.92121983 ], [ 113.1313324, -7.92070007 ], [ 113.13128662, -7.92040014 ], [ 113.13130188, -7.92027998 ], [ 113.13143921, -7.91985989 ], [ 113.13160706, -7.91949987 ], [ 113.13169098, -7.91928005 ], [ 113.13169861, -7.91899014 ], [ 113.13166809, -7.91871977 ], [ 113.13162231, -7.91839981 ], [ 113.1315918, -7.91802979 ], [ 113.13155365, -7.91785002 ], [ 113.13137054, -7.91762018 ], [ 113.13124084, -7.91745996 ], [ 113.13111115, -7.91712999 ], [ 113.13108826, -7.91694021 ], [ 113.13128662, -7.91660023 ], [ 113.1314621, -7.91631985 ], [ 113.13165283, -7.91573 ], [ 113.13168335, -7.91544008 ], [ 113.13173676, -7.91519022 ], [ 113.13185883, -7.91499996 ], [ 113.13204193, -7.91485023 ], [ 113.13226318, -7.91479015 ], [ 113.13243103, -7.91477013 ], [ 113.13252258, -7.91469002 ], [ 113.13260651, -7.91439009 ], [ 113.13269043, -7.91409016 ], [ 113.13278961, -7.91368008 ], [ 113.13282013, -7.91324997 ], [ 113.13271332, -7.91281986 ], [ 113.13256836, -7.91234016 ], [ 113.13247681, -7.91199017 ], [ 113.13249969, -7.91181993 ], [ 113.13262939, -7.91160011 ], [ 113.13234711, -7.91139984 ], [ 113.13221741, -7.91097546 ], [ 113.13217926, -7.91087008 ], [ 113.13201904, -7.91049004 ], [ 113.13195801, -7.91031981 ], [ 113.13188171, -7.91008997 ], [ 113.13179779, -7.90970993 ], [ 113.13175201, -7.90927982 ], [ 113.13173676, -7.90894985 ], [ 113.13179779, -7.90860987 ], [ 113.13188171, -7.90827465 ], [ 113.13191986, -7.90812016 ], [ 113.13211823, -7.9073801 ], [ 113.13237, -7.90655994 ], [ 113.13250732, -7.90601015 ], [ 113.13254547, -7.90545797 ], [ 113.12902069, -7.90372992 ], [ 113.12908173, -7.90350008 ], [ 113.12892914, -7.90323019 ], [ 113.12886047, -7.90312004 ], [ 113.12888336, -7.90300989 ], [ 113.12908173, -7.90285015 ], [ 113.12927246, -7.90274 ], [ 113.12931061, -7.90249014 ], [ 113.1292572, -7.90222979 ], [ 113.12924194, -7.90198994 ], [ 113.1295929, -7.90154982 ], [ 113.12966919, -7.90142012 ], [ 113.12967682, -7.90129995 ], [ 113.12953949, -7.90112019 ], [ 113.12947083, -7.90103006 ], [ 113.12953186, -7.9009099 ], [ 113.12963104, -7.90077019 ], [ 113.12973022, -7.9005599 ], [ 113.12976074, -7.90028954 ], [ 113.12944794, -7.90013981 ], [ 113.12892914, -7.90009022 ], [ 113.12824249, -7.90013981 ], [ 113.12789917, -7.90021992 ], [ 113.12770081, -7.90023994 ], [ 113.12711334, -7.90032005 ], [ 113.1263504, -7.90035009 ], [ 113.12584686, -7.90035009 ], [ 113.12567139, -7.90032005 ], [ 113.125, -7.90021992 ], [ 113.12454987, -7.90006018 ], [ 113.12433624, -7.90003014 ], [ 113.1232605, -7.89995003 ], [ 113.12275696, -7.89995003 ], [ 113.1220932, -7.89996004 ], [ 113.12098694, -7.89996004 ], [ 113.12090302, -7.89997005 ], [ 113.12019348, -7.90006018 ], [ 113.11974335, -7.90022993 ] ] ] ] } }
]
}
