{
"type": "FeatureCollection",
"name": "Kecamatan Pajarakan",
"crs": { "type": "name", "properties": { "name": "urn:ogc:def:crs:OGC:1.3:CRS84" } },
"features": [
{ "type": "Feature", "properties": { "GID_0": "IDN", "NAME_0": "Indonesia", "GID_1": "IDN.11_1", "NAME_1": "Jawa Timur", "NL_NAME_1": null, "GID_2": "IDN.11.30_1", "NAME_2": "Probolinggo", "NL_NAME_2": null, "GID_3": "IDN.11.30.16_1", "NAME_3": "Pajarakan", "VARNAME_3": null, "NL_NAME_3": null, "TYPE_3": "Kecamatan", "ENGTYPE_3": "Sub-district", "CC_3": "3513170", "HASC_3": null }, "geometry": { "type": "MultiPolygon", "coordinates": [ [ [ [ 113.37786102, -7.80365992 ], [ 113.3779068, -7.80388021 ], [ 113.37802124, -7.80405998 ], [ 113.37818909, -7.80426979 ], [ 113.37857056, -7.80471992 ], [ 113.37908173, -7.80529022 ], [ 113.37953186, -7.80585003 ], [ 113.38004303, -7.8064599 ], [ 113.38025665, -7.8066659 ], [ 113.38041687, -7.80681992 ], [ 113.380867, -7.80716991 ], [ 113.38118744, -7.80747986 ], [ 113.38131714, -7.80765009 ], [ 113.38144684, -7.80784988 ], [ 113.38153076, -7.80811024 ], [ 113.38156128, -7.80837011 ], [ 113.38153076, -7.80879021 ], [ 113.3815155, -7.80924225 ], [ 113.38150787, -7.80957985 ], [ 113.38150787, -7.81007004 ], [ 113.3815918, -7.81037998 ], [ 113.38178253, -7.81076002 ], [ 113.38202667, -7.81126022 ], [ 113.38227844, -7.81176996 ], [ 113.38256836, -7.81225014 ], [ 113.38269043, -7.81252766 ], [ 113.38276672, -7.81270981 ], [ 113.38289642, -7.81310987 ], [ 113.38301086, -7.81366014 ], [ 113.38304901, -7.81409979 ], [ 113.38301086, -7.81442022 ], [ 113.38291168, -7.81479979 ], [ 113.38279724, -7.81533003 ], [ 113.38269806, -7.81587982 ], [ 113.38265991, -7.81615973 ], [ 113.38262939, -7.81638002 ], [ 113.38256073, -7.8168602 ], [ 113.38253784, -7.81701756 ], [ 113.38249207, -7.81734991 ], [ 113.38243866, -7.81763983 ], [ 113.38236237, -7.81800985 ], [ 113.38220978, -7.81857014 ], [ 113.3821106, -7.81894016 ], [ 113.38201141, -7.81945992 ], [ 113.38191986, -7.82005978 ], [ 113.38179779, -7.82041979 ], [ 113.38166809, -7.82073021 ], [ 113.38163757, -7.82092237 ], [ 113.38160706, -7.82115984 ], [ 113.38162231, -7.82145023 ], [ 113.38162994, -7.82184982 ], [ 113.38160706, -7.82216978 ], [ 113.38157654, -7.82250023 ], [ 113.38140869, -7.8228302 ], [ 113.38124847, -7.8231101 ], [ 113.38114929, -7.82325983 ], [ 113.38092041, -7.82340002 ], [ 113.38037872, -7.82343006 ], [ 113.37966919, -7.82344007 ], [ 113.37921143, -7.82342005 ], [ 113.37892914, -7.82338667 ], [ 113.37828064, -7.8233099 ], [ 113.37809753, -7.82327223 ], [ 113.37773895, -7.82320023 ], [ 113.37696838, -7.82305002 ], [ 113.37662506, -7.82296562 ], [ 113.37640381, -7.82290983 ], [ 113.37570953, -7.82268 ], [ 113.37521362, -7.82254982 ], [ 113.375, -7.82240009 ], [ 113.37483978, -7.82250023 ], [ 113.37404633, -7.82162952 ], [ 113.37393951, -7.82150984 ], [ 113.37381744, -7.8208499 ], [ 113.37373352, -7.82023001 ], [ 113.37359619, -7.81921005 ], [ 113.37349701, -7.81885004 ], [ 113.37343597, -7.81878948 ], [ 113.37319946, -7.81857014 ], [ 113.37271881, -7.81847 ], [ 113.37203217, -7.81844997 ], [ 113.37159729, -7.81842995 ], [ 113.37126923, -7.81860018 ], [ 113.37103271, -7.81957006 ], [ 113.37100983, -7.82001019 ], [ 113.37097931, -7.82038021 ], [ 113.37084198, -7.82067823 ], [ 113.37078857, -7.8207798 ], [ 113.37068939, -7.82079363 ], [ 113.37049866, -7.82081985 ], [ 113.37021637, -7.82083988 ], [ 113.36995697, -7.82086992 ], [ 113.36972046, -7.82087994 ], [ 113.36897278, -7.82090998 ], [ 113.36799622, -7.82089996 ], [ 113.36753845, -7.82105017 ], [ 113.36750031, -7.82088995 ], [ 113.36755371, -7.82058001 ], [ 113.36760712, -7.82033014 ], [ 113.36759186, -7.82012987 ], [ 113.36753082, -7.82001019 ], [ 113.36734009, -7.81965017 ], [ 113.36727142, -7.81948996 ], [ 113.36726379, -7.81929016 ], [ 113.36730957, -7.81904984 ], [ 113.36743927, -7.81887007 ], [ 113.36753845, -7.81865978 ], [ 113.36781311, -7.81809998 ], [ 113.3678894, -7.81786013 ], [ 113.36789703, -7.81770992 ], [ 113.36753082, -7.81734991 ], [ 113.36743927, -7.81724977 ], [ 113.36740112, -7.81711006 ], [ 113.36753845, -7.81685019 ], [ 113.36759186, -7.81676006 ], [ 113.36766052, -7.81661987 ], [ 113.36763, -7.81642008 ], [ 113.36756134, -7.81618977 ], [ 113.36753845, -7.81601 ], [ 113.3678894, -7.81551981 ], [ 113.36824036, -7.81496 ], [ 113.36846924, -7.8143301 ], [ 113.36852264, -7.81411982 ], [ 113.36849213, -7.81391001 ], [ 113.36842346, -7.81372976 ], [ 113.36824036, -7.81365013 ], [ 113.36810303, -7.81362009 ], [ 113.36801147, -7.81349993 ], [ 113.36797333, -7.81313992 ], [ 113.36799622, -7.81281996 ], [ 113.36801147, -7.81261015 ], [ 113.36821747, -7.81203318 ], [ 113.3682785, -7.81191015 ], [ 113.36846924, -7.81177998 ], [ 113.36868286, -7.81165981 ], [ 113.36891174, -7.81141996 ], [ 113.36898041, -7.8112998 ], [ 113.36891174, -7.81088018 ], [ 113.36885834, -7.81056023 ], [ 113.36889648, -7.8103199 ], [ 113.36898041, -7.81011009 ], [ 113.36904907, -7.80997992 ], [ 113.36904907, -7.8098402 ], [ 113.36897278, -7.80963993 ], [ 113.36895752, -7.8094902 ], [ 113.36914825, -7.80922985 ], [ 113.36952209, -7.80895996 ], [ 113.36962891, -7.80886984 ], [ 113.36966705, -7.80873013 ], [ 113.36962128, -7.80857992 ], [ 113.36930084, -7.8083601 ], [ 113.36920166, -7.80826998 ], [ 113.36916351, -7.80812979 ], [ 113.3693161, -7.8076992 ], [ 113.36936951, -7.80755997 ], [ 113.36945343, -7.8073101 ], [ 113.36968231, -7.80694008 ], [ 113.37007904, -7.80666018 ], [ 113.3702774, -7.80650997 ], [ 113.37037659, -7.80638981 ], [ 113.37039185, -7.80626392 ], [ 113.3704071, -7.80607986 ], [ 113.37045288, -7.80568981 ], [ 113.37052917, -7.80533981 ], [ 113.37077332, -7.80467987 ], [ 113.37110138, -7.80385017 ], [ 113.37107086, -7.80339003 ], [ 113.37107086, -7.80324984 ], [ 113.37117767, -7.80308008 ], [ 113.37126923, -7.80297995 ], [ 113.37127686, -7.80288982 ], [ 113.37120819, -7.80278015 ], [ 113.37106323, -7.80267 ], [ 113.3710022, -7.80255985 ], [ 113.37110901, -7.80222988 ], [ 113.37113953, -7.80208015 ], [ 113.37109375, -7.80193996 ], [ 113.37085724, -7.80160999 ], [ 113.3706131, -7.80140018 ], [ 113.37024689, -7.80102015 ], [ 113.36988831, -7.80069017 ], [ 113.36981201, -7.80044985 ], [ 113.36981201, -7.80026007 ], [ 113.36988831, -7.80003023 ], [ 113.36994171, -7.79976988 ], [ 113.36991119, -7.79944897 ], [ 113.36984253, -7.79921007 ], [ 113.36971283, -7.79910994 ], [ 113.36956787, -7.79906988 ], [ 113.36949921, -7.79913998 ], [ 113.36921692, -7.79942989 ], [ 113.36907959, -7.79939985 ], [ 113.36885071, -7.79936981 ], [ 113.36871338, -7.79938984 ], [ 113.36862183, -7.79930019 ], [ 113.36844635, -7.79909992 ], [ 113.3682785, -7.79904985 ], [ 113.36785889, -7.7990098 ], [ 113.36778259, -7.7990346 ], [ 113.3675766, -7.79909992 ], [ 113.36743164, -7.79916 ], [ 113.36717987, -7.79926014 ], [ 113.36685944, -7.79933977 ], [ 113.36660767, -7.79930019 ], [ 113.36631012, -7.79909992 ], [ 113.36607361, -7.79890013 ], [ 113.3658905, -7.79874992 ], [ 113.36582947, -7.79864407 ], [ 113.3657608, -7.79852009 ], [ 113.36560059, -7.79796982 ], [ 113.3655014, -7.79771996 ], [ 113.36547852, -7.79764652 ], [ 113.36535645, -7.79733992 ], [ 113.36510468, -7.79680967 ], [ 113.36492157, -7.79643011 ], [ 113.36490631, -7.79621983 ], [ 113.36496735, -7.79606009 ], [ 113.36515808, -7.79560995 ], [ 113.36515808, -7.79551077 ], [ 113.36515045, -7.79542017 ], [ 113.36504364, -7.79500008 ], [ 113.36492157, -7.79485989 ], [ 113.3647995, -7.79481983 ], [ 113.3645401, -7.79480982 ], [ 113.36430359, -7.79476976 ], [ 113.364151, -7.79468012 ], [ 113.36412048, -7.79460001 ], [ 113.36412811, -7.79443979 ], [ 113.36425018, -7.79417992 ], [ 113.36434174, -7.79385996 ], [ 113.36431885, -7.79362011 ], [ 113.36422729, -7.7933898 ], [ 113.36399078, -7.7929101 ], [ 113.36386871, -7.79277992 ], [ 113.36373138, -7.79269981 ], [ 113.36354065, -7.79262018 ], [ 113.36341858, -7.79249001 ], [ 113.36327362, -7.79231024 ], [ 113.36315918, -7.79231024 ], [ 113.36286163, -7.79231024 ], [ 113.36273193, -7.79234982 ], [ 113.36248779, -7.79243994 ], [ 113.3624115, -7.79236984 ], [ 113.36237335, -7.79224014 ], [ 113.3622818, -7.79207993 ], [ 113.36212921, -7.79192019 ], [ 113.36199188, -7.79179001 ], [ 113.36200714, -7.79169989 ], [ 113.36210632, -7.79157019 ], [ 113.36212921, -7.79139996 ], [ 113.36196136, -7.79137993 ], [ 113.36174011, -7.79131985 ], [ 113.36154938, -7.79120016 ], [ 113.3615036, -7.79109001 ], [ 113.36142731, -7.79097986 ], [ 113.36132813, -7.79094982 ], [ 113.36121368, -7.79099989 ], [ 113.36099243, -7.79104996 ], [ 113.36077118, -7.79102993 ], [ 113.36073303, -7.79093981 ], [ 113.36074829, -7.79074001 ], [ 113.36071777, -7.79051018 ], [ 113.36062622, -7.79045486 ], [ 113.36045074, -7.79042006 ], [ 113.36026764, -7.79035997 ], [ 113.36019135, -7.79021978 ], [ 113.36009979, -7.79005003 ], [ 113.35990906, -7.78997993 ], [ 113.35980988, -7.78984022 ], [ 113.35959625, -7.78953981 ], [ 113.35941315, -7.78941011 ], [ 113.35895538, -7.78835297 ], [ 113.35890198, -7.78822994 ], [ 113.35881042, -7.78742981 ], [ 113.35884094, -7.78716564 ], [ 113.35887909, -7.78683901 ], [ 113.35888672, -7.7867198 ], [ 113.35882568, -7.78645754 ], [ 113.35877991, -7.78628016 ], [ 113.35865784, -7.78597021 ], [ 113.3584137, -7.78575993 ], [ 113.35827637, -7.78568268 ], [ 113.35768127, -7.78533983 ], [ 113.35741425, -7.7851963 ], [ 113.35691833, -7.78493023 ], [ 113.3560791, -7.78438997 ], [ 113.3552475, -7.78412008 ], [ 113.35427856, -7.78391981 ], [ 113.35327911, -7.78368998 ], [ 113.3526535, -7.78360462 ], [ 113.35218048, -7.78353977 ], [ 113.35179138, -7.78359032 ], [ 113.35125732, -7.78365993 ], [ 113.35108185, -7.78365993 ], [ 113.35037994, -7.78371 ], [ 113.35005951, -7.78361988 ], [ 113.34980774, -7.78333998 ], [ 113.34973145, -7.78317022 ], [ 113.34963226, -7.78294134 ], [ 113.34954834, -7.78274012 ], [ 113.34941101, -7.78260994 ], [ 113.34915161, -7.78247023 ], [ 113.34882355, -7.78237009 ], [ 113.34848785, -7.78221989 ], [ 113.34796906, -7.78182983 ], [ 113.34779358, -7.78169012 ], [ 113.34760284, -7.78135014 ], [ 113.34751129, -7.78092718 ], [ 113.34752655, -7.78052998 ], [ 113.34755707, -7.77987385 ], [ 113.34760284, -7.77903986 ], [ 113.34764862, -7.77680016 ], [ 113.34763336, -7.77501249 ], [ 113.34763336, -7.77488995 ], [ 113.34757233, -7.77473021 ], [ 113.34747314, -7.77470016 ], [ 113.34713745, -7.77471018 ], [ 113.34683228, -7.77467012 ], [ 113.34677124, -7.77455997 ], [ 113.346138, -7.77452993 ], [ 113.34604645, -7.77408981 ], [ 113.34571838, -7.77404022 ], [ 113.34533691, -7.77308989 ], [ 113.34490204, -7.77311993 ], [ 113.34488678, -7.77304125 ], [ 113.34483337, -7.77260017 ], [ 113.34474945, -7.77130985 ], [ 113.34465027, -7.77120018 ], [ 113.34496307, -7.77123022 ], [ 113.34529114, -7.77117014 ], [ 113.34559631, -7.77104998 ], [ 113.34570313, -7.77092981 ], [ 113.3457489, -7.77078009 ], [ 113.34570313, -7.77065992 ], [ 113.34554291, -7.77048016 ], [ 113.34544373, -7.77030993 ], [ 113.34542847, -7.77014017 ], [ 113.34548187, -7.76987982 ], [ 113.34558105, -7.76970005 ], [ 113.34578705, -7.76951981 ], [ 113.34622955, -7.76921988 ], [ 113.34635925, -7.76912022 ], [ 113.34645081, -7.76887989 ], [ 113.34660339, -7.7686801 ], [ 113.3468399, -7.76847982 ], [ 113.34705353, -7.76833439 ], [ 113.34815979, -7.76758003 ], [ 113.3493576, -7.76690006 ], [ 113.3499527, -7.76648998 ], [ 113.35019684, -7.76621008 ], [ 113.35045624, -7.76596022 ], [ 113.35066223, -7.76588011 ], [ 113.35089111, -7.76575994 ], [ 113.35144806, -7.76549006 ], [ 113.35188293, -7.76524019 ], [ 113.35289001, -7.76448011 ], [ 113.3531189, -7.76418018 ], [ 113.35341644, -7.76367998 ], [ 113.35386658, -7.76318979 ], [ 113.35426331, -7.76285982 ], [ 113.35450745, -7.76275015 ], [ 113.35514832, -7.76243019 ], [ 113.35525513, -7.76230907 ], [ 113.35536194, -7.76218987 ], [ 113.3553772, -7.76204205 ], [ 113.35540009, -7.76175022 ], [ 113.35549927, -7.76161003 ], [ 113.35569, -7.76146984 ], [ 113.35610199, -7.76114988 ], [ 113.35662842, -7.76071978 ], [ 113.35742188, -7.76034021 ], [ 113.35820007, -7.75986004 ], [ 113.35930634, -7.75887012 ], [ 113.35977936, -7.75841999 ], [ 113.35999298, -7.75831985 ], [ 113.36019897, -7.75821018 ], [ 113.36025238, -7.75814009 ], [ 113.36058807, -7.7578001 ], [ 113.36080933, -7.7576499 ], [ 113.36105347, -7.75758982 ], [ 113.36237335, -7.75719976 ], [ 113.36287689, -7.75698996 ], [ 113.36360931, -7.75656986 ], [ 113.36392212, -7.75645161 ], [ 113.36408234, -7.75639009 ], [ 113.36461639, -7.7561698 ], [ 113.36599731, -7.75550985 ], [ 113.36621094, -7.75541449 ], [ 113.36704254, -7.75504017 ], [ 113.36776733, -7.75467014 ], [ 113.36882019, -7.75359011 ], [ 113.3690033, -7.75333023 ], [ 113.36929321, -7.75304985 ], [ 113.36952972, -7.75277996 ], [ 113.36975098, -7.7525301 ], [ 113.36998749, -7.75238991 ], [ 113.37023163, -7.75223017 ], [ 113.37062836, -7.75185013 ], [ 113.37162781, -7.75121021 ], [ 113.37206268, -7.7509799 ], [ 113.37212372, -7.75084019 ], [ 113.37226105, -7.75066996 ], [ 113.37271118, -7.75016022 ], [ 113.37271118, -7.75 ], [ 113.37271118, -7.74989986 ], [ 113.37272644, -7.74946022 ], [ 113.3728714, -7.74915981 ], [ 113.37291718, -7.74901009 ], [ 113.37303925, -7.74848986 ], [ 113.37310028, -7.74786997 ], [ 113.37306213, -7.7476902 ], [ 113.37296295, -7.74744987 ], [ 113.3728714, -7.74712992 ], [ 113.37274933, -7.74638987 ], [ 113.37277985, -7.74607992 ], [ 113.37290192, -7.74550009 ], [ 113.37315369, -7.74475002 ], [ 113.37354279, -7.74391985 ], [ 113.37425995, -7.74264002 ], [ 113.37489319, -7.74199009 ], [ 113.375, -7.74186993 ], [ 113.37509155, -7.74176979 ], [ 113.3753891, -7.74152994 ], [ 113.37571716, -7.74108982 ], [ 113.37595367, -7.74074984 ], [ 113.376091, -7.74061012 ], [ 113.37657928, -7.74029016 ], [ 113.37735748, -7.73964977 ], [ 113.37774658, -7.73933983 ], [ 113.37835693, -7.73882008 ], [ 113.37908173, -7.73823977 ], [ 113.37937164, -7.73817015 ], [ 113.37978363, -7.73809004 ], [ 113.37996674, -7.73808002 ], [ 113.38043976, -7.73806 ], [ 113.38078308, -7.73797989 ], [ 113.38111115, -7.73740005 ], [ 113.38127136, -7.73707008 ], [ 113.38141632, -7.73680019 ], [ 113.38178253, -7.7363801 ], [ 113.38197327, -7.73621988 ], [ 113.38210297, -7.73617983 ], [ 113.38220978, -7.73620987 ], [ 113.38240814, -7.7365098 ], [ 113.38256073, -7.73692989 ], [ 113.38260651, -7.73733997 ], [ 113.38262939, -7.73761988 ], [ 113.38266754, -7.73793983 ], [ 113.38265228, -7.73844004 ], [ 113.38272858, -7.7388401 ], [ 113.38284302, -7.73910999 ], [ 113.38353729, -7.73991013 ], [ 113.38413239, -7.74057007 ], [ 113.38484192, -7.7417202 ], [ 113.38527679, -7.74217987 ], [ 113.38575745, -7.74269009 ], [ 113.38638306, -7.74327993 ], [ 113.38668823, -7.74351978 ], [ 113.38704681, -7.74372005 ], [ 113.38762665, -7.74381018 ], [ 113.38794708, -7.74385023 ], [ 113.38838959, -7.74409008 ], [ 113.38858032, -7.74419022 ], [ 113.38868713, -7.74420023 ], [ 113.38954163, -7.74362993 ], [ 113.38977814, -7.74348021 ], [ 113.39073181, -7.74321985 ], [ 113.39102936, -7.74312019 ], [ 113.39169312, -7.74255991 ], [ 113.39193726, -7.74226999 ], [ 113.39208984, -7.74202013 ], [ 113.39222717, -7.74157 ], [ 113.39231873, -7.74011993 ], [ 113.39235687, -7.73973989 ], [ 113.39246368, -7.73939991 ], [ 113.39263916, -7.73901987 ], [ 113.39286041, -7.73869991 ], [ 113.39333344, -7.73974991 ], [ 113.39350891, -7.74014997 ], [ 113.39411926, -7.7416501 ], [ 113.39431763, -7.74231005 ], [ 113.39477539, -7.74403858 ], [ 113.39486694, -7.74439001 ], [ 113.39492798, -7.74454021 ], [ 113.39444733, -7.74458981 ], [ 113.39421082, -7.74467993 ], [ 113.39431763, -7.74496984 ], [ 113.39463806, -7.74569607 ], [ 113.3948822, -7.74625015 ], [ 113.39492035, -7.74644995 ], [ 113.3948288, -7.74652004 ], [ 113.39499664, -7.74678993 ], [ 113.3955307, -7.74673986 ], [ 113.39560699, -7.74695015 ], [ 113.39563751, -7.74738216 ], [ 113.39565277, -7.74752998 ], [ 113.39556122, -7.74772978 ], [ 113.39533997, -7.74853992 ], [ 113.39526367, -7.74902773 ], [ 113.39550018, -7.74976778 ], [ 113.39598846, -7.75143862 ], [ 113.39665222, -7.75209284 ], [ 113.39731598, -7.752388 ], [ 113.39745331, -7.75288868 ], [ 113.39756012, -7.75301981 ], [ 113.39756012, -7.75314999 ], [ 113.39755249, -7.75324106 ], [ 113.39749908, -7.75388622 ], [ 113.39746094, -7.75433016 ], [ 113.39755249, -7.75450993 ], [ 113.39746094, -7.75459003 ], [ 113.39733124, -7.75504017 ], [ 113.39729309, -7.75510979 ], [ 113.3972168, -7.75542021 ], [ 113.3971405, -7.75594997 ], [ 113.39711761, -7.75630999 ], [ 113.39704132, -7.75743008 ], [ 113.39698792, -7.75817013 ], [ 113.39685822, -7.75970984 ], [ 113.39675903, -7.76059008 ], [ 113.3966217, -7.76160002 ], [ 113.39658356, -7.76184988 ], [ 113.39659882, -7.7620101 ], [ 113.39642334, -7.76203012 ], [ 113.39620209, -7.76207018 ], [ 113.39515686, -7.76226997 ], [ 113.39482117, -7.76233006 ], [ 113.39453125, -7.76239014 ], [ 113.39428711, -7.76246023 ], [ 113.39420319, -7.76247978 ], [ 113.39405823, -7.76250982 ], [ 113.39395142, -7.76252985 ], [ 113.39331818, -7.76262999 ], [ 113.39322662, -7.76264 ], [ 113.39203644, -7.76286983 ], [ 113.39190674, -7.76288986 ], [ 113.39157867, -7.76294994 ], [ 113.39112091, -7.76304007 ], [ 113.39042664, -7.76315022 ], [ 113.38964081, -7.76328993 ], [ 113.3895874, -7.76351023 ], [ 113.38951874, -7.76364994 ], [ 113.3894577, -7.76401567 ], [ 113.38941193, -7.76427984 ], [ 113.38935852, -7.7647562 ], [ 113.38922119, -7.76597977 ], [ 113.38921356, -7.76610994 ], [ 113.3891983, -7.76634979 ], [ 113.38922119, -7.76660013 ], [ 113.38923645, -7.76681995 ], [ 113.38889313, -7.76703978 ], [ 113.38860321, -7.76731062 ], [ 113.38851166, -7.76739979 ], [ 113.38807678, -7.76772022 ], [ 113.38784027, -7.76791573 ], [ 113.38772583, -7.76801014 ], [ 113.38757324, -7.76813269 ], [ 113.38739777, -7.76827002 ], [ 113.38707733, -7.76857996 ], [ 113.38697815, -7.76875019 ], [ 113.38697052, -7.76938009 ], [ 113.38704681, -7.77032995 ], [ 113.38715363, -7.77103996 ], [ 113.38717651, -7.77157021 ], [ 113.38717651, -7.77176094 ], [ 113.38716888, -7.7718401 ], [ 113.38709259, -7.77213001 ], [ 113.38704681, -7.77223492 ], [ 113.38694763, -7.77247 ], [ 113.38684845, -7.77271986 ], [ 113.3867569, -7.77291679 ], [ 113.38661194, -7.77321005 ], [ 113.38643646, -7.77343988 ], [ 113.38612366, -7.77370024 ], [ 113.38587952, -7.77390003 ], [ 113.38569641, -7.77423 ], [ 113.38567352, -7.77436352 ], [ 113.38555145, -7.77489996 ], [ 113.38544464, -7.77539062 ], [ 113.38538361, -7.77568007 ], [ 113.38520813, -7.77626991 ], [ 113.38515472, -7.77637482 ], [ 113.38497925, -7.77667999 ], [ 113.38459778, -7.77716017 ], [ 113.38435364, -7.77739 ], [ 113.38394165, -7.7775898 ], [ 113.38365936, -7.77779007 ], [ 113.38352203, -7.77802992 ], [ 113.383461, -7.77839994 ], [ 113.38342285, -7.77875996 ], [ 113.38330078, -7.77905989 ], [ 113.38317108, -7.77940989 ], [ 113.3830719, -7.77962637 ], [ 113.38301086, -7.7797699 ], [ 113.38283539, -7.78009033 ], [ 113.38259888, -7.78050995 ], [ 113.38233185, -7.78101683 ], [ 113.38224792, -7.7811799 ], [ 113.38207245, -7.78146791 ], [ 113.38181305, -7.7818799 ], [ 113.3815918, -7.78224993 ], [ 113.38127136, -7.78254986 ], [ 113.38085175, -7.78285885 ], [ 113.38031006, -7.7832098 ], [ 113.37983704, -7.78353977 ], [ 113.37963104, -7.78385019 ], [ 113.37947845, -7.78432989 ], [ 113.3793869, -7.78460979 ], [ 113.37924194, -7.78482008 ], [ 113.3789978, -7.78505993 ], [ 113.37854004, -7.78528976 ], [ 113.37805939, -7.78549004 ], [ 113.37773895, -7.78569984 ], [ 113.37743378, -7.78597021 ], [ 113.37716675, -7.78644991 ], [ 113.37702942, -7.78690004 ], [ 113.37699127, -7.78727007 ], [ 113.37696075, -7.78767014 ], [ 113.3769455, -7.78787661 ], [ 113.37693787, -7.78795004 ], [ 113.37677002, -7.78836012 ], [ 113.37654877, -7.78881979 ], [ 113.37619781, -7.78945017 ], [ 113.37605286, -7.78968477 ], [ 113.37580872, -7.79007006 ], [ 113.37568665, -7.79030466 ], [ 113.37557983, -7.79051018 ], [ 113.37550354, -7.7907691 ], [ 113.37538147, -7.79119015 ], [ 113.37532043, -7.79161978 ], [ 113.37529755, -7.79197264 ], [ 113.37526703, -7.79251003 ], [ 113.37522125, -7.79276991 ], [ 113.375, -7.79324007 ], [ 113.37497711, -7.79332018 ], [ 113.37493134, -7.79346418 ], [ 113.37490845, -7.79362011 ], [ 113.37489319, -7.79375982 ], [ 113.37493134, -7.79389 ], [ 113.37499237, -7.79399014 ], [ 113.37519836, -7.79430437 ], [ 113.37547302, -7.79476976 ], [ 113.37559509, -7.79499817 ], [ 113.37574005, -7.79525423 ], [ 113.37593079, -7.7954402 ], [ 113.37612915, -7.79567003 ], [ 113.37641144, -7.79590988 ], [ 113.37654114, -7.79623985 ], [ 113.37654114, -7.79636765 ], [ 113.37654877, -7.79651022 ], [ 113.37634277, -7.79678011 ], [ 113.37606812, -7.79707003 ], [ 113.37587738, -7.7973299 ], [ 113.37589264, -7.79759979 ], [ 113.37593079, -7.79782915 ], [ 113.376091, -7.79806995 ], [ 113.37645721, -7.79831982 ], [ 113.37687683, -7.79850006 ], [ 113.37698364, -7.79855061 ], [ 113.37753296, -7.79882002 ], [ 113.3779068, -7.79903984 ], [ 113.37809753, -7.79919004 ], [ 113.37818909, -7.79933977 ], [ 113.37821198, -7.79959011 ], [ 113.37815857, -7.79980993 ], [ 113.37802124, -7.80019999 ], [ 113.37786865, -7.80084991 ], [ 113.37779236, -7.80121946 ], [ 113.37776947, -7.80133009 ], [ 113.37773132, -7.80163002 ], [ 113.37772369, -7.80192995 ], [ 113.37773132, -7.80237007 ], [ 113.37779236, -7.80291271 ], [ 113.37779999, -7.80300999 ], [ 113.37786102, -7.80365992 ] ] ] ] } }
]
}
