{
"type": "FeatureCollection",
"name": "Kecamatan Banyuanyar",
"crs": { "type": "name", "properties": { "name": "urn:ogc:def:crs:OGC:1.3:CRS84" } },
"features": [
{ "type": "Feature", "properties": { "GID_0": "IDN", "NAME_0": "Indonesia", "GID_1": "IDN.11_1", "NAME_1": "Jawa Timur", "NL_NAME_1": null, "GID_2": "IDN.11.30_1", "NAME_2": "Probolinggo", "NL_NAME_2": null, "GID_3": "IDN.11.30.2_1", "NAME_3": "Banyuanyar", "VARNAME_3": null, "NL_NAME_3": null, "TYPE_3": "Kecamatan", "ENGTYPE_3": "Sub-district", "CC_3": "3513070", "HASC_3": null }, "geometry": { "type": "MultiPolygon", "coordinates": [ [ [ [ 113.30492401, -7.92662477 ], [ 113.30439758, -7.92666292 ], [ 113.30319214, -7.92688751 ], [ 113.30191803, -7.92724895 ], [ 113.30161285, -7.92736483 ], [ 113.30085754, -7.92746925 ], [ 113.30033112, -7.92751551 ], [ 113.29962921, -7.92758322 ], [ 113.29872894, -7.92757225 ], [ 113.29806519, -7.92750549 ], [ 113.29685211, -7.92729521 ], [ 113.2963562, -7.92733002 ], [ 113.29502869, -7.92775774 ], [ 113.29538727, -7.92683983 ], [ 113.29517365, -7.92663383 ], [ 113.29516602, -7.92652893 ], [ 113.29502869, -7.92627001 ], [ 113.29496765, -7.92607021 ], [ 113.29495239, -7.92573071 ], [ 113.29495239, -7.92564011 ], [ 113.29463196, -7.9248023 ], [ 113.29438782, -7.92448997 ], [ 113.29405212, -7.92410994 ], [ 113.29370117, -7.92362022 ], [ 113.29341888, -7.92347002 ], [ 113.29245758, -7.92304993 ], [ 113.29222107, -7.92292023 ], [ 113.29205322, -7.92275 ], [ 113.29193115, -7.9225502 ], [ 113.29164124, -7.92202997 ], [ 113.29122162, -7.92183018 ], [ 113.291008, -7.92172003 ], [ 113.29075623, -7.92148018 ], [ 113.29048157, -7.92114019 ], [ 113.29016113, -7.92065001 ], [ 113.28990173, -7.9200902 ], [ 113.28984833, -7.91989899 ], [ 113.28975677, -7.91960001 ], [ 113.28952789, -7.9191699 ], [ 113.28926086, -7.91882992 ], [ 113.28914642, -7.91863012 ], [ 113.28914642, -7.91839981 ], [ 113.28919983, -7.91822004 ], [ 113.28923035, -7.91814995 ], [ 113.28923798, -7.91804981 ], [ 113.28919983, -7.9177599 ], [ 113.28908539, -7.91736364 ], [ 113.28900146, -7.91720009 ], [ 113.28887177, -7.91708994 ], [ 113.28864288, -7.91701984 ], [ 113.28849792, -7.91692019 ], [ 113.28842926, -7.91677999 ], [ 113.28839111, -7.91650009 ], [ 113.28829193, -7.91586018 ], [ 113.28823853, -7.91574097 ], [ 113.28813171, -7.91548014 ], [ 113.28775787, -7.91482019 ], [ 113.28771973, -7.91471004 ], [ 113.28768158, -7.91450977 ], [ 113.28762054, -7.91443014 ], [ 113.28752899, -7.91443014 ], [ 113.28739166, -7.91449022 ], [ 113.2869873, -7.91465998 ], [ 113.28688049, -7.91455984 ], [ 113.28676605, -7.91443777 ], [ 113.28656006, -7.91420984 ], [ 113.28650665, -7.91413021 ], [ 113.28649139, -7.91403008 ], [ 113.28652191, -7.91363001 ], [ 113.28656769, -7.91350985 ], [ 113.28675842, -7.9131999 ], [ 113.28678894, -7.91299009 ], [ 113.28684998, -7.91267014 ], [ 113.28703308, -7.91179991 ], [ 113.28701019, -7.91120005 ], [ 113.28703308, -7.91110754 ], [ 113.28707886, -7.9108901 ], [ 113.28710938, -7.91060019 ], [ 113.28717041, -7.91035748 ], [ 113.2871933, -7.91027021 ], [ 113.28726959, -7.90996742 ], [ 113.28730774, -7.90983009 ], [ 113.28726196, -7.90942001 ], [ 113.28730011, -7.90920019 ], [ 113.28736115, -7.90875006 ], [ 113.28727722, -7.9085598 ], [ 113.28723145, -7.90837002 ], [ 113.2870636, -7.90734005 ], [ 113.28704834, -7.90712023 ], [ 113.28703308, -7.90678978 ], [ 113.28700256, -7.90592003 ], [ 113.28717804, -7.90470982 ], [ 113.28717804, -7.90391016 ], [ 113.287323, -7.90235996 ], [ 113.28751373, -7.90199995 ], [ 113.28765106, -7.90164995 ], [ 113.28775024, -7.90115404 ], [ 113.28780365, -7.90092993 ], [ 113.28778839, -7.90063 ], [ 113.28762817, -7.89989996 ], [ 113.2875824, -7.89968252 ], [ 113.28751373, -7.89937258 ], [ 113.28746033, -7.89912987 ], [ 113.28710175, -7.89805984 ], [ 113.28681946, -7.8973999 ], [ 113.28677368, -7.89707994 ], [ 113.28672791, -7.89676237 ], [ 113.28672028, -7.89668989 ], [ 113.28662872, -7.89648008 ], [ 113.28646088, -7.89618015 ], [ 113.28639984, -7.89604521 ], [ 113.28601837, -7.89520979 ], [ 113.28600311, -7.89507246 ], [ 113.28598022, -7.8948698 ], [ 113.28604889, -7.89436007 ], [ 113.28611755, -7.89392996 ], [ 113.28617096, -7.89344311 ], [ 113.28620148, -7.89315987 ], [ 113.28623199, -7.89284992 ], [ 113.28618622, -7.89257002 ], [ 113.28592682, -7.89167976 ], [ 113.28585052, -7.89127016 ], [ 113.28588867, -7.89110994 ], [ 113.28600311, -7.89097977 ], [ 113.28643036, -7.89061022 ], [ 113.28646851, -7.89045 ], [ 113.28649902, -7.89002562 ], [ 113.28659058, -7.88993979 ], [ 113.28668213, -7.88971996 ], [ 113.28681946, -7.88955021 ], [ 113.28703308, -7.88932991 ], [ 113.28722382, -7.88901997 ], [ 113.28727722, -7.88892984 ], [ 113.28739929, -7.88853121 ], [ 113.28752136, -7.88764 ], [ 113.28752136, -7.88691998 ], [ 113.28755951, -7.88662004 ], [ 113.28778076, -7.8859601 ], [ 113.28775024, -7.88574982 ], [ 113.28771973, -7.88546991 ], [ 113.28762817, -7.88507986 ], [ 113.28743744, -7.88467979 ], [ 113.28733826, -7.88446999 ], [ 113.28727722, -7.88431978 ], [ 113.28720856, -7.88414001 ], [ 113.28716278, -7.88369131 ], [ 113.28696442, -7.88365746 ], [ 113.28677368, -7.88244534 ], [ 113.28692627, -7.88222265 ], [ 113.2869339, -7.88154268 ], [ 113.28673553, -7.88095188 ], [ 113.28688049, -7.88052225 ], [ 113.28741455, -7.88013506 ], [ 113.28766632, -7.87945318 ], [ 113.28778076, -7.87894964 ], [ 113.28794098, -7.87859392 ], [ 113.28826904, -7.87820768 ], [ 113.28826141, -7.87779045 ], [ 113.28874969, -7.87736177 ], [ 113.28895569, -7.87725735 ], [ 113.28901672, -7.87712383 ], [ 113.28908539, -7.87688684 ], [ 113.28907013, -7.87675381 ], [ 113.28902435, -7.87657642 ], [ 113.28898621, -7.87636995 ], [ 113.28905487, -7.87623644 ], [ 113.28913116, -7.87607336 ], [ 113.28911591, -7.87592554 ], [ 113.28910065, -7.8757925 ], [ 113.28918457, -7.87562943 ], [ 113.28933716, -7.87548065 ], [ 113.28964233, -7.8751092 ], [ 113.28961945, -7.87486315 ], [ 113.28952026, -7.87475491 ], [ 113.28945923, -7.87447405 ], [ 113.28945923, -7.87428188 ], [ 113.2895813, -7.87402964 ], [ 113.28985596, -7.87348127 ], [ 113.29012299, -7.87336493 ], [ 113.29013062, -7.87322998 ], [ 113.29019928, -7.87271976 ], [ 113.2901535, -7.87110996 ], [ 113.29003143, -7.87050009 ], [ 113.2899704, -7.87021017 ], [ 113.28994751, -7.86935997 ], [ 113.28991699, -7.86882019 ], [ 113.28987122, -7.86859989 ], [ 113.28978729, -7.86844015 ], [ 113.28964996, -7.86831999 ], [ 113.28952026, -7.86827993 ], [ 113.28939056, -7.86830997 ], [ 113.28929138, -7.86841011 ], [ 113.28923798, -7.8685298 ], [ 113.28913879, -7.86857986 ], [ 113.28904724, -7.86855984 ], [ 113.28878784, -7.86823988 ], [ 113.28865051, -7.86780977 ], [ 113.28858185, -7.86744022 ], [ 113.28858948, -7.86729002 ], [ 113.28864288, -7.86720991 ], [ 113.28883362, -7.86721992 ], [ 113.28894806, -7.86722994 ], [ 113.28901672, -7.86716986 ], [ 113.28878784, -7.86595011 ], [ 113.28846741, -7.86514997 ], [ 113.28818512, -7.86441851 ], [ 113.2881012, -7.8641901 ], [ 113.28807068, -7.86404562 ], [ 113.28798676, -7.86362171 ], [ 113.2879715, -7.86355019 ], [ 113.28791809, -7.86343002 ], [ 113.28787231, -7.86329985 ], [ 113.28778839, -7.86310005 ], [ 113.28755951, -7.86245012 ], [ 113.28749847, -7.86174011 ], [ 113.28746033, -7.86131001 ], [ 113.28739166, -7.86105013 ], [ 113.28721619, -7.86092997 ], [ 113.2869873, -7.8607502 ], [ 113.28675842, -7.86066008 ], [ 113.28662109, -7.8605299 ], [ 113.28650665, -7.8603301 ], [ 113.28637695, -7.85941982 ], [ 113.28639984, -7.85914993 ], [ 113.28656769, -7.85867023 ], [ 113.28663635, -7.85842991 ], [ 113.28663635, -7.85828018 ], [ 113.28649902, -7.85800982 ], [ 113.28633881, -7.85777998 ], [ 113.28624725, -7.85749006 ], [ 113.28629303, -7.85672998 ], [ 113.28635406, -7.85634422 ], [ 113.28661346, -7.85572004 ], [ 113.28671265, -7.85544014 ], [ 113.28672028, -7.8552599 ], [ 113.28649139, -7.85482979 ], [ 113.28645325, -7.85471439 ], [ 113.28624725, -7.8540802 ], [ 113.28608704, -7.85376978 ], [ 113.28595734, -7.85353994 ], [ 113.28594208, -7.85341978 ], [ 113.28601837, -7.85323 ], [ 113.28668213, -7.85271978 ], [ 113.28690338, -7.85256004 ], [ 113.28704071, -7.85239983 ], [ 113.28710938, -7.85224009 ], [ 113.28710938, -7.8520999 ], [ 113.28691864, -7.85188007 ], [ 113.28681946, -7.85176992 ], [ 113.28679657, -7.85166979 ], [ 113.28697968, -7.8513999 ], [ 113.28714752, -7.85115004 ], [ 113.28723907, -7.85091019 ], [ 113.28723907, -7.85072994 ], [ 113.28717804, -7.85055017 ], [ 113.2870636, -7.85039997 ], [ 113.28662872, -7.85016012 ], [ 113.28649902, -7.85007 ], [ 113.28645325, -7.84997988 ], [ 113.28649902, -7.84985018 ], [ 113.28653717, -7.84975004 ], [ 113.28649902, -7.84964991 ], [ 113.2858429, -7.84945011 ], [ 113.28530884, -7.84920979 ], [ 113.28514862, -7.84910011 ], [ 113.2849884, -7.84888983 ], [ 113.284935, -7.84871054 ], [ 113.28479767, -7.84829998 ], [ 113.28469086, -7.84790993 ], [ 113.28457642, -7.84763002 ], [ 113.28411865, -7.84713888 ], [ 113.28405762, -7.84708023 ], [ 113.2838974, -7.84687996 ], [ 113.28370667, -7.84649992 ], [ 113.28356934, -7.84625006 ], [ 113.28338623, -7.84606981 ], [ 113.28294373, -7.84601021 ], [ 113.2828064, -7.84599018 ], [ 113.28270721, -7.84587145 ], [ 113.28269196, -7.84572554 ], [ 113.28266144, -7.84549999 ], [ 113.2826004, -7.84497023 ], [ 113.28253937, -7.84473991 ], [ 113.28246307, -7.84446001 ], [ 113.28238678, -7.84423351 ], [ 113.28179169, -7.84231997 ], [ 113.28144073, -7.84145021 ], [ 113.28127289, -7.84113979 ], [ 113.28113556, -7.84102106 ], [ 113.28102875, -7.84092999 ], [ 113.27931976, -7.8407402 ], [ 113.27913666, -7.84071016 ], [ 113.27879333, -7.84046984 ], [ 113.27857971, -7.84027004 ], [ 113.27851868, -7.84013557 ], [ 113.27841949, -7.83992004 ], [ 113.27825165, -7.83946991 ], [ 113.27822113, -7.8393712 ], [ 113.27809143, -7.83887005 ], [ 113.27806854, -7.83866978 ], [ 113.27803802, -7.83845997 ], [ 113.27812958, -7.83748102 ], [ 113.27819061, -7.83688021 ], [ 113.27819824, -7.83590984 ], [ 113.27823639, -7.8357501 ], [ 113.27825165, -7.83561993 ], [ 113.27818298, -7.83519983 ], [ 113.27813721, -7.83481979 ], [ 113.27809906, -7.83453989 ], [ 113.27832794, -7.83427 ], [ 113.27852631, -7.83427 ], [ 113.2792511, -7.83441019 ], [ 113.28005981, -7.83452988 ], [ 113.28054047, -7.8344698 ], [ 113.28079224, -7.83420992 ], [ 113.28121948, -7.83337021 ], [ 113.28143311, -7.83289003 ], [ 113.28191376, -7.83146 ], [ 113.28198242, -7.83127022 ], [ 113.28222656, -7.8303299 ], [ 113.28220367, -7.82954979 ], [ 113.28205109, -7.82937002 ], [ 113.28198242, -7.82926989 ], [ 113.28199005, -7.82886982 ], [ 113.28205109, -7.82837009 ], [ 113.28209686, -7.82826996 ], [ 113.28218842, -7.82823992 ], [ 113.28231812, -7.82826996 ], [ 113.28237915, -7.82820988 ], [ 113.28237152, -7.82803011 ], [ 113.28222656, -7.82740021 ], [ 113.28222656, -7.82723999 ], [ 113.28227997, -7.82713985 ], [ 113.2824173, -7.82711983 ], [ 113.28253937, -7.82711983 ], [ 113.28291321, -7.82647991 ], [ 113.28314209, -7.82566023 ], [ 113.28320313, -7.82549 ], [ 113.28328705, -7.82547998 ], [ 113.28337097, -7.82546997 ], [ 113.28369141, -7.82543993 ], [ 113.28405762, -7.82543039 ], [ 113.28524017, -7.82539988 ], [ 113.28514099, -7.82503986 ], [ 113.28518677, -7.82454014 ], [ 113.28540039, -7.82410002 ], [ 113.28555298, -7.82391977 ], [ 113.2857132, -7.82382011 ], [ 113.28585815, -7.82383013 ], [ 113.28607941, -7.82390022 ], [ 113.28617859, -7.82399988 ], [ 113.28617096, -7.82409 ], [ 113.28614044, -7.82430983 ], [ 113.28618622, -7.82440996 ], [ 113.28627777, -7.82442999 ], [ 113.28646851, -7.82437992 ], [ 113.2868576, -7.82426977 ], [ 113.28713989, -7.82427979 ], [ 113.28733063, -7.82433987 ], [ 113.28751373, -7.82437992 ], [ 113.2877121, -7.82431984 ], [ 113.28782654, -7.82431984 ], [ 113.28791046, -7.82440996 ], [ 113.2881546, -7.82467413 ], [ 113.2882843, -7.82370043 ], [ 113.28839874, -7.82285309 ], [ 113.28843689, -7.82263756 ], [ 113.28861237, -7.82259369 ], [ 113.28971863, -7.82281733 ], [ 113.29031372, -7.82292891 ], [ 113.29060364, -7.82304192 ], [ 113.29077148, -7.82312727 ], [ 113.29097748, -7.8230257 ], [ 113.29134369, -7.82266474 ], [ 113.29153442, -7.82259226 ], [ 113.29184723, -7.82259035 ], [ 113.29192352, -7.82261896 ], [ 113.29203796, -7.82273293 ], [ 113.29325867, -7.822999 ], [ 113.29338074, -7.82302713 ], [ 113.29354858, -7.82341337 ], [ 113.2936554, -7.82352781 ], [ 113.29389954, -7.82348347 ], [ 113.29450989, -7.82310009 ], [ 113.29460907, -7.82304335 ], [ 113.29493713, -7.82285976 ], [ 113.29570007, -7.82269001 ], [ 113.29580688, -7.82269955 ], [ 113.29613495, -7.82272959 ], [ 113.29624939, -7.82230902 ], [ 113.29656982, -7.82216501 ], [ 113.2978363, -7.82139349 ], [ 113.29849243, -7.82124758 ], [ 113.29866791, -7.82126474 ], [ 113.30102539, -7.82150078 ], [ 113.30102539, -7.82130527 ], [ 113.30125427, -7.82116175 ], [ 113.30145264, -7.82096481 ], [ 113.30153656, -7.820858 ], [ 113.30178833, -7.82069635 ], [ 113.30198669, -7.8205533 ], [ 113.30212402, -7.82029295 ], [ 113.30236053, -7.82036066 ], [ 113.30258179, -7.82043409 ], [ 113.30277252, -7.82047319 ], [ 113.30312347, -7.82062054 ], [ 113.30332184, -7.82068253 ], [ 113.30367279, -7.82072639 ], [ 113.3039093, -7.82077122 ], [ 113.30419159, -7.82094193 ], [ 113.30451965, -7.82107782 ], [ 113.30451202, -7.82121181 ], [ 113.30448914, -7.82158899 ], [ 113.30493164, -7.82158661 ], [ 113.30502319, -7.82139111 ], [ 113.30509949, -7.82118368 ], [ 113.30518341, -7.82103539 ], [ 113.30515289, -7.82143974 ], [ 113.30511475, -7.8217597 ], [ 113.30486298, -7.82198715 ], [ 113.30480194, -7.82216978 ], [ 113.30477905, -7.82224226 ], [ 113.30497742, -7.82308865 ], [ 113.3055191, -7.82317066 ], [ 113.30586243, -7.82353592 ], [ 113.3058548, -7.82373095 ], [ 113.30599213, -7.82376003 ], [ 113.30631256, -7.82379675 ], [ 113.306427, -7.8238101 ], [ 113.30805206, -7.82384014 ], [ 113.30860901, -7.82384014 ], [ 113.30872345, -7.82383108 ], [ 113.30869293, -7.82329464 ], [ 113.30874634, -7.8232379 ], [ 113.30902863, -7.82317972 ], [ 113.30940247, -7.82317781 ], [ 113.30957031, -7.82323313 ], [ 113.30971527, -7.82331705 ], [ 113.30981445, -7.8233366 ], [ 113.30987549, -7.82375765 ], [ 113.31002808, -7.82374001 ], [ 113.310112, -7.82372999 ], [ 113.31134033, -7.82359982 ], [ 113.31243896, -7.82366991 ], [ 113.31388855, -7.82370996 ], [ 113.31456757, -7.82376003 ], [ 113.31475067, -7.82335997 ], [ 113.31517029, -7.82342005 ], [ 113.31549072, -7.82343388 ], [ 113.31587982, -7.82345009 ], [ 113.31587982, -7.8232398 ], [ 113.31590271, -7.82306004 ], [ 113.31594849, -7.82284021 ], [ 113.31601715, -7.82250977 ], [ 113.31619263, -7.82188988 ], [ 113.31626892, -7.82148981 ], [ 113.31624603, -7.8212595 ], [ 113.31634521, -7.82104826 ], [ 113.31669617, -7.82054329 ], [ 113.31708527, -7.81976223 ], [ 113.31723022, -7.81935596 ], [ 113.3174057, -7.81877089 ], [ 113.31748199, -7.81799173 ], [ 113.31747437, -7.8178792 ], [ 113.31744385, -7.81744051 ], [ 113.31748199, -7.81701803 ], [ 113.31764984, -7.81656313 ], [ 113.31773376, -7.81625986 ], [ 113.31793213, -7.81595993 ], [ 113.31826782, -7.81550169 ], [ 113.3183136, -7.81544018 ], [ 113.31846619, -7.81520987 ], [ 113.31859589, -7.81531525 ], [ 113.31919861, -7.8158102 ], [ 113.31939697, -7.81547976 ], [ 113.31956482, -7.81511688 ], [ 113.31962585, -7.81491661 ], [ 113.31971741, -7.81459713 ], [ 113.31974792, -7.81448555 ], [ 113.31977844, -7.81435394 ], [ 113.31984711, -7.81417751 ], [ 113.3199234, -7.81401062 ], [ 113.32003021, -7.81387663 ], [ 113.32009888, -7.81369066 ], [ 113.32016754, -7.81336212 ], [ 113.32028198, -7.81311893 ], [ 113.32048035, -7.8126893 ], [ 113.32058716, -7.81223154 ], [ 113.3205719, -7.81184149 ], [ 113.32060242, -7.81162214 ], [ 113.32057953, -7.81138897 ], [ 113.32072449, -7.81143427 ], [ 113.32084656, -7.8115325 ], [ 113.320961, -7.81153202 ], [ 113.32102966, -7.81176281 ], [ 113.32130432, -7.81187677 ], [ 113.32150269, -7.81191778 ], [ 113.32159424, -7.81193399 ], [ 113.32159424, -7.8120327 ], [ 113.32168579, -7.8121686 ], [ 113.32175446, -7.81228256 ], [ 113.32176208, -7.81252527 ], [ 113.32182312, -7.81268263 ], [ 113.32184601, -7.812819 ], [ 113.32185364, -7.81318665 ], [ 113.32186127, -7.81333351 ], [ 113.32192993, -7.81343842 ], [ 113.32205963, -7.8135004 ], [ 113.32222748, -7.81356287 ], [ 113.32228088, -7.81363583 ], [ 113.32235718, -7.81364584 ], [ 113.32249451, -7.81376076 ], [ 113.32252502, -7.81390762 ], [ 113.32266998, -7.8139596 ], [ 113.32278442, -7.81392717 ], [ 113.32287598, -7.81393433 ], [ 113.32301331, -7.81394196 ], [ 113.32323456, -7.81416655 ], [ 113.32345581, -7.81427002 ], [ 113.32352448, -7.81436825 ], [ 113.32360077, -7.81443262 ], [ 113.32366943, -7.8145566 ], [ 113.32369995, -7.81466246 ], [ 113.32373047, -7.8147316 ], [ 113.32381439, -7.81483269 ], [ 113.32392883, -7.81487799 ], [ 113.32398987, -7.8148365 ], [ 113.32409668, -7.81484509 ], [ 113.32424927, -7.81495047 ], [ 113.32444763, -7.81510592 ], [ 113.32454681, -7.81527615 ], [ 113.32457733, -7.8154006 ], [ 113.32473755, -7.81548262 ], [ 113.32481384, -7.81565762 ], [ 113.3249054, -7.81570339 ], [ 113.32512665, -7.81581306 ], [ 113.32529449, -7.81591797 ], [ 113.32539368, -7.81597757 ], [ 113.32548523, -7.81603718 ], [ 113.32565308, -7.81607771 ], [ 113.32585144, -7.81619501 ], [ 113.32594299, -7.8162775 ], [ 113.32605743, -7.81630993 ], [ 113.32628632, -7.81638002 ], [ 113.32640076, -7.81653023 ], [ 113.32653046, -7.81662989 ], [ 113.32672119, -7.81667852 ], [ 113.32688141, -7.81669998 ], [ 113.32720947, -7.8167367 ], [ 113.3274231, -7.81676006 ], [ 113.32787323, -7.81705999 ], [ 113.32807159, -7.81711006 ], [ 113.32823181, -7.8171401 ], [ 113.32830048, -7.81724024 ], [ 113.32842255, -7.81738997 ], [ 113.32872009, -7.81759357 ], [ 113.32888794, -7.81768847 ], [ 113.32907104, -7.81778002 ], [ 113.32924652, -7.81783009 ], [ 113.32942963, -7.81791019 ], [ 113.3298111, -7.81817007 ], [ 113.33023071, -7.81864977 ], [ 113.33049774, -7.8187499 ], [ 113.33054352, -7.81887007 ], [ 113.330513, -7.81905985 ], [ 113.33049011, -7.81931019 ], [ 113.33055878, -7.8194499 ], [ 113.33078766, -7.8197298 ], [ 113.33098602, -7.82001209 ], [ 113.33113098, -7.82048988 ], [ 113.33126068, -7.82075167 ], [ 113.33058167, -7.82234383 ], [ 113.33049774, -7.82238007 ], [ 113.33039093, -7.82266998 ], [ 113.32984924, -7.82252979 ], [ 113.32975006, -7.82285023 ], [ 113.32936859, -7.82278013 ], [ 113.32933807, -7.82292318 ], [ 113.32927704, -7.82315016 ], [ 113.32907867, -7.82444191 ], [ 113.32884216, -7.82507992 ], [ 113.32852173, -7.82590008 ], [ 113.32758331, -7.82832003 ], [ 113.32727051, -7.82890987 ], [ 113.32711029, -7.82937002 ], [ 113.32492828, -7.82895994 ], [ 113.32536316, -7.82991123 ], [ 113.32588959, -7.8310709 ], [ 113.32610321, -7.83155012 ], [ 113.32637024, -7.83227015 ], [ 113.32649994, -7.83268023 ], [ 113.32657623, -7.83342981 ], [ 113.32631683, -7.83340597 ], [ 113.32636261, -7.83407736 ], [ 113.32637787, -7.8348341 ], [ 113.32641602, -7.83590651 ], [ 113.32643127, -7.83649492 ], [ 113.32675171, -7.83639812 ], [ 113.32683563, -7.83637714 ], [ 113.3269577, -7.83643961 ], [ 113.32733154, -7.83672142 ], [ 113.32847595, -7.83753252 ], [ 113.32859802, -7.83761835 ], [ 113.32949066, -7.83818102 ], [ 113.3297348, -7.83830595 ], [ 113.33032227, -7.83853388 ], [ 113.33231354, -7.83917809 ], [ 113.33380127, -7.8396616 ], [ 113.33485413, -7.84000158 ], [ 113.33535767, -7.84007215 ], [ 113.33621216, -7.84047747 ], [ 113.33666229, -7.8406539 ], [ 113.33694458, -7.84089375 ], [ 113.33752441, -7.84134293 ], [ 113.33805847, -7.84178114 ], [ 113.33827209, -7.84194851 ], [ 113.33847809, -7.84201002 ], [ 113.33869934, -7.84196806 ], [ 113.33885193, -7.84192419 ], [ 113.33905029, -7.8419323 ], [ 113.33930206, -7.84194279 ], [ 113.33946228, -7.84186792 ], [ 113.33999634, -7.84141302 ], [ 113.34062958, -7.84113646 ], [ 113.34107971, -7.84098673 ], [ 113.34127045, -7.84100676 ], [ 113.34141541, -7.84102678 ], [ 113.34152222, -7.84107876 ], [ 113.34165955, -7.84120321 ], [ 113.34171295, -7.84145021 ], [ 113.34181976, -7.84165001 ], [ 113.34183502, -7.84192371 ], [ 113.34184265, -7.84208012 ], [ 113.34188843, -7.84221983 ], [ 113.34197998, -7.84240675 ], [ 113.3421402, -7.84274006 ], [ 113.3421936, -7.84307003 ], [ 113.34230804, -7.84313011 ], [ 113.34243774, -7.84311008 ], [ 113.34262848, -7.84299994 ], [ 113.34279633, -7.84293985 ], [ 113.34288788, -7.84300995 ], [ 113.34300995, -7.84320021 ], [ 113.3430481, -7.84337997 ], [ 113.34300232, -7.84358978 ], [ 113.34287262, -7.84369993 ], [ 113.34274292, -7.84383011 ], [ 113.34274292, -7.84391022 ], [ 113.34282684, -7.84400988 ], [ 113.34291077, -7.84413004 ], [ 113.34288788, -7.84429979 ], [ 113.34282684, -7.8446002 ], [ 113.34288025, -7.84486008 ], [ 113.34274292, -7.84528017 ], [ 113.34277344, -7.84554005 ], [ 113.34207153, -7.84578991 ], [ 113.3409729, -7.84588003 ], [ 113.33979797, -7.84588003 ], [ 113.33917999, -7.84583998 ], [ 113.33889008, -7.84582376 ], [ 113.33847046, -7.84579992 ], [ 113.33734131, -7.84571981 ], [ 113.3360672, -7.84579992 ], [ 113.3351593, -7.84571981 ], [ 113.33448792, -7.84563017 ], [ 113.33418274, -7.84595013 ], [ 113.33384705, -7.84626007 ], [ 113.33338165, -7.84660006 ], [ 113.3330307, -7.84688997 ], [ 113.33226776, -7.84761 ], [ 113.3321991, -7.84768009 ], [ 113.33200073, -7.84791994 ], [ 113.33193207, -7.84809017 ], [ 113.33187866, -7.84849977 ], [ 113.33185577, -7.84895229 ], [ 113.33184052, -7.84925985 ], [ 113.33182526, -7.84954357 ], [ 113.33181, -7.84977007 ], [ 113.33178711, -7.85020018 ], [ 113.33174133, -7.85047007 ], [ 113.33154297, -7.85125017 ], [ 113.33151245, -7.85185003 ], [ 113.33145142, -7.85268021 ], [ 113.33144379, -7.85305023 ], [ 113.33152008, -7.85344982 ], [ 113.3312912, -7.85342598 ], [ 113.33045959, -7.85334015 ], [ 113.32967377, -7.85323 ], [ 113.3296814, -7.8530302 ], [ 113.32919312, -7.85298014 ], [ 113.32904816, -7.85297012 ], [ 113.32926178, -7.85373259 ], [ 113.32929993, -7.85386992 ], [ 113.32965851, -7.8551302 ], [ 113.32969666, -7.85531378 ], [ 113.32981873, -7.85588264 ], [ 113.32994843, -7.85648012 ], [ 113.32997131, -7.85664511 ], [ 113.32997894, -7.85671997 ], [ 113.33000946, -7.85679007 ], [ 113.33003998, -7.85693979 ], [ 113.33007813, -7.85718012 ], [ 113.33011627, -7.85743999 ], [ 113.33029938, -7.85853004 ], [ 113.33045959, -7.85938978 ], [ 113.33061981, -7.86025 ], [ 113.33071899, -7.86069012 ], [ 113.33100128, -7.86188984 ], [ 113.33119202, -7.86267853 ], [ 113.33123016, -7.86285019 ], [ 113.33139038, -7.86327982 ], [ 113.33235168, -7.8632102 ], [ 113.33334351, -7.86299992 ], [ 113.33383942, -7.86290979 ], [ 113.3343811, -7.86281013 ], [ 113.33548737, -7.86271 ], [ 113.33566284, -7.86268997 ], [ 113.33641052, -7.86258984 ], [ 113.33653259, -7.86257648 ], [ 113.33695984, -7.86253023 ], [ 113.33740234, -7.86246014 ], [ 113.33783722, -7.86240005 ], [ 113.33837128, -7.86224985 ], [ 113.33886719, -7.86209011 ], [ 113.33912659, -7.86201 ], [ 113.33963013, -7.86178017 ], [ 113.34005737, -7.86152983 ], [ 113.34031677, -7.86126995 ], [ 113.3405838, -7.86096001 ], [ 113.34065247, -7.86077976 ], [ 113.34069824, -7.86062002 ], [ 113.34076691, -7.85969019 ], [ 113.34091187, -7.85929012 ], [ 113.34111023, -7.85893011 ], [ 113.34143829, -7.85896015 ], [ 113.3420105, -7.85880995 ], [ 113.34233856, -7.85873985 ], [ 113.34266663, -7.85873985 ], [ 113.34288788, -7.85877991 ], [ 113.3431015, -7.85889006 ], [ 113.34319305, -7.85899019 ], [ 113.34322357, -7.8593998 ], [ 113.34322357, -7.85979986 ], [ 113.34324646, -7.8599 ], [ 113.34375, -7.86002016 ], [ 113.34396362, -7.86007023 ], [ 113.34406281, -7.86012983 ], [ 113.34410095, -7.86032009 ], [ 113.34401703, -7.86077976 ], [ 113.34397888, -7.86090994 ], [ 113.34461212, -7.86096001 ], [ 113.34529877, -7.86105013 ], [ 113.34532166, -7.86112022 ], [ 113.34542084, -7.86139011 ], [ 113.34535217, -7.86148977 ], [ 113.34529114, -7.86176014 ], [ 113.34519196, -7.86215019 ], [ 113.34506989, -7.86258984 ], [ 113.34490204, -7.86335993 ], [ 113.34455109, -7.86377573 ], [ 113.3451004, -7.86386585 ], [ 113.3451767, -7.86428547 ], [ 113.34621429, -7.86462355 ], [ 113.34621429, -7.86504316 ], [ 113.34648895, -7.86538553 ], [ 113.3465271, -7.86580515 ], [ 113.34664154, -7.86614847 ], [ 113.34668732, -7.86683559 ], [ 113.34653473, -7.86733532 ], [ 113.34645844, -7.86760044 ], [ 113.3463974, -7.86819983 ], [ 113.34638977, -7.86828804 ], [ 113.34631348, -7.86893749 ], [ 113.34635162, -7.86924314 ], [ 113.34647369, -7.8694334 ], [ 113.34651184, -7.86970043 ], [ 113.34648132, -7.87084627 ], [ 113.34625244, -7.87157297 ], [ 113.34644318, -7.87183905 ], [ 113.34702301, -7.87195015 ], [ 113.3470993, -7.87229347 ], [ 113.34702301, -7.87286663 ], [ 113.34706879, -7.87324858 ], [ 113.34706879, -7.87363005 ], [ 113.34706879, -7.87385941 ], [ 113.34707642, -7.87447023 ], [ 113.34700012, -7.8746233 ], [ 113.34692383, -7.87477684 ], [ 113.34588623, -7.8746295 ], [ 113.34574127, -7.87543249 ], [ 113.3418808, -7.87508631 ], [ 113.34188843, -7.87650442 ], [ 113.34199524, -7.87763071 ], [ 113.34184265, -7.87900448 ], [ 113.34207916, -7.87914085 ], [ 113.3421936, -7.8792944 ], [ 113.34231567, -7.87951374 ], [ 113.34237671, -7.87972689 ], [ 113.34260559, -7.88001728 ], [ 113.34280396, -7.88017178 ], [ 113.34290314, -7.88050127 ], [ 113.34292603, -7.88063955 ], [ 113.34294128, -7.88073444 ], [ 113.34326172, -7.88104343 ], [ 113.34345245, -7.88115883 ], [ 113.34375, -7.88139057 ], [ 113.34390259, -7.88193369 ], [ 113.34392548, -7.88243866 ], [ 113.34397888, -7.88295555 ], [ 113.34399414, -7.88309908 ], [ 113.34404755, -7.88335133 ], [ 113.34428406, -7.88381624 ], [ 113.34430695, -7.88410759 ], [ 113.34423065, -7.88469076 ], [ 113.34472656, -7.88515425 ], [ 113.34495544, -7.88528919 ], [ 113.34503937, -7.88546324 ], [ 113.34505463, -7.88563824 ], [ 113.34503937, -7.88608503 ], [ 113.34500122, -7.88637686 ], [ 113.34675598, -7.88619232 ], [ 113.34811401, -7.8857193 ], [ 113.34825134, -7.88592005 ], [ 113.34877777, -7.88673019 ], [ 113.34908295, -7.88746023 ], [ 113.34909058, -7.88834 ], [ 113.34893036, -7.88905001 ], [ 113.34854126, -7.88972998 ], [ 113.34783173, -7.89042997 ], [ 113.34738922, -7.89063978 ], [ 113.34705353, -7.8908 ], [ 113.34684753, -7.89098978 ], [ 113.34658051, -7.8910203 ], [ 113.34632111, -7.89104986 ], [ 113.34584045, -7.89108992 ], [ 113.34528351, -7.89108992 ], [ 113.3443985, -7.89099979 ], [ 113.34346771, -7.89098978 ], [ 113.34280396, -7.89105606 ], [ 113.34238434, -7.89113522 ], [ 113.34205627, -7.89120007 ], [ 113.34126282, -7.89133978 ], [ 113.34059906, -7.89141989 ], [ 113.33998108, -7.89145994 ], [ 113.33972168, -7.89134979 ], [ 113.33968353, -7.89127016 ], [ 113.33969116, -7.89092016 ], [ 113.33966827, -7.89073992 ], [ 113.3395462, -7.89042997 ], [ 113.33927155, -7.88998985 ], [ 113.33899689, -7.88976002 ], [ 113.33892059, -7.88972998 ], [ 113.33872223, -7.88963985 ], [ 113.33853149, -7.88951015 ], [ 113.33834076, -7.88928986 ], [ 113.33827209, -7.88915825 ], [ 113.33824921, -7.88897467 ], [ 113.33824921, -7.8888998 ], [ 113.33824921, -7.88873005 ], [ 113.33823395, -7.88841009 ], [ 113.33821106, -7.88808012 ], [ 113.33818054, -7.88794994 ], [ 113.33798981, -7.88753986 ], [ 113.33786011, -7.88727999 ], [ 113.33770752, -7.88711023 ], [ 113.33765411, -7.88703632 ], [ 113.33750153, -7.88683987 ], [ 113.33746338, -7.88667011 ], [ 113.33747864, -7.88654995 ], [ 113.33750916, -7.88626003 ], [ 113.33746338, -7.88600016 ], [ 113.33738708, -7.88557005 ], [ 113.33734894, -7.88534021 ], [ 113.33722687, -7.88513994 ], [ 113.33714294, -7.88500977 ], [ 113.33706665, -7.8849802 ], [ 113.3370285, -7.88491011 ], [ 113.33690643, -7.88476992 ], [ 113.33660889, -7.88446999 ], [ 113.33661652, -7.88404989 ], [ 113.33676147, -7.88373995 ], [ 113.33680725, -7.88359022 ], [ 113.33679962, -7.88345003 ], [ 113.33670807, -7.88332987 ], [ 113.3365097, -7.88314247 ], [ 113.33643341, -7.88298988 ], [ 113.33637238, -7.88255978 ], [ 113.33637238, -7.88225985 ], [ 113.33654785, -7.88167 ], [ 113.33659363, -7.88150978 ], [ 113.33651733, -7.8812499 ], [ 113.33638763, -7.88059998 ], [ 113.3363266, -7.88035011 ], [ 113.33624268, -7.88017988 ], [ 113.33609009, -7.8800602 ], [ 113.33579254, -7.87997007 ], [ 113.33551788, -7.87989998 ], [ 113.33531952, -7.87977982 ], [ 113.33503723, -7.87944984 ], [ 113.33498383, -7.87938833 ], [ 113.33470154, -7.87905979 ], [ 113.3345108, -7.87889004 ], [ 113.33426666, -7.8787899 ], [ 113.333992, -7.87876987 ], [ 113.3338089, -7.87920237 ], [ 113.33358002, -7.87949276 ], [ 113.33291626, -7.87995386 ], [ 113.33224487, -7.88036728 ], [ 113.33172607, -7.88059902 ], [ 113.33009338, -7.88071632 ], [ 113.32930756, -7.88074446 ], [ 113.32810211, -7.88082361 ], [ 113.32748413, -7.88082695 ], [ 113.32720947, -7.88082838 ], [ 113.32596588, -7.88083553 ], [ 113.32587433, -7.88082838 ], [ 113.32466125, -7.88073444 ], [ 113.32366943, -7.88056469 ], [ 113.32334137, -7.88060999 ], [ 113.3230896, -7.88053989 ], [ 113.32302094, -7.88044977 ], [ 113.32283783, -7.88036013 ], [ 113.32276154, -7.88022995 ], [ 113.32279205, -7.87991953 ], [ 113.32280731, -7.8797698 ], [ 113.32280731, -7.87948132 ], [ 113.32308197, -7.87899208 ], [ 113.32398224, -7.87771082 ], [ 113.32416534, -7.87680674 ], [ 113.32429504, -7.87645721 ], [ 113.32437897, -7.87589073 ], [ 113.3243103, -7.87582159 ], [ 113.3241272, -7.87550116 ], [ 113.32392883, -7.87516356 ], [ 113.32377625, -7.87490988 ], [ 113.3234024, -7.87450552 ], [ 113.32315063, -7.87431622 ], [ 113.32306671, -7.87425137 ], [ 113.32232666, -7.87402964 ], [ 113.32211304, -7.87393427 ], [ 113.32185364, -7.87376165 ], [ 113.32159424, -7.87347698 ], [ 113.32159424, -7.87315273 ], [ 113.32165527, -7.87291956 ], [ 113.32165527, -7.87249851 ], [ 113.32167053, -7.87230253 ], [ 113.3216629, -7.87203169 ], [ 113.32163239, -7.87172365 ], [ 113.32162476, -7.87156439 ], [ 113.32161713, -7.87149 ], [ 113.32141876, -7.87132549 ], [ 113.32128143, -7.87132645 ], [ 113.32080078, -7.87123871 ], [ 113.32048035, -7.87111998 ], [ 113.32026672, -7.87094069 ], [ 113.32015228, -7.870821 ], [ 113.31996918, -7.87074661 ], [ 113.31978607, -7.87056732 ], [ 113.31988525, -7.86982918 ], [ 113.31991577, -7.8697238 ], [ 113.31997681, -7.86951256 ], [ 113.32009125, -7.86900043 ], [ 113.32009125, -7.86874437 ], [ 113.32009125, -7.86836815 ], [ 113.32012177, -7.86800671 ], [ 113.32008362, -7.86758566 ], [ 113.32000732, -7.86717939 ], [ 113.31997681, -7.86701441 ], [ 113.31990051, -7.86680412 ], [ 113.31990051, -7.86672735 ], [ 113.31980896, -7.86658287 ], [ 113.31981659, -7.86639214 ], [ 113.31981659, -7.86630964 ], [ 113.31983185, -7.86619377 ], [ 113.31987, -7.86606932 ], [ 113.3199234, -7.86598635 ], [ 113.32006836, -7.8659277 ], [ 113.3203125, -7.86592627 ], [ 113.32062531, -7.86592436 ], [ 113.32079315, -7.86594009 ], [ 113.32093048, -7.86597252 ], [ 113.32103729, -7.86601305 ], [ 113.32111359, -7.86605406 ], [ 113.32122803, -7.86616898 ], [ 113.32124329, -7.86595011 ], [ 113.32128906, -7.86579227 ], [ 113.32135773, -7.86555004 ], [ 113.32138824, -7.86517 ], [ 113.3214035, -7.86477995 ], [ 113.32141876, -7.8645401 ], [ 113.32121277, -7.86424017 ], [ 113.32123566, -7.86391401 ], [ 113.3212738, -7.86337996 ], [ 113.32084656, -7.86337996 ], [ 113.32010651, -7.86331987 ], [ 113.31964111, -7.86327982 ], [ 113.31873322, -7.86317015 ], [ 113.31846619, -7.86310005 ], [ 113.31797028, -7.86280012 ], [ 113.31728363, -7.86245012 ], [ 113.31726074, -7.86234999 ], [ 113.31706238, -7.86223984 ], [ 113.31690216, -7.86214018 ], [ 113.31652832, -7.86203003 ], [ 113.31627655, -7.8618598 ], [ 113.31555176, -7.86175013 ], [ 113.31519318, -7.8617301 ], [ 113.31443787, -7.86184978 ], [ 113.31378937, -7.86201 ], [ 113.31336975, -7.86213875 ], [ 113.31532288, -7.86417913 ], [ 113.31642914, -7.86683226 ], [ 113.3170929, -7.86921597 ], [ 113.31743622, -7.87149334 ], [ 113.31747437, -7.87257624 ], [ 113.31749725, -7.87344599 ], [ 113.31750488, -7.87409735 ], [ 113.3174057, -7.87545443 ], [ 113.31729889, -7.87654018 ], [ 113.31716156, -7.87708235 ], [ 113.31697845, -7.87778997 ], [ 113.31648254, -7.87892103 ], [ 113.31638336, -7.87913609 ], [ 113.31628418, -7.87936783 ], [ 113.31590271, -7.87984085 ], [ 113.31541443, -7.88045788 ], [ 113.31380463, -7.88166428 ], [ 113.31373596, -7.88171482 ], [ 113.31157684, -7.88406038 ], [ 113.31082916, -7.88547277 ], [ 113.31118774, -7.88567019 ], [ 113.31156158, -7.88585997 ], [ 113.31186676, -7.88618994 ], [ 113.31201935, -7.88633013 ], [ 113.31208801, -7.8863802 ], [ 113.31242371, -7.88641024 ], [ 113.31272125, -7.88646984 ], [ 113.31286621, -7.88657999 ], [ 113.31311035, -7.88686991 ], [ 113.31324005, -7.88721991 ], [ 113.3132782, -7.88734007 ], [ 113.3134079, -7.8874402 ], [ 113.31356812, -7.8874898 ], [ 113.31388855, -7.88741016 ], [ 113.31400299, -7.88739014 ], [ 113.31450653, -7.88764 ], [ 113.31459045, -7.88767004 ], [ 113.31510162, -7.88785982 ], [ 113.31539154, -7.88795996 ], [ 113.31546783, -7.88799 ], [ 113.31552887, -7.88804007 ], [ 113.31561279, -7.88816977 ], [ 113.31559753, -7.88829994 ], [ 113.3155899, -7.88855982 ], [ 113.31562805, -7.88913012 ], [ 113.31565094, -7.88944006 ], [ 113.31533051, -7.88973999 ], [ 113.31497955, -7.88993979 ], [ 113.31450653, -7.89020014 ], [ 113.31417084, -7.89041948 ], [ 113.31401825, -7.8905201 ], [ 113.31345367, -7.89068985 ], [ 113.31240845, -7.89073992 ], [ 113.31160736, -7.89048004 ], [ 113.31128693, -7.89023018 ], [ 113.3110733, -7.89006996 ], [ 113.31021881, -7.88986015 ], [ 113.30937195, -7.88985014 ], [ 113.30818176, -7.88986015 ], [ 113.30732727, -7.88993979 ], [ 113.30683899, -7.88998985 ], [ 113.30634308, -7.89006996 ], [ 113.30583191, -7.89019012 ], [ 113.30548859, -7.89027023 ], [ 113.30519867, -7.89034081 ], [ 113.30496216, -7.89039993 ], [ 113.30448914, -7.89054012 ], [ 113.30393982, -7.89070988 ], [ 113.30343628, -7.89089012 ], [ 113.30304718, -7.89105988 ], [ 113.30252075, -7.89132023 ], [ 113.30196381, -7.89164019 ], [ 113.30152893, -7.89189005 ], [ 113.30117798, -7.89211988 ], [ 113.3009491, -7.89229012 ], [ 113.30065155, -7.89262009 ], [ 113.30052948, -7.89307022 ], [ 113.30049133, -7.89331007 ], [ 113.30049133, -7.89346981 ], [ 113.30053711, -7.89362001 ], [ 113.3008194, -7.89386988 ], [ 113.30092621, -7.89400005 ], [ 113.30098724, -7.89414978 ], [ 113.30103302, -7.89471006 ], [ 113.30098724, -7.89505005 ], [ 113.30091858, -7.89529991 ], [ 113.3010025, -7.89574003 ], [ 113.30106354, -7.8961401 ], [ 113.30106354, -7.89625978 ], [ 113.30113983, -7.89659977 ], [ 113.3010788, -7.89673996 ], [ 113.30092621, -7.89699984 ], [ 113.30075836, -7.89728022 ], [ 113.3006897, -7.89748001 ], [ 113.30063629, -7.89820004 ], [ 113.30065918, -7.89854002 ], [ 113.30095673, -7.89968014 ], [ 113.30101013, -7.90010977 ], [ 113.30101776, -7.90036011 ], [ 113.30106354, -7.90057993 ], [ 113.30104828, -7.90069199 ], [ 113.30105591, -7.90094852 ], [ 113.30104065, -7.90133667 ], [ 113.30097961, -7.90172529 ], [ 113.30092621, -7.9019618 ], [ 113.30072784, -7.90246916 ], [ 113.30069733, -7.90287447 ], [ 113.30066681, -7.90311241 ], [ 113.30064392, -7.90327978 ], [ 113.30059814, -7.90388727 ], [ 113.30060577, -7.90435982 ], [ 113.30063629, -7.9048152 ], [ 113.30064392, -7.90527105 ], [ 113.30064392, -7.90565872 ], [ 113.30064392, -7.90592909 ], [ 113.30068207, -7.90650225 ], [ 113.30063629, -7.90690756 ], [ 113.30063629, -7.9073801 ], [ 113.30062866, -7.90762663 ], [ 113.30062103, -7.9078021 ], [ 113.3006897, -7.90832472 ], [ 113.30072784, -7.9088645 ], [ 113.30065155, -7.90957403 ], [ 113.30049896, -7.91026211 ], [ 113.30057526, -7.91072273 ], [ 113.30059052, -7.91079998 ], [ 113.30062866, -7.9114399 ], [ 113.30049896, -7.91266012 ], [ 113.30045319, -7.91289997 ], [ 113.30043793, -7.91298008 ], [ 113.30042267, -7.91312981 ], [ 113.30030823, -7.91357994 ], [ 113.3000412, -7.91466999 ], [ 113.29997253, -7.91492987 ], [ 113.29994965, -7.91507006 ], [ 113.29994202, -7.91575003 ], [ 113.29994965, -7.91599989 ], [ 113.30001831, -7.91615009 ], [ 113.30019379, -7.91634989 ], [ 113.30042267, -7.91646004 ], [ 113.30075073, -7.91651011 ], [ 113.30107117, -7.91662979 ], [ 113.30162048, -7.91711998 ], [ 113.30171204, -7.91729021 ], [ 113.30174255, -7.91735983 ], [ 113.30178833, -7.91770983 ], [ 113.30182648, -7.91804981 ], [ 113.30191803, -7.91843557 ], [ 113.30197144, -7.9186902 ], [ 113.30207825, -7.91907978 ], [ 113.30220032, -7.91929007 ], [ 113.30267334, -7.91989994 ], [ 113.30293274, -7.92020988 ], [ 113.30290222, -7.92045021 ], [ 113.30303955, -7.92078018 ], [ 113.30332184, -7.92113018 ], [ 113.30342102, -7.92122555 ], [ 113.30354309, -7.92130995 ], [ 113.30364227, -7.92134142 ], [ 113.30400848, -7.92141008 ], [ 113.30465698, -7.92174006 ], [ 113.30549622, -7.92231989 ], [ 113.30596161, -7.9227581 ], [ 113.30612183, -7.92291021 ], [ 113.30635834, -7.92325926 ], [ 113.30658722, -7.92359018 ], [ 113.30680084, -7.92412996 ], [ 113.30684662, -7.92463017 ], [ 113.30683136, -7.92511988 ], [ 113.3066864, -7.92580986 ], [ 113.30645752, -7.92657995 ], [ 113.30558014, -7.92657661 ], [ 113.30492401, -7.92662477 ] ] ] ] } }
]
}
