{
"type": "FeatureCollection",
"name": "Kecamatan Kotaanyar",
"crs": { "type": "name", "properties": { "name": "urn:ogc:def:crs:OGC:1.3:CRS84" } },
"features": [
{ "type": "Feature", "properties": { "GID_0": "IDN", "NAME_0": "Indonesia", "GID_1": "IDN.11_1", "NAME_1": "Jawa Timur", "NL_NAME_1": null, "GID_2": "IDN.11.30_1", "NAME_2": "Probolinggo", "NL_NAME_2": null, "GID_3": "IDN.11.30.7_1", "NAME_3": "Kotaanyar", "VARNAME_3": null, "NL_NAME_3": null, "TYPE_3": "Kecamatan", "ENGTYPE_3": "Sub-district", "CC_3": "3513120", "HASC_3": null }, "geometry": { "type": "MultiPolygon", "coordinates": [ [ [ [ 113.55890656, -7.7851181 ], [ 113.55873108, -7.78518009 ], [ 113.55861664, -7.78518009 ], [ 113.55832672, -7.78522587 ], [ 113.5558548, -7.78561354 ], [ 113.55478668, -7.78577995 ], [ 113.55287933, -7.78578997 ], [ 113.55254364, -7.78578997 ], [ 113.55172729, -7.78578997 ], [ 113.55005646, -7.78540993 ], [ 113.54957581, -7.78529978 ], [ 113.54875183, -7.78511 ], [ 113.54837799, -7.78502226 ], [ 113.54715729, -7.78473377 ], [ 113.54663086, -7.78460979 ], [ 113.54425049, -7.78403091 ], [ 113.54393768, -7.78393793 ], [ 113.54370117, -7.78369236 ], [ 113.54351044, -7.78349829 ], [ 113.54328918, -7.78326988 ], [ 113.54249573, -7.78314924 ], [ 113.54242706, -7.78268147 ], [ 113.54232788, -7.78228092 ], [ 113.54194641, -7.78208303 ], [ 113.54125214, -7.78195667 ], [ 113.54094696, -7.78167772 ], [ 113.54086304, -7.78148794 ], [ 113.54074097, -7.7813282 ], [ 113.54063416, -7.78128862 ], [ 113.54039001, -7.78130007 ], [ 113.54019928, -7.78126144 ], [ 113.53997803, -7.78120232 ], [ 113.5396347, -7.78118467 ], [ 113.5391922, -7.78104687 ], [ 113.53900909, -7.78089762 ], [ 113.53881073, -7.78078842 ], [ 113.53868866, -7.7808094 ], [ 113.53845215, -7.78083086 ], [ 113.53826904, -7.78087187 ], [ 113.53804779, -7.7808733 ], [ 113.53796387, -7.78080368 ], [ 113.53781128, -7.78076458 ], [ 113.53760529, -7.78080559 ], [ 113.5374527, -7.7808466 ], [ 113.53738403, -7.78113794 ], [ 113.537323, -7.7814188 ], [ 113.53733063, -7.78170967 ], [ 113.53730774, -7.78199053 ], [ 113.53713989, -7.78199148 ], [ 113.53701782, -7.78201199 ], [ 113.53688812, -7.78209305 ], [ 113.53657532, -7.78209496 ], [ 113.53635406, -7.78204632 ], [ 113.53627014, -7.78203011 ], [ 113.53622437, -7.78189993 ], [ 113.53610992, -7.78157997 ], [ 113.53611755, -7.78066015 ], [ 113.53613281, -7.7801919 ], [ 113.53562927, -7.7801404 ], [ 113.53456116, -7.78002977 ], [ 113.53309631, -7.77980995 ], [ 113.53072357, -7.77943993 ], [ 113.53039551, -7.77937222 ], [ 113.52780914, -7.77883053 ], [ 113.52751923, -7.77876997 ], [ 113.52774048, -7.77791977 ], [ 113.5279541, -7.776227 ], [ 113.52805328, -7.77546978 ], [ 113.52588654, -7.7751441 ], [ 113.52565765, -7.77510977 ], [ 113.5250473, -7.77503014 ], [ 113.52500153, -7.77495003 ], [ 113.52320862, -7.77238989 ], [ 113.52290344, -7.77202988 ], [ 113.51895905, -7.76751995 ], [ 113.51898193, -7.76738977 ], [ 113.51896667, -7.76719999 ], [ 113.51891327, -7.76706982 ], [ 113.51828003, -7.76601982 ], [ 113.51818848, -7.76562977 ], [ 113.51820374, -7.76537991 ], [ 113.51818085, -7.76522017 ], [ 113.51808167, -7.76514006 ], [ 113.51798248, -7.76502991 ], [ 113.51779938, -7.76485014 ], [ 113.51731873, -7.76444006 ], [ 113.51725769, -7.76429987 ], [ 113.51721954, -7.76395988 ], [ 113.51714325, -7.76383018 ], [ 113.51708221, -7.76374245 ], [ 113.51702118, -7.76365614 ], [ 113.51676941, -7.76327324 ], [ 113.51648712, -7.76284981 ], [ 113.51599884, -7.75983047 ], [ 113.51598358, -7.75970984 ], [ 113.51567841, -7.75935984 ], [ 113.51551819, -7.75907993 ], [ 113.51544952, -7.75878 ], [ 113.51531219, -7.75829983 ], [ 113.51509857, -7.75784445 ], [ 113.51503754, -7.75770998 ], [ 113.51481628, -7.75720978 ], [ 113.51467896, -7.75668001 ], [ 113.51464081, -7.75649023 ], [ 113.51450348, -7.75610018 ], [ 113.51457977, -7.75602007 ], [ 113.51473236, -7.75592995 ], [ 113.51490021, -7.75583982 ], [ 113.51537323, -7.75554991 ], [ 113.51557159, -7.7553401 ], [ 113.51570129, -7.75512981 ], [ 113.51580811, -7.75473022 ], [ 113.51590729, -7.75422001 ], [ 113.51596832, -7.75318003 ], [ 113.51596832, -7.7530899 ], [ 113.51596832, -7.75299501 ], [ 113.51596832, -7.75272989 ], [ 113.51609802, -7.75257015 ], [ 113.51629639, -7.75242996 ], [ 113.51661682, -7.75228977 ], [ 113.51705933, -7.75212002 ], [ 113.51725769, -7.75194979 ], [ 113.51730347, -7.7518301 ], [ 113.51725769, -7.75165987 ], [ 113.51714325, -7.7514801 ], [ 113.51686096, -7.75119019 ], [ 113.51667023, -7.75108004 ], [ 113.51629639, -7.75096989 ], [ 113.5160675, -7.75100994 ], [ 113.51548767, -7.75112009 ], [ 113.51534271, -7.75102997 ], [ 113.51524353, -7.75087976 ], [ 113.51522064, -7.75075006 ], [ 113.51511383, -7.75075197 ], [ 113.51509094, -7.75055027 ], [ 113.51509094, -7.75038958 ], [ 113.51511383, -7.75019503 ], [ 113.51515961, -7.74995995 ], [ 113.51524353, -7.74975157 ], [ 113.51540375, -7.74955606 ], [ 113.51552582, -7.74942827 ], [ 113.51574707, -7.7492795 ], [ 113.51600647, -7.74919748 ], [ 113.51636505, -7.74920082 ], [ 113.5164566, -7.74917984 ], [ 113.51661682, -7.74908018 ], [ 113.51680756, -7.74889994 ], [ 113.51698303, -7.74861717 ], [ 113.51703644, -7.74837017 ], [ 113.51701355, -7.7481699 ], [ 113.51689148, -7.7479744 ], [ 113.51668549, -7.74767303 ], [ 113.51621246, -7.74702835 ], [ 113.5160675, -7.74672651 ], [ 113.51599884, -7.74630642 ], [ 113.51595306, -7.74589491 ], [ 113.51605225, -7.74554539 ], [ 113.51625061, -7.74534225 ], [ 113.51639557, -7.74534655 ], [ 113.51649475, -7.74534941 ], [ 113.51662445, -7.74541998 ], [ 113.51679993, -7.74554491 ], [ 113.51711273, -7.7457366 ], [ 113.51740265, -7.74583578 ], [ 113.51759338, -7.74589348 ], [ 113.5177536, -7.74586296 ], [ 113.51786041, -7.74582005 ], [ 113.51816559, -7.74575949 ], [ 113.51843262, -7.74567413 ], [ 113.51865387, -7.74555063 ], [ 113.5187149, -7.74544954 ], [ 113.5187149, -7.74535275 ], [ 113.51867676, -7.74528599 ], [ 113.51863861, -7.74517679 ], [ 113.51863861, -7.74502134 ], [ 113.5187912, -7.74487734 ], [ 113.51889801, -7.74479675 ], [ 113.51896667, -7.74471664 ], [ 113.51895142, -7.74453688 ], [ 113.51902771, -7.74456167 ], [ 113.51921844, -7.74453974 ], [ 113.51930237, -7.74447584 ], [ 113.51940918, -7.74449635 ], [ 113.51955414, -7.74457932 ], [ 113.5197525, -7.74457836 ], [ 113.51997375, -7.74451399 ], [ 113.51984406, -7.74427319 ], [ 113.51957703, -7.74371862 ], [ 113.51935577, -7.74333143 ], [ 113.51905823, -7.74280834 ], [ 113.51898956, -7.74256277 ], [ 113.51889801, -7.74244165 ], [ 113.51857758, -7.74204445 ], [ 113.51852417, -7.74196672 ], [ 113.51835632, -7.74174166 ], [ 113.51834869, -7.74161577 ], [ 113.51817322, -7.74131203 ], [ 113.51800537, -7.7409668 ], [ 113.51785278, -7.74065256 ], [ 113.51771545, -7.74035931 ], [ 113.51750183, -7.7399826 ], [ 113.51748657, -7.7398572 ], [ 113.51733398, -7.73956394 ], [ 113.51719666, -7.73931265 ], [ 113.51717377, -7.73917198 ], [ 113.51709747, -7.73906136 ], [ 113.51700592, -7.73873663 ], [ 113.51695251, -7.73857594 ], [ 113.51691437, -7.7384429 ], [ 113.51685333, -7.73814964 ], [ 113.51679993, -7.73785591 ], [ 113.51676178, -7.7376461 ], [ 113.51670074, -7.73731041 ], [ 113.51667786, -7.73700619 ], [ 113.51663208, -7.73641872 ], [ 113.51661682, -7.73589373 ], [ 113.51660156, -7.73548412 ], [ 113.51660919, -7.73505402 ], [ 113.51665497, -7.73465443 ], [ 113.51668549, -7.73432589 ], [ 113.51673126, -7.734056 ], [ 113.5167923, -7.73369837 ], [ 113.5168457, -7.73338318 ], [ 113.51686096, -7.7330575 ], [ 113.51690674, -7.73279476 ], [ 113.51695251, -7.73242712 ], [ 113.51702118, -7.73209572 ], [ 113.51745605, -7.73217058 ], [ 113.51753998, -7.73202276 ], [ 113.51761627, -7.73183537 ], [ 113.51768494, -7.73166513 ], [ 113.51776886, -7.73151159 ], [ 113.51782227, -7.73143768 ], [ 113.51790619, -7.73138046 ], [ 113.518013, -7.73128939 ], [ 113.51812744, -7.73120928 ], [ 113.51819611, -7.7311182 ], [ 113.51824951, -7.73083496 ], [ 113.51830292, -7.73070049 ], [ 113.51842499, -7.73047113 ], [ 113.51826477, -7.73035288 ], [ 113.51831818, -7.73010874 ], [ 113.51837921, -7.73001909 ], [ 113.51912689, -7.73020267 ], [ 113.52032471, -7.73054838 ], [ 113.52041626, -7.73051262 ], [ 113.52033234, -7.73045015 ], [ 113.52030182, -7.7303257 ], [ 113.52028656, -7.73019695 ], [ 113.52029419, -7.73000288 ], [ 113.52031708, -7.72992849 ], [ 113.52035522, -7.72982836 ], [ 113.52037811, -7.72972393 ], [ 113.52040863, -7.72963428 ], [ 113.52039337, -7.72954988 ], [ 113.5203476, -7.72944593 ], [ 113.52041626, -7.729321 ], [ 113.52044678, -7.72922134 ], [ 113.52045441, -7.72904253 ], [ 113.52047729, -7.72895765 ], [ 113.52059937, -7.72893429 ], [ 113.52063751, -7.7290802 ], [ 113.5206604, -7.72923994 ], [ 113.52063751, -7.72942019 ], [ 113.52062225, -7.72961998 ], [ 113.52056885, -7.72989988 ], [ 113.52053833, -7.73003006 ], [ 113.52053833, -7.73039007 ], [ 113.52056122, -7.73055983 ], [ 113.52075195, -7.73060179 ], [ 113.52105713, -7.73063564 ], [ 113.52137756, -7.73068142 ], [ 113.52165222, -7.73070955 ], [ 113.5218811, -7.73073816 ], [ 113.52207184, -7.73076105 ], [ 113.52223969, -7.73077011 ], [ 113.52224731, -7.73061991 ], [ 113.52252197, -7.7306509 ], [ 113.52262878, -7.73064995 ], [ 113.52271271, -7.73065996 ], [ 113.52342224, -7.73078012 ], [ 113.52360535, -7.73079681 ], [ 113.52385712, -7.73082018 ], [ 113.5241394, -7.73083019 ], [ 113.52429962, -7.73084021 ], [ 113.52465057, -7.73084021 ], [ 113.52516937, -7.73086977 ], [ 113.52600861, -7.73117018 ], [ 113.52613068, -7.73095942 ], [ 113.52616882, -7.73106003 ], [ 113.52616882, -7.73133993 ], [ 113.52617645, -7.73163986 ], [ 113.52622986, -7.73183012 ], [ 113.52632904, -7.73200989 ], [ 113.52648163, -7.73230982 ], [ 113.52658081, -7.73247004 ], [ 113.52642822, -7.73245001 ], [ 113.52620697, -7.73243999 ], [ 113.52612305, -7.73260546 ], [ 113.52586365, -7.73312998 ], [ 113.52548981, -7.73383999 ], [ 113.52557373, -7.73543882 ], [ 113.52558136, -7.73564005 ], [ 113.52563477, -7.7361412 ], [ 113.52574921, -7.73721981 ], [ 113.52580261, -7.73732758 ], [ 113.52588654, -7.73749018 ], [ 113.52687073, -7.7375102 ], [ 113.52786255, -7.73757982 ], [ 113.52822876, -7.73760557 ], [ 113.52842712, -7.73761988 ], [ 113.52868652, -7.73762989 ], [ 113.53015137, -7.7378583 ], [ 113.5302887, -7.73804092 ], [ 113.53053284, -7.73843288 ], [ 113.5308075, -7.73888826 ], [ 113.53105927, -7.73933744 ], [ 113.53119659, -7.7393117 ], [ 113.53151703, -7.73933983 ], [ 113.53208923, -7.73929977 ], [ 113.53218079, -7.73929024 ], [ 113.53230286, -7.73928022 ], [ 113.53334808, -7.73913002 ], [ 113.53437805, -7.73915005 ], [ 113.53489685, -7.73920012 ], [ 113.53504181, -7.7391901 ], [ 113.53517914, -7.73917866 ], [ 113.53609467, -7.73910379 ], [ 113.53671265, -7.73905373 ], [ 113.5381012, -7.73893976 ], [ 113.53846741, -7.73823977 ], [ 113.53935242, -7.73800755 ], [ 113.5395813, -7.73794794 ], [ 113.53980255, -7.73788977 ], [ 113.54016113, -7.73778057 ], [ 113.5401001, -7.7372756 ], [ 113.54150391, -7.73701048 ], [ 113.54146576, -7.73661757 ], [ 113.5424881, -7.73625565 ], [ 113.54265594, -7.73619556 ], [ 113.54263306, -7.73603773 ], [ 113.5430603, -7.73598576 ], [ 113.54351807, -7.73595047 ], [ 113.5435257, -7.73587513 ], [ 113.54353333, -7.73572636 ], [ 113.54345703, -7.7355628 ], [ 113.54335022, -7.7354598 ], [ 113.54322052, -7.73526955 ], [ 113.54310608, -7.73494291 ], [ 113.54293823, -7.73487806 ], [ 113.54272461, -7.73485231 ], [ 113.54257202, -7.73477125 ], [ 113.54251099, -7.73460245 ], [ 113.54227448, -7.73440695 ], [ 113.5422287, -7.73427963 ], [ 113.54222107, -7.7342 ], [ 113.54219818, -7.73399019 ], [ 113.54216766, -7.73368979 ], [ 113.54216766, -7.73340988 ], [ 113.54219818, -7.73315001 ], [ 113.5422287, -7.73272991 ], [ 113.54221344, -7.73216009 ], [ 113.542099, -7.73157978 ], [ 113.54192352, -7.73143005 ], [ 113.5417099, -7.7311902 ], [ 113.54154968, -7.73087788 ], [ 113.54158783, -7.73073006 ], [ 113.54174042, -7.73015022 ], [ 113.54167175, -7.73008013 ], [ 113.54152679, -7.73004007 ], [ 113.54123688, -7.72993088 ], [ 113.5411911, -7.72985983 ], [ 113.5411911, -7.72967005 ], [ 113.54125977, -7.72954988 ], [ 113.54141235, -7.72927999 ], [ 113.54134369, -7.72912979 ], [ 113.54116058, -7.72888994 ], [ 113.54068756, -7.72881985 ], [ 113.54046631, -7.72876978 ], [ 113.54042816, -7.72867012 ], [ 113.54044342, -7.72830009 ], [ 113.54045105, -7.72805023 ], [ 113.54045105, -7.72789001 ], [ 113.54045105, -7.7276001 ], [ 113.5404129, -7.72745466 ], [ 113.54038239, -7.72735023 ], [ 113.54031372, -7.72724009 ], [ 113.54017639, -7.7269001 ], [ 113.54026794, -7.72651005 ], [ 113.54035187, -7.72649002 ], [ 113.54048157, -7.72654009 ], [ 113.54103088, -7.72677994 ], [ 113.54109955, -7.72669983 ], [ 113.54113007, -7.7265501 ], [ 113.54109955, -7.72638988 ], [ 113.54100037, -7.72618008 ], [ 113.54096985, -7.72600985 ], [ 113.541008, -7.72589016 ], [ 113.54116821, -7.7256999 ], [ 113.54132843, -7.72559023 ], [ 113.54160309, -7.72539997 ], [ 113.54174042, -7.72521019 ], [ 113.54183197, -7.72503138 ], [ 113.54190826, -7.72497988 ], [ 113.54252625, -7.72469997 ], [ 113.54290771, -7.72463989 ], [ 113.54306793, -7.72445011 ], [ 113.54312897, -7.72428989 ], [ 113.54315186, -7.72400999 ], [ 113.54321289, -7.72394991 ], [ 113.54334259, -7.7239399 ], [ 113.54353333, -7.72388983 ], [ 113.54360962, -7.72377014 ], [ 113.54367065, -7.72355986 ], [ 113.54376984, -7.72287989 ], [ 113.54389954, -7.72278023 ], [ 113.5440979, -7.72292995 ], [ 113.54429626, -7.72318983 ], [ 113.54447937, -7.72337008 ], [ 113.54456329, -7.72335005 ], [ 113.54463196, -7.72326994 ], [ 113.54464722, -7.72313023 ], [ 113.54470825, -7.72293997 ], [ 113.5447998, -7.72283983 ], [ 113.54506683, -7.72261 ], [ 113.54512024, -7.72247982 ], [ 113.54508209, -7.72236013 ], [ 113.54496002, -7.72204018 ], [ 113.54499054, -7.72186995 ], [ 113.54506683, -7.7217598 ], [ 113.54517365, -7.72173977 ], [ 113.54535675, -7.72177982 ], [ 113.54572296, -7.72186136 ], [ 113.54566956, -7.72199678 ], [ 113.54573822, -7.72217894 ], [ 113.54562378, -7.72234535 ], [ 113.54562378, -7.7225771 ], [ 113.54549408, -7.72281027 ], [ 113.5453949, -7.72307587 ], [ 113.5454483, -7.72335768 ], [ 113.5454483, -7.7236228 ], [ 113.54562378, -7.723773 ], [ 113.54574585, -7.7239027 ], [ 113.54573059, -7.72408533 ], [ 113.54563141, -7.72418499 ], [ 113.54555511, -7.72442913 ], [ 113.5454483, -7.72470331 ], [ 113.54553223, -7.72490788 ], [ 113.54579163, -7.72507 ], [ 113.54587555, -7.72534323 ], [ 113.54581451, -7.7254324 ], [ 113.54573822, -7.72552729 ], [ 113.54549408, -7.72569466 ], [ 113.54545593, -7.72587872 ], [ 113.54547882, -7.72609234 ], [ 113.54547119, -7.72630215 ], [ 113.54537964, -7.72660685 ], [ 113.54520416, -7.72715473 ], [ 113.54510498, -7.72742081 ], [ 113.54510498, -7.72766924 ], [ 113.5451889, -7.72801685 ], [ 113.54532623, -7.72818184 ], [ 113.54535675, -7.72843027 ], [ 113.5453949, -7.72862911 ], [ 113.54550934, -7.72871113 ], [ 113.54573059, -7.7287097 ], [ 113.54602814, -7.72885752 ], [ 113.54632568, -7.72895479 ], [ 113.54639435, -7.72905397 ], [ 113.54627991, -7.72936964 ], [ 113.54621124, -7.72948885 ], [ 113.54647064, -7.72967005 ], [ 113.54627991, -7.72984982 ], [ 113.54602814, -7.73002005 ], [ 113.54592133, -7.73015022 ], [ 113.54589844, -7.7304101 ], [ 113.54592133, -7.73060989 ], [ 113.54608154, -7.73082018 ], [ 113.5461731, -7.73091984 ], [ 113.54614258, -7.7311101 ], [ 113.5462265, -7.73153019 ], [ 113.54625702, -7.7316699 ], [ 113.54615784, -7.73190022 ], [ 113.54608154, -7.73205996 ], [ 113.54605103, -7.73226023 ], [ 113.5460968, -7.73247004 ], [ 113.54649353, -7.73295021 ], [ 113.54679108, -7.7332902 ], [ 113.54694366, -7.7335701 ], [ 113.54727936, -7.73386002 ], [ 113.54740906, -7.73398018 ], [ 113.54750061, -7.73415995 ], [ 113.54736328, -7.73464012 ], [ 113.54733276, -7.73477983 ], [ 113.54737091, -7.73496008 ], [ 113.54747772, -7.73509979 ], [ 113.54794312, -7.73547363 ], [ 113.54811859, -7.73549366 ], [ 113.5484848, -7.73551607 ], [ 113.54968262, -7.73553419 ], [ 113.54997253, -7.73558235 ], [ 113.55007172, -7.73566914 ], [ 113.55012512, -7.7362051 ], [ 113.55023193, -7.73686552 ], [ 113.55032349, -7.73726416 ], [ 113.55040741, -7.73741341 ], [ 113.55058289, -7.73740005 ], [ 113.55065918, -7.73742437 ], [ 113.55079651, -7.73747349 ], [ 113.55084991, -7.73759794 ], [ 113.55092621, -7.73778486 ], [ 113.55104065, -7.73780918 ], [ 113.55131531, -7.73791981 ], [ 113.55151367, -7.73818064 ], [ 113.55162048, -7.73850441 ], [ 113.55171967, -7.73942661 ], [ 113.55175018, -7.74036217 ], [ 113.55183411, -7.74071121 ], [ 113.55193329, -7.74086857 ], [ 113.55217743, -7.7410202 ], [ 113.55230713, -7.74107981 ], [ 113.55278778, -7.74131012 ], [ 113.55313873, -7.74140978 ], [ 113.55328369, -7.74141979 ], [ 113.55339813, -7.7413702 ], [ 113.55362701, -7.74073982 ], [ 113.55365753, -7.74063015 ], [ 113.55404663, -7.74085999 ], [ 113.55431366, -7.74103022 ], [ 113.55445862, -7.74119997 ], [ 113.55461884, -7.74152994 ], [ 113.55474854, -7.74201012 ], [ 113.55477905, -7.74232006 ], [ 113.55480194, -7.74246979 ], [ 113.55522919, -7.74280977 ], [ 113.55555725, -7.74301004 ], [ 113.55612183, -7.74320984 ], [ 113.55628204, -7.74323988 ], [ 113.556427, -7.74319983 ], [ 113.55682373, -7.74268007 ], [ 113.55687714, -7.74260998 ], [ 113.55709076, -7.74263 ], [ 113.55738068, -7.74272013 ], [ 113.55808258, -7.74301004 ], [ 113.55883026, -7.74318981 ], [ 113.55893707, -7.74322987 ], [ 113.55976105, -7.74322987 ], [ 113.56075287, -7.74327993 ], [ 113.56188965, -7.74328995 ], [ 113.56256104, -7.74328995 ], [ 113.56336212, -7.74338007 ], [ 113.5650177, -7.74377012 ], [ 113.56606293, -7.7438798 ], [ 113.56658936, -7.74392986 ], [ 113.56671143, -7.74393988 ], [ 113.56806183, -7.74403 ], [ 113.56939697, -7.74412012 ], [ 113.57045746, -7.74428988 ], [ 113.57128906, -7.74439001 ], [ 113.57324219, -7.74438858 ], [ 113.57370758, -7.7452774 ], [ 113.57422638, -7.74601316 ], [ 113.57463074, -7.74679184 ], [ 113.57509613, -7.74768686 ], [ 113.57550812, -7.74832678 ], [ 113.57577515, -7.74896097 ], [ 113.57598877, -7.74950981 ], [ 113.57623291, -7.75 ], [ 113.57639313, -7.75619555 ], [ 113.57752991, -7.75700521 ], [ 113.57956696, -7.75793934 ], [ 113.5827179, -7.75944376 ], [ 113.58524323, -7.76065302 ], [ 113.58591461, -7.76097202 ], [ 113.58633423, -7.761199 ], [ 113.58692169, -7.76157856 ], [ 113.5877533, -7.76200867 ], [ 113.58830261, -7.76226759 ], [ 113.58844757, -7.76234007 ], [ 113.58893585, -7.76262426 ], [ 113.58921051, -7.76280928 ], [ 113.5894928, -7.76306725 ], [ 113.5896225, -7.76318884 ], [ 113.58985138, -7.76333809 ], [ 113.590271, -7.76347446 ], [ 113.59038544, -7.76349926 ], [ 113.59049225, -7.76353836 ], [ 113.59083557, -7.76382828 ], [ 113.59117126, -7.76410818 ], [ 113.59130096, -7.76422644 ], [ 113.59155273, -7.76447487 ], [ 113.59183502, -7.76466608 ], [ 113.59204865, -7.76480913 ], [ 113.59234619, -7.76511192 ], [ 113.59247589, -7.76526928 ], [ 113.59276581, -7.76554155 ], [ 113.59284973, -7.76561069 ], [ 113.59297943, -7.76572514 ], [ 113.59309387, -7.76583433 ], [ 113.59326935, -7.76603603 ], [ 113.5933609, -7.76618385 ], [ 113.59346771, -7.76641273 ], [ 113.59365845, -7.76679516 ], [ 113.59369659, -7.76686478 ], [ 113.59388733, -7.76722717 ], [ 113.5940094, -7.76739645 ], [ 113.59414673, -7.76759338 ], [ 113.59442139, -7.76791191 ], [ 113.59468842, -7.76824999 ], [ 113.59481049, -7.76843023 ], [ 113.59487152, -7.76851225 ], [ 113.5951004, -7.76885414 ], [ 113.5953064, -7.76914597 ], [ 113.59545898, -7.76928186 ], [ 113.59571075, -7.76945448 ], [ 113.59579468, -7.76951027 ], [ 113.59630585, -7.76974916 ], [ 113.59637451, -7.76977825 ], [ 113.59656525, -7.76984119 ], [ 113.59712982, -7.77008104 ], [ 113.59750366, -7.7703166 ], [ 113.59783173, -7.77053308 ], [ 113.59823608, -7.77085114 ], [ 113.59841156, -7.77104282 ], [ 113.59848022, -7.77114964 ], [ 113.59877777, -7.77176952 ], [ 113.59882355, -7.77187347 ], [ 113.59896851, -7.77253866 ], [ 113.59899139, -7.77269793 ], [ 113.59905243, -7.77290201 ], [ 113.59914398, -7.77312756 ], [ 113.59922028, -7.77331829 ], [ 113.59931946, -7.77357006 ], [ 113.59941101, -7.77371311 ], [ 113.5995636, -7.77393913 ], [ 113.59978485, -7.77420807 ], [ 113.5999527, -7.77443075 ], [ 113.60010529, -7.77462196 ], [ 113.60025787, -7.77479982 ], [ 113.60038757, -7.77494574 ], [ 113.60057831, -7.77514982 ], [ 113.60070801, -7.77531004 ], [ 113.6006546, -7.77549696 ], [ 113.60064697, -7.77557373 ], [ 113.60062408, -7.77581501 ], [ 113.60057831, -7.77610731 ], [ 113.60055542, -7.77626324 ], [ 113.60053253, -7.77639341 ], [ 113.60050201, -7.776546 ], [ 113.60049438, -7.77670193 ], [ 113.60049438, -7.77678013 ], [ 113.60063171, -7.77701378 ], [ 113.60084534, -7.77725983 ], [ 113.60116577, -7.77766752 ], [ 113.60142517, -7.77814484 ], [ 113.60153961, -7.77846003 ], [ 113.60163879, -7.7789588 ], [ 113.60176086, -7.77955818 ], [ 113.60188293, -7.77988529 ], [ 113.6019516, -7.78008842 ], [ 113.60206604, -7.78024721 ], [ 113.60218811, -7.78038073 ], [ 113.60222626, -7.78048563 ], [ 113.60233307, -7.78083515 ], [ 113.60242462, -7.78111696 ], [ 113.60256195, -7.78151989 ], [ 113.60266113, -7.78187037 ], [ 113.60269928, -7.78237057 ], [ 113.6027832, -7.7827177 ], [ 113.60282135, -7.78284216 ], [ 113.60286713, -7.78305769 ], [ 113.6028595, -7.78317833 ], [ 113.60269928, -7.78333855 ], [ 113.60240173, -7.78351641 ], [ 113.60223389, -7.78366852 ], [ 113.60208893, -7.78389025 ], [ 113.60197449, -7.78407383 ], [ 113.60186005, -7.78423309 ], [ 113.60170746, -7.78452206 ], [ 113.60158539, -7.78479958 ], [ 113.60154724, -7.78502989 ], [ 113.60154724, -7.78510714 ], [ 113.60159302, -7.78529263 ], [ 113.60163116, -7.78539753 ], [ 113.60171509, -7.78551531 ], [ 113.60190582, -7.78579807 ], [ 113.60196686, -7.78590536 ], [ 113.6020813, -7.78618288 ], [ 113.60214233, -7.78644466 ], [ 113.60217285, -7.78702593 ], [ 113.60223389, -7.78733397 ], [ 113.60227966, -7.78758287 ], [ 113.60224152, -7.78789806 ], [ 113.60211182, -7.78820038 ], [ 113.60185242, -7.78861666 ], [ 113.60178375, -7.78875542 ], [ 113.60177612, -7.78889322 ], [ 113.60184479, -7.78907967 ], [ 113.60204315, -7.78929663 ], [ 113.60231781, -7.78954697 ], [ 113.60251617, -7.78978872 ], [ 113.60264587, -7.79015732 ], [ 113.60275269, -7.79044104 ], [ 113.60279083, -7.79052162 ], [ 113.60292053, -7.7907095 ], [ 113.60300446, -7.79081345 ], [ 113.60313416, -7.79103041 ], [ 113.60318756, -7.79117966 ], [ 113.60317993, -7.79131842 ], [ 113.60302734, -7.79177189 ], [ 113.60292816, -7.7921648 ], [ 113.60289001, -7.79258251 ], [ 113.60295105, -7.79298544 ], [ 113.60327148, -7.79379606 ], [ 113.60338593, -7.79402637 ], [ 113.60351563, -7.79421425 ], [ 113.60363007, -7.79439878 ], [ 113.6037674, -7.79469967 ], [ 113.60379791, -7.79477501 ], [ 113.60391998, -7.79527092 ], [ 113.60401917, -7.79597092 ], [ 113.60413361, -7.7963686 ], [ 113.60419464, -7.79654503 ], [ 113.60427856, -7.79694414 ], [ 113.60428619, -7.79719305 ], [ 113.60416412, -7.79771423 ], [ 113.60413361, -7.7977972 ], [ 113.60411072, -7.79790306 ], [ 113.60405731, -7.79813957 ], [ 113.60362244, -7.79824018 ], [ 113.60308075, -7.79841995 ], [ 113.60279846, -7.79847002 ], [ 113.60272217, -7.79842997 ], [ 113.60253906, -7.79858017 ], [ 113.60234833, -7.79864979 ], [ 113.60218811, -7.79862022 ], [ 113.60199738, -7.7985301 ], [ 113.60191345, -7.79849005 ], [ 113.60179138, -7.79842997 ], [ 113.60163116, -7.79834986 ], [ 113.60150909, -7.79828978 ], [ 113.60144043, -7.79826021 ], [ 113.60112, -7.7981801 ], [ 113.60092163, -7.79816008 ], [ 113.60073853, -7.79816008 ], [ 113.60050201, -7.7981801 ], [ 113.60025787, -7.79815006 ], [ 113.6000824, -7.79805994 ], [ 113.59954071, -7.79761982 ], [ 113.59916687, -7.79738998 ], [ 113.59880829, -7.79728985 ], [ 113.59848785, -7.79725981 ], [ 113.59796143, -7.79728985 ], [ 113.59754944, -7.79728985 ], [ 113.59734344, -7.79727983 ], [ 113.59696198, -7.79727983 ], [ 113.59649658, -7.79726982 ], [ 113.59631348, -7.79726982 ], [ 113.59619141, -7.79727983 ], [ 113.59603119, -7.79729986 ], [ 113.5958786, -7.79731989 ], [ 113.59557343, -7.79730988 ], [ 113.5951767, -7.79719019 ], [ 113.59499359, -7.79707623 ], [ 113.594841, -7.79694986 ], [ 113.59441376, -7.79655981 ], [ 113.59429932, -7.79632998 ], [ 113.59420776, -7.79606009 ], [ 113.59410095, -7.79574013 ], [ 113.59349823, -7.79567003 ], [ 113.59314728, -7.79560995 ], [ 113.59293365, -7.79559994 ], [ 113.592659, -7.7955699 ], [ 113.5925293, -7.79554987 ], [ 113.59230042, -7.79547977 ], [ 113.59217834, -7.79541826 ], [ 113.59197998, -7.79532003 ], [ 113.59172058, -7.79520988 ], [ 113.59156799, -7.79515982 ], [ 113.59146118, -7.79508018 ], [ 113.59134674, -7.79492998 ], [ 113.59114838, -7.79465008 ], [ 113.5909729, -7.79447985 ], [ 113.59088135, -7.79441977 ], [ 113.59059143, -7.79429007 ], [ 113.59024811, -7.7941699 ], [ 113.59013367, -7.79410982 ], [ 113.58994293, -7.79402018 ], [ 113.58963013, -7.79386997 ], [ 113.58934784, -7.79377985 ], [ 113.58918762, -7.79371977 ], [ 113.58907318, -7.79364014 ], [ 113.58896637, -7.79346991 ], [ 113.58889771, -7.79327011 ], [ 113.58888245, -7.79316998 ], [ 113.58879852, -7.79295015 ], [ 113.58876801, -7.79287004 ], [ 113.58862305, -7.79252005 ], [ 113.58847046, -7.79217005 ], [ 113.58837891, -7.79195023 ], [ 113.58830261, -7.79183006 ], [ 113.58811951, -7.79167986 ], [ 113.58782196, -7.79152012 ], [ 113.58766937, -7.79145002 ], [ 113.58721161, -7.79121017 ], [ 113.58704376, -7.79114008 ], [ 113.58683014, -7.79105997 ], [ 113.58670044, -7.79101229 ], [ 113.58657837, -7.79096985 ], [ 113.58634186, -7.79091978 ], [ 113.58596802, -7.79101992 ], [ 113.58582306, -7.79102993 ], [ 113.58570862, -7.7910099 ], [ 113.58542633, -7.79092979 ], [ 113.58515167, -7.79086018 ], [ 113.58486938, -7.79077005 ], [ 113.58448029, -7.79061985 ], [ 113.58441162, -7.79058981 ], [ 113.58413696, -7.79042006 ], [ 113.5840683, -7.79039001 ], [ 113.58396149, -7.79032993 ], [ 113.58365631, -7.79026985 ], [ 113.58322906, -7.79014015 ], [ 113.58315277, -7.79011011 ], [ 113.58286285, -7.79001999 ], [ 113.58265686, -7.78993988 ], [ 113.58249664, -7.78980017 ], [ 113.58242798, -7.78972006 ], [ 113.58222198, -7.78949022 ], [ 113.58197784, -7.78933001 ], [ 113.5818634, -7.7892499 ], [ 113.58177185, -7.78916979 ], [ 113.58168793, -7.78902006 ], [ 113.58161163, -7.78888988 ], [ 113.58126068, -7.78855991 ], [ 113.58109283, -7.78849983 ], [ 113.58087158, -7.78848982 ], [ 113.58069611, -7.78850555 ], [ 113.58032227, -7.78853989 ], [ 113.57994843, -7.78857994 ], [ 113.57965088, -7.78852987 ], [ 113.57933044, -7.78837013 ], [ 113.57911682, -7.78820992 ], [ 113.57904053, -7.78813982 ], [ 113.57858276, -7.78776979 ], [ 113.57834625, -7.78769016 ], [ 113.57810974, -7.78768015 ], [ 113.5776062, -7.7876606 ], [ 113.57711792, -7.78767014 ], [ 113.57662201, -7.78759003 ], [ 113.57620239, -7.78753996 ], [ 113.57594299, -7.78742981 ], [ 113.57559204, -7.78720999 ], [ 113.5753479, -7.78697014 ], [ 113.57476807, -7.78750992 ], [ 113.57463074, -7.78763008 ], [ 113.57289124, -7.7892499 ], [ 113.57263947, -7.78946018 ], [ 113.57232666, -7.78939009 ], [ 113.57208252, -7.78931999 ], [ 113.57192993, -7.78915977 ], [ 113.5717926, -7.78906012 ], [ 113.57161713, -7.7890501 ], [ 113.57125854, -7.78898001 ], [ 113.57073212, -7.78888988 ], [ 113.57054901, -7.78893995 ], [ 113.57025146, -7.78900003 ], [ 113.57003021, -7.78890991 ], [ 113.56906891, -7.78838015 ], [ 113.56896973, -7.78827 ], [ 113.56890869, -7.78816986 ], [ 113.56880188, -7.78809023 ], [ 113.56835938, -7.78777981 ], [ 113.56816864, -7.78767014 ], [ 113.56806183, -7.78768015 ], [ 113.56777954, -7.78771019 ], [ 113.56745148, -7.78766012 ], [ 113.56723022, -7.78753996 ], [ 113.56661224, -7.78718996 ], [ 113.56606293, -7.78703022 ], [ 113.56581879, -7.78689003 ], [ 113.56537628, -7.78655005 ], [ 113.56513977, -7.7863102 ], [ 113.56481171, -7.78588009 ], [ 113.5646286, -7.78568983 ], [ 113.5644989, -7.78563023 ], [ 113.56401062, -7.78557014 ], [ 113.56384277, -7.78552008 ], [ 113.56359863, -7.78542995 ], [ 113.56350708, -7.78539991 ], [ 113.5627594, -7.78511 ], [ 113.56266785, -7.78505993 ], [ 113.56240845, -7.78487015 ], [ 113.56204224, -7.78409004 ], [ 113.56047058, -7.78460979 ], [ 113.56038666, -7.7846365 ], [ 113.55996704, -7.78477001 ], [ 113.55924988, -7.78500986 ], [ 113.55898285, -7.78508997 ], [ 113.55890656, -7.7851181 ] ] ] ] } }
]
}
