{
"type": "FeatureCollection",
"name": "Kecamatan Sumberasih",
"crs": { "type": "name", "properties": { "name": "urn:ogc:def:crs:OGC:1.3:CRS84" } },
"features": [
{ "type": "Feature", "properties": { "GID_0": "IDN", "NAME_0": "Indonesia", "GID_1": "IDN.11_1", "NAME_1": "Jawa Timur", "NL_NAME_1": null, "GID_2": "IDN.11.30_1", "NAME_2": "Probolinggo", "NL_NAME_2": null, "GID_3": "IDN.11.30.19_1", "NAME_3": "Sumberasih", "VARNAME_3": null, "NL_NAME_3": null, "TYPE_3": "Kecamatan", "ENGTYPE_3": "Sub-district", "CC_3": "3513240", "HASC_3": null }, "geometry": { "type": "MultiPolygon", "coordinates": [ [ [ [ 113.26157379, -7.6763072 ], [ 113.2616806, -7.67644739 ], [ 113.26173401, -7.67664576 ], [ 113.26174164, -7.67674065 ], [ 113.26177979, -7.67722368 ], [ 113.26174164, -7.67742777 ], [ 113.26159668, -7.67791033 ], [ 113.26105499, -7.67888355 ], [ 113.26072693, -7.67929602 ], [ 113.26053619, -7.67952347 ], [ 113.26029968, -7.67970228 ], [ 113.25911713, -7.68040514 ], [ 113.25780487, -7.68085861 ], [ 113.25661469, -7.68110037 ], [ 113.25604248, -7.68108559 ], [ 113.25577545, -7.68108225 ], [ 113.25508118, -7.68107271 ], [ 113.2544632, -7.68113041 ], [ 113.25390625, -7.68118143 ], [ 113.25331116, -7.68120718 ], [ 113.25291443, -7.68122387 ], [ 113.25226593, -7.68127108 ], [ 113.25202942, -7.68128777 ], [ 113.25143433, -7.68135691 ], [ 113.25078583, -7.68143225 ], [ 113.25038147, -7.68143606 ], [ 113.25, -7.68139315 ], [ 113.24979401, -7.68135881 ], [ 113.24945068, -7.68125725 ], [ 113.24906158, -7.68117714 ], [ 113.24838257, -7.68110847 ], [ 113.24641418, -7.68096018 ], [ 113.24630737, -7.68094969 ], [ 113.24552917, -7.68087912 ], [ 113.24488831, -7.68081903 ], [ 113.24421692, -7.68075323 ], [ 113.24356079, -7.68068123 ], [ 113.24292755, -7.68055868 ], [ 113.24281311, -7.68046951 ], [ 113.24277496, -7.68036604 ], [ 113.24280548, -7.68028069 ], [ 113.24292755, -7.68019056 ], [ 113.24329376, -7.68003368 ], [ 113.24427032, -7.6795969 ], [ 113.24508667, -7.67921829 ], [ 113.2453537, -7.67909479 ], [ 113.24590302, -7.67886591 ], [ 113.24723053, -7.67829084 ], [ 113.24738312, -7.67822552 ], [ 113.24759674, -7.67815876 ], [ 113.24859619, -7.67784214 ], [ 113.24951935, -7.67754841 ], [ 113.25006104, -7.67740345 ], [ 113.25027466, -7.67736244 ], [ 113.25112152, -7.67719793 ], [ 113.25127411, -7.67717695 ], [ 113.25201416, -7.67707253 ], [ 113.25304413, -7.67692804 ], [ 113.2533493, -7.67688513 ], [ 113.25469971, -7.67680025 ], [ 113.25510406, -7.67675924 ], [ 113.25605011, -7.6765337 ], [ 113.25659943, -7.67637825 ], [ 113.25717163, -7.6762166 ], [ 113.25739288, -7.67621517 ], [ 113.25765228, -7.67621326 ], [ 113.25827026, -7.67625046 ], [ 113.25917053, -7.67630434 ], [ 113.25972748, -7.67631578 ], [ 113.26021576, -7.67632532 ], [ 113.26041412, -7.67628574 ], [ 113.26059723, -7.67624855 ], [ 113.26100159, -7.67617512 ], [ 113.26138306, -7.67619896 ], [ 113.26157379, -7.6763072 ] ] ], [ [ [ 113.15852356, -7.80647707 ], [ 113.15851593, -7.80609703 ], [ 113.1581955, -7.80595255 ], [ 113.1582489, -7.80583096 ], [ 113.15847015, -7.80523014 ], [ 113.15925598, -7.80309629 ], [ 113.1592865, -7.80298805 ], [ 113.15818024, -7.80262613 ], [ 113.15711975, -7.80244446 ], [ 113.15628815, -7.80236006 ], [ 113.15563202, -7.80228996 ], [ 113.15460968, -7.80214596 ], [ 113.15419769, -7.80199718 ], [ 113.15370178, -7.80189276 ], [ 113.15330505, -7.80180788 ], [ 113.15328979, -7.80162334 ], [ 113.15323639, -7.80142736 ], [ 113.15304565, -7.80120039 ], [ 113.15296173, -7.80095768 ], [ 113.15271759, -7.80003023 ], [ 113.15274048, -7.79980993 ], [ 113.15277863, -7.79972982 ], [ 113.15287018, -7.79974985 ], [ 113.1530838, -7.80008984 ], [ 113.1532135, -7.80026007 ], [ 113.15332794, -7.80035019 ], [ 113.1534729, -7.80038023 ], [ 113.15355682, -7.80034018 ], [ 113.15363312, -7.80024004 ], [ 113.15373993, -7.79978371 ], [ 113.15361786, -7.79950333 ], [ 113.15357208, -7.79940414 ], [ 113.15346527, -7.79914856 ], [ 113.15346527, -7.79882669 ], [ 113.15357208, -7.79853582 ], [ 113.1537323, -7.79833841 ], [ 113.15395355, -7.79798412 ], [ 113.15394592, -7.79781103 ], [ 113.15380096, -7.79765511 ], [ 113.15362549, -7.79753017 ], [ 113.15346527, -7.79753113 ], [ 113.15306091, -7.79753304 ], [ 113.15263367, -7.79758215 ], [ 113.1523819, -7.7976799 ], [ 113.15223694, -7.79763985 ], [ 113.15209961, -7.79749012 ], [ 113.15203857, -7.79736996 ], [ 113.15200806, -7.79715347 ], [ 113.15222931, -7.79698753 ], [ 113.15247345, -7.79662514 ], [ 113.1523056, -7.79647684 ], [ 113.15222931, -7.79619455 ], [ 113.15248871, -7.79605961 ], [ 113.15254974, -7.795753 ], [ 113.15232086, -7.79543972 ], [ 113.15216064, -7.79522514 ], [ 113.15193939, -7.79448986 ], [ 113.15200806, -7.79327011 ], [ 113.15202332, -7.79288006 ], [ 113.15194702, -7.79265022 ], [ 113.1519928, -7.79245996 ], [ 113.15200043, -7.79231977 ], [ 113.15203094, -7.79206991 ], [ 113.1521225, -7.79187012 ], [ 113.15235901, -7.79160023 ], [ 113.15263367, -7.79140997 ], [ 113.15253448, -7.79130793 ], [ 113.1523819, -7.79118824 ], [ 113.15226746, -7.79104567 ], [ 113.15219116, -7.79083967 ], [ 113.1521225, -7.79074574 ], [ 113.1520462, -7.7906456 ], [ 113.15161896, -7.79043579 ], [ 113.15142059, -7.79040241 ], [ 113.15126038, -7.79028845 ], [ 113.1509552, -7.79018116 ], [ 113.15059662, -7.7901144 ], [ 113.15052795, -7.79007435 ], [ 113.15045929, -7.78997755 ], [ 113.15029907, -7.78985786 ], [ 113.15007782, -7.78977871 ], [ 113.14987946, -7.7897644 ], [ 113.14980316, -7.78980017 ], [ 113.14955139, -7.79000998 ], [ 113.14916992, -7.79029989 ], [ 113.14872742, -7.79056978 ], [ 113.14820862, -7.79085016 ], [ 113.14772034, -7.79118013 ], [ 113.14711761, -7.79157019 ], [ 113.14663696, -7.79190016 ], [ 113.14588928, -7.79195976 ], [ 113.14550018, -7.79202986 ], [ 113.14499664, -7.79203987 ], [ 113.14453125, -7.79212999 ], [ 113.14404297, -7.79218006 ], [ 113.14353943, -7.79219007 ], [ 113.14306641, -7.79231977 ], [ 113.14243317, -7.7923398 ], [ 113.14177704, -7.79224014 ], [ 113.14115906, -7.7923398 ], [ 113.14083099, -7.79237986 ], [ 113.14042664, -7.79242992 ], [ 113.1401825, -7.79246998 ], [ 113.13983154, -7.79252005 ], [ 113.13928986, -7.79271984 ], [ 113.13897705, -7.79290009 ], [ 113.13874817, -7.79302979 ], [ 113.13844299, -7.79332018 ], [ 113.13809204, -7.7936101 ], [ 113.13793945, -7.79377985 ], [ 113.13761902, -7.79401016 ], [ 113.13719177, -7.79429007 ], [ 113.13667297, -7.79461145 ], [ 113.13626862, -7.79485989 ], [ 113.13598633, -7.79498005 ], [ 113.13557434, -7.7950983 ], [ 113.13549805, -7.79511976 ], [ 113.13491058, -7.79527998 ], [ 113.13427734, -7.7954402 ], [ 113.13365936, -7.79562998 ], [ 113.13304138, -7.79582977 ], [ 113.13237, -7.79588985 ], [ 113.13162231, -7.79603004 ], [ 113.13105011, -7.79624987 ], [ 113.13046265, -7.79643011 ], [ 113.12994385, -7.7965498 ], [ 113.12976837, -7.79658985 ], [ 113.12877655, -7.79639912 ], [ 113.12843323, -7.79633999 ], [ 113.12814331, -7.79629993 ], [ 113.12756348, -7.79629993 ], [ 113.12718964, -7.79615021 ], [ 113.12689209, -7.79610014 ], [ 113.12657928, -7.79628992 ], [ 113.12666321, -7.79608011 ], [ 113.1268692, -7.7953701 ], [ 113.12696838, -7.79507017 ], [ 113.12705994, -7.7947731 ], [ 113.1271286, -7.79454994 ], [ 113.12728119, -7.7943902 ], [ 113.12749481, -7.79425859 ], [ 113.12831879, -7.7940402 ], [ 113.12888336, -7.79409981 ], [ 113.1291275, -7.79401016 ], [ 113.1294632, -7.79383993 ], [ 113.12953949, -7.79380703 ], [ 113.12966919, -7.79374981 ], [ 113.12995148, -7.79364014 ], [ 113.13009644, -7.79345989 ], [ 113.13031769, -7.79316998 ], [ 113.13056183, -7.7929101 ], [ 113.13069153, -7.79264021 ], [ 113.13077545, -7.79247093 ], [ 113.13095856, -7.79208994 ], [ 113.13101196, -7.79199982 ], [ 113.13127899, -7.79166985 ], [ 113.13140869, -7.79157019 ], [ 113.1315918, -7.79141998 ], [ 113.13166809, -7.79121017 ], [ 113.1317215, -7.79108572 ], [ 113.13175964, -7.79099989 ], [ 113.13208008, -7.79056978 ], [ 113.13233185, -7.79048014 ], [ 113.13282776, -7.79025984 ], [ 113.13307953, -7.79011011 ], [ 113.13327789, -7.78989983 ], [ 113.13336182, -7.78969049 ], [ 113.13349915, -7.78933001 ], [ 113.13395691, -7.78867006 ], [ 113.13404846, -7.78849983 ], [ 113.13421631, -7.78668022 ], [ 113.13404083, -7.7855835 ], [ 113.13404083, -7.78550005 ], [ 113.13413239, -7.78532982 ], [ 113.13420105, -7.78528023 ], [ 113.13439178, -7.78515005 ], [ 113.13434601, -7.78507662 ], [ 113.1342926, -7.78498983 ], [ 113.13423157, -7.78483009 ], [ 113.1341095, -7.78458977 ], [ 113.1338501, -7.78416014 ], [ 113.1337738, -7.78399992 ], [ 113.13369751, -7.78385019 ], [ 113.13366699, -7.7837801 ], [ 113.13361359, -7.78366995 ], [ 113.13353729, -7.78347015 ], [ 113.13343048, -7.78313017 ], [ 113.13375092, -7.78286982 ], [ 113.13410187, -7.78259993 ], [ 113.13448334, -7.7823 ], [ 113.13456726, -7.78194523 ], [ 113.13481903, -7.78092003 ], [ 113.1346817, -7.7807498 ], [ 113.13430023, -7.78046989 ], [ 113.1340332, -7.78026009 ], [ 113.13375854, -7.78002024 ], [ 113.13343048, -7.77973986 ], [ 113.13300323, -7.77936459 ], [ 113.13279724, -7.77919769 ], [ 113.13233948, -7.77883005 ], [ 113.13147736, -7.77825022 ], [ 113.13121033, -7.77803993 ], [ 113.13066864, -7.77757978 ], [ 113.13043213, -7.77733994 ], [ 113.12999725, -7.77698994 ], [ 113.12954712, -7.77678013 ], [ 113.1291275, -7.77654982 ], [ 113.12902069, -7.77645016 ], [ 113.12872314, -7.7762599 ], [ 113.12837219, -7.77602005 ], [ 113.12828064, -7.77594995 ], [ 113.12766266, -7.77549982 ], [ 113.12716675, -7.77518988 ], [ 113.12680054, -7.77483988 ], [ 113.12667847, -7.77456999 ], [ 113.12654877, -7.77416992 ], [ 113.12651825, -7.77380991 ], [ 113.12657928, -7.77345943 ], [ 113.1271286, -7.77352715 ], [ 113.1276474, -7.77379227 ], [ 113.12817383, -7.77417755 ], [ 113.12837982, -7.77418995 ], [ 113.12852478, -7.77384138 ], [ 113.12869263, -7.77357292 ], [ 113.12897491, -7.77331734 ], [ 113.12911987, -7.77298212 ], [ 113.12924194, -7.7726202 ], [ 113.12926483, -7.77232599 ], [ 113.1294632, -7.77205753 ], [ 113.12962341, -7.77188492 ], [ 113.13009644, -7.77159405 ], [ 113.1306839, -7.77144718 ], [ 113.13161469, -7.77159977 ], [ 113.13233948, -7.77170086 ], [ 113.13262177, -7.77172565 ], [ 113.13298035, -7.7712388 ], [ 113.13314056, -7.77096272 ], [ 113.13346863, -7.77090836 ], [ 113.13367462, -7.77057934 ], [ 113.13383484, -7.77029037 ], [ 113.13412476, -7.7699213 ], [ 113.13440704, -7.76968384 ], [ 113.134552, -7.76960468 ], [ 113.13471222, -7.76926279 ], [ 113.13489532, -7.76907825 ], [ 113.13516998, -7.76864433 ], [ 113.13515472, -7.76835585 ], [ 113.13534546, -7.7680006 ], [ 113.13547516, -7.76768494 ], [ 113.13560486, -7.76735687 ], [ 113.13568878, -7.76710701 ], [ 113.13565826, -7.76698017 ], [ 113.13565826, -7.76686001 ], [ 113.13568878, -7.76676607 ], [ 113.13577271, -7.76648998 ], [ 113.13572693, -7.76621008 ], [ 113.13570404, -7.76603985 ], [ 113.13567352, -7.76586008 ], [ 113.13572693, -7.76577997 ], [ 113.13585663, -7.7657299 ], [ 113.13616943, -7.76562023 ], [ 113.13650513, -7.76542807 ], [ 113.13659668, -7.7652998 ], [ 113.13665009, -7.76512003 ], [ 113.13658905, -7.76504993 ], [ 113.13642883, -7.76487017 ], [ 113.13646698, -7.76480007 ], [ 113.13655853, -7.76478004 ], [ 113.13677216, -7.7647295 ], [ 113.13684845, -7.76470995 ], [ 113.13690186, -7.76460981 ], [ 113.13690186, -7.76445007 ], [ 113.13683319, -7.76433992 ], [ 113.13670349, -7.76426983 ], [ 113.13630676, -7.76408005 ], [ 113.13619995, -7.76391983 ], [ 113.13616943, -7.76374006 ], [ 113.1361084, -7.76348972 ], [ 113.1360321, -7.76339006 ], [ 113.13600159, -7.76316023 ], [ 113.13600159, -7.76272011 ], [ 113.13580322, -7.76232004 ], [ 113.13581085, -7.76204014 ], [ 113.13588715, -7.76187992 ], [ 113.13600922, -7.76155901 ], [ 113.1360321, -7.7613101 ], [ 113.1364212, -7.76122999 ], [ 113.13704681, -7.76110983 ], [ 113.1371994, -7.76106977 ], [ 113.13720703, -7.76086998 ], [ 113.13736725, -7.76032066 ], [ 113.13744354, -7.76015091 ], [ 113.13762665, -7.75995874 ], [ 113.13812256, -7.75986004 ], [ 113.13831329, -7.75978994 ], [ 113.13850403, -7.759552 ], [ 113.13856506, -7.75937891 ], [ 113.13861847, -7.75904131 ], [ 113.13861847, -7.75880861 ], [ 113.1385498, -7.7586112 ], [ 113.13844299, -7.75831461 ], [ 113.13835144, -7.75798941 ], [ 113.13825226, -7.75769901 ], [ 113.13819885, -7.75747204 ], [ 113.13812256, -7.757339 ], [ 113.13806915, -7.75723982 ], [ 113.13806915, -7.75710011 ], [ 113.13817596, -7.75671387 ], [ 113.13819885, -7.75663996 ], [ 113.138237, -7.75649929 ], [ 113.138237, -7.75632715 ], [ 113.13813019, -7.7561841 ], [ 113.13793945, -7.75592279 ], [ 113.13780975, -7.7557025 ], [ 113.13771057, -7.75554657 ], [ 113.13759613, -7.75530815 ], [ 113.13758087, -7.75515032 ], [ 113.13759613, -7.7549777 ], [ 113.13761139, -7.75485373 ], [ 113.13766479, -7.75458765 ], [ 113.13774872, -7.75422096 ], [ 113.13786316, -7.75399733 ], [ 113.13800049, -7.75362587 ], [ 113.13806152, -7.75348139 ], [ 113.13802338, -7.75332022 ], [ 113.13793945, -7.75326347 ], [ 113.13779449, -7.75320721 ], [ 113.13764954, -7.75320768 ], [ 113.13746643, -7.75320864 ], [ 113.13735199, -7.75346661 ], [ 113.13709259, -7.75369644 ], [ 113.13686371, -7.75371218 ], [ 113.1365509, -7.75355625 ], [ 113.13621521, -7.75322914 ], [ 113.13597107, -7.75294065 ], [ 113.1353302, -7.752882 ], [ 113.13366699, -7.75272703 ], [ 113.13352203, -7.75262451 ], [ 113.13328552, -7.75255251 ], [ 113.13314819, -7.75249529 ], [ 113.13303375, -7.75247669 ], [ 113.13291168, -7.75250006 ], [ 113.13265228, -7.75245905 ], [ 113.13230133, -7.75237989 ], [ 113.13205719, -7.75233889 ], [ 113.13195038, -7.75239992 ], [ 113.13202667, -7.75222015 ], [ 113.13201904, -7.75214005 ], [ 113.1317749, -7.75201321 ], [ 113.1317749, -7.75162315 ], [ 113.13183594, -7.75132751 ], [ 113.13179016, -7.75098753 ], [ 113.1318512, -7.75067329 ], [ 113.13173676, -7.75019026 ], [ 113.13183594, -7.74984932 ], [ 113.13191986, -7.74958038 ], [ 113.13182831, -7.7492671 ], [ 113.13181305, -7.7490344 ], [ 113.13192749, -7.74867439 ], [ 113.1319046, -7.74846077 ], [ 113.13196564, -7.74812889 ], [ 113.13193512, -7.74795008 ], [ 113.13201904, -7.74774075 ], [ 113.13197327, -7.7474947 ], [ 113.13208771, -7.74717045 ], [ 113.13198853, -7.74702883 ], [ 113.13205719, -7.74691868 ], [ 113.13217926, -7.7465601 ], [ 113.1321106, -7.74637032 ], [ 113.13212585, -7.74610186 ], [ 113.1322403, -7.74596405 ], [ 113.13209534, -7.74566889 ], [ 113.132164, -7.74550676 ], [ 113.13218689, -7.74542713 ], [ 113.13224792, -7.74525023 ], [ 113.13208771, -7.74514008 ], [ 113.13198853, -7.74509001 ], [ 113.13191223, -7.74495983 ], [ 113.13175201, -7.74482012 ], [ 113.13147736, -7.7445302 ], [ 113.13137054, -7.74435997 ], [ 113.13128662, -7.74419022 ], [ 113.13119507, -7.7440896 ], [ 113.1311264, -7.74400759 ], [ 113.1309967, -7.74392605 ], [ 113.13128662, -7.74292135 ], [ 113.13142395, -7.74235106 ], [ 113.13156128, -7.74190092 ], [ 113.13181305, -7.74105549 ], [ 113.13188934, -7.74072075 ], [ 113.13201904, -7.74019957 ], [ 113.13210297, -7.73989201 ], [ 113.13214874, -7.73976564 ], [ 113.13217926, -7.73963404 ], [ 113.13227081, -7.73953009 ], [ 113.13249207, -7.73889017 ], [ 113.13262177, -7.73865986 ], [ 113.13266754, -7.73827982 ], [ 113.13272095, -7.73792982 ], [ 113.13278198, -7.73759985 ], [ 113.13282776, -7.73719978 ], [ 113.13282013, -7.73691988 ], [ 113.13285065, -7.73664999 ], [ 113.13287354, -7.73635197 ], [ 113.13291931, -7.73605013 ], [ 113.13291931, -7.73579979 ], [ 113.13295746, -7.73555994 ], [ 113.13294983, -7.7351799 ], [ 113.13300323, -7.73496008 ], [ 113.13305664, -7.73472977 ], [ 113.13311005, -7.73441982 ], [ 113.13311005, -7.73408985 ], [ 113.13316345, -7.73375988 ], [ 113.1332016, -7.73335981 ], [ 113.1332016, -7.73269987 ], [ 113.13323975, -7.73225021 ], [ 113.13330078, -7.73199987 ], [ 113.13334656, -7.73167992 ], [ 113.13340759, -7.73148012 ], [ 113.13346863, -7.73125982 ], [ 113.13358307, -7.73098993 ], [ 113.13358307, -7.73077011 ], [ 113.13369751, -7.73042011 ], [ 113.13375092, -7.73012018 ], [ 113.13375092, -7.72981977 ], [ 113.13379669, -7.72965002 ], [ 113.13384247, -7.72945976 ], [ 113.13382721, -7.72923994 ], [ 113.13387299, -7.72905016 ], [ 113.13388062, -7.72862005 ], [ 113.13391876, -7.72843981 ], [ 113.13391876, -7.72820997 ], [ 113.13386536, -7.7280283 ], [ 113.13485718, -7.72785997 ], [ 113.13531494, -7.72769737 ], [ 113.13539886, -7.72764015 ], [ 113.13562012, -7.72758007 ], [ 113.13571167, -7.72753668 ], [ 113.13584137, -7.72749233 ], [ 113.13596344, -7.72745323 ], [ 113.13610077, -7.72741413 ], [ 113.13620758, -7.72736979 ], [ 113.13652039, -7.72725868 ], [ 113.13719177, -7.727036 ], [ 113.13756561, -7.72691917 ], [ 113.13793182, -7.72705984 ], [ 113.1384964, -7.72731972 ], [ 113.13912964, -7.72747993 ], [ 113.13928986, -7.72749996 ], [ 113.13941193, -7.72751808 ], [ 113.13946533, -7.72736454 ], [ 113.13987732, -7.72751045 ], [ 113.14020538, -7.72762394 ], [ 113.14039612, -7.72771072 ], [ 113.14055634, -7.72778654 ], [ 113.14037323, -7.72813988 ], [ 113.1402359, -7.72840166 ], [ 113.14035797, -7.72864008 ], [ 113.14041901, -7.72876978 ], [ 113.14054871, -7.7287302 ], [ 113.14074707, -7.72875023 ], [ 113.14090729, -7.72883987 ], [ 113.14110565, -7.72901678 ], [ 113.14131165, -7.72896004 ], [ 113.14144135, -7.72887993 ], [ 113.14154816, -7.7287302 ], [ 113.14157104, -7.72861004 ], [ 113.14150238, -7.72812986 ], [ 113.14143372, -7.72793007 ], [ 113.14151001, -7.72774982 ], [ 113.14163208, -7.7277298 ], [ 113.14173126, -7.72767019 ], [ 113.14169312, -7.72782993 ], [ 113.14232635, -7.72832012 ], [ 113.14269257, -7.72848988 ], [ 113.14282227, -7.72859001 ], [ 113.14293671, -7.72871017 ], [ 113.14311218, -7.72880983 ], [ 113.14315796, -7.7291398 ], [ 113.14318085, -7.72935009 ], [ 113.14383698, -7.73099995 ], [ 113.14404297, -7.73135996 ], [ 113.1442337, -7.73176003 ], [ 113.14441681, -7.73209715 ], [ 113.14531708, -7.7336998 ], [ 113.14559937, -7.7340498 ], [ 113.1463089, -7.73504019 ], [ 113.14653015, -7.73539019 ], [ 113.14675903, -7.73579979 ], [ 113.14689636, -7.73604012 ], [ 113.14707947, -7.73623991 ], [ 113.14737701, -7.73654985 ], [ 113.14743805, -7.73661995 ], [ 113.14779663, -7.73698997 ], [ 113.14788055, -7.73708773 ], [ 113.14792633, -7.73715019 ], [ 113.14832306, -7.73773003 ], [ 113.14885712, -7.73837996 ], [ 113.14907837, -7.73862982 ], [ 113.14929199, -7.73887014 ], [ 113.14959717, -7.73912001 ], [ 113.15013123, -7.73950005 ], [ 113.15028381, -7.73974991 ], [ 113.15046692, -7.73997021 ], [ 113.15084839, -7.74043989 ], [ 113.15086365, -7.74065018 ], [ 113.15071869, -7.74101019 ], [ 113.15084076, -7.74125004 ], [ 113.15094757, -7.74132013 ], [ 113.15106201, -7.74127007 ], [ 113.15117645, -7.74113989 ], [ 113.15135956, -7.74080992 ], [ 113.15162659, -7.74015999 ], [ 113.15170288, -7.74004984 ], [ 113.15181732, -7.73983002 ], [ 113.1519928, -7.73955011 ], [ 113.15215302, -7.73937988 ], [ 113.15223694, -7.73936987 ], [ 113.1525116, -7.73942995 ], [ 113.15267944, -7.73947001 ], [ 113.15267944, -7.73956013 ], [ 113.15260315, -7.73972988 ], [ 113.15245056, -7.73998022 ], [ 113.1522522, -7.74032021 ], [ 113.15216827, -7.74064016 ], [ 113.15222931, -7.74084997 ], [ 113.15235901, -7.74096012 ], [ 113.15287781, -7.74134016 ], [ 113.1530304, -7.74144983 ], [ 113.15338898, -7.74168015 ], [ 113.15373993, -7.74183989 ], [ 113.15411377, -7.74196005 ], [ 113.15525818, -7.74223995 ], [ 113.15538025, -7.74211979 ], [ 113.15550995, -7.74198008 ], [ 113.15563202, -7.7420001 ], [ 113.15603638, -7.7420702 ], [ 113.1570816, -7.74222994 ], [ 113.15714264, -7.74214983 ], [ 113.15808105, -7.74009991 ], [ 113.15844727, -7.74030018 ], [ 113.15881348, -7.74044991 ], [ 113.15957642, -7.74073982 ], [ 113.16010284, -7.74098015 ], [ 113.16039276, -7.74106979 ], [ 113.16047668, -7.74106979 ], [ 113.1605835, -7.74108744 ], [ 113.16148376, -7.74124002 ], [ 113.16187286, -7.7413702 ], [ 113.16223145, -7.74162006 ], [ 113.16297913, -7.74211979 ], [ 113.16311646, -7.74210978 ], [ 113.16326904, -7.74202013 ], [ 113.16352844, -7.74174976 ], [ 113.16384125, -7.74130011 ], [ 113.16398621, -7.74115992 ], [ 113.16414642, -7.74109983 ], [ 113.16433716, -7.74108982 ], [ 113.16459656, -7.74115992 ], [ 113.16470337, -7.74119997 ], [ 113.16481018, -7.74117994 ], [ 113.16526794, -7.7410202 ], [ 113.16564941, -7.74081993 ], [ 113.16616058, -7.74043989 ], [ 113.16645813, -7.74022007 ], [ 113.1668396, -7.73997021 ], [ 113.16744995, -7.73948002 ], [ 113.16773224, -7.73927021 ], [ 113.16803741, -7.73913002 ], [ 113.1682663, -7.73901987 ], [ 113.16906738, -7.73858976 ], [ 113.16959381, -7.73828983 ], [ 113.17001343, -7.73796988 ], [ 113.17043304, -7.73753977 ], [ 113.170578, -7.73721981 ], [ 113.17070007, -7.73681021 ], [ 113.17075348, -7.73643017 ], [ 113.17075348, -7.73572016 ], [ 113.17064667, -7.73561001 ], [ 113.17051697, -7.73549986 ], [ 113.1697464, -7.73554993 ], [ 113.16954041, -7.73377991 ], [ 113.16951752, -7.73345995 ], [ 113.16842651, -7.7334199 ], [ 113.1676712, -7.7334199 ], [ 113.16763306, -7.73333979 ], [ 113.16763306, -7.7328701 ], [ 113.16758728, -7.73158979 ], [ 113.16755676, -7.72958994 ], [ 113.16757202, -7.72929001 ], [ 113.16763306, -7.72891998 ], [ 113.16758728, -7.72846985 ], [ 113.16752625, -7.72796011 ], [ 113.16773224, -7.72793007 ], [ 113.16985321, -7.72792006 ], [ 113.1710434, -7.72790003 ], [ 113.17146301, -7.72789001 ], [ 113.17154694, -7.72785997 ], [ 113.17162323, -7.72767019 ], [ 113.17165375, -7.72739983 ], [ 113.17170715, -7.72730017 ], [ 113.17196655, -7.7272501 ], [ 113.17211151, -7.7272501 ], [ 113.17224884, -7.72728014 ], [ 113.17237091, -7.72721004 ], [ 113.17247009, -7.72705984 ], [ 113.17250061, -7.72698021 ], [ 113.1725235, -7.7269001 ], [ 113.17253113, -7.72675991 ], [ 113.17259216, -7.7266798 ], [ 113.17268372, -7.72666979 ], [ 113.1727829, -7.7267499 ], [ 113.17281342, -7.72687006 ], [ 113.17275238, -7.72740984 ], [ 113.17276001, -7.72758007 ], [ 113.1728363, -7.72789001 ], [ 113.1729126, -7.72809982 ], [ 113.17301178, -7.72852993 ], [ 113.17324066, -7.72914982 ], [ 113.17333221, -7.72945976 ], [ 113.17334747, -7.72962999 ], [ 113.17324829, -7.72985983 ], [ 113.17310333, -7.73014021 ], [ 113.17304993, -7.73050022 ], [ 113.17308807, -7.73079014 ], [ 113.17320251, -7.73117113 ], [ 113.17327118, -7.73140001 ], [ 113.17366791, -7.73267984 ], [ 113.1736908, -7.73297024 ], [ 113.17369843, -7.73304987 ], [ 113.17391205, -7.73449993 ], [ 113.1739502, -7.73495007 ], [ 113.17410278, -7.73577976 ], [ 113.17414856, -7.73598003 ], [ 113.17437744, -7.73627996 ], [ 113.17443848, -7.73639011 ], [ 113.17510986, -7.73795986 ], [ 113.17521667, -7.73817015 ], [ 113.17552948, -7.73858023 ], [ 113.1756897, -7.7386899 ], [ 113.17584229, -7.73870993 ], [ 113.17614746, -7.73878002 ], [ 113.17643738, -7.7389102 ], [ 113.1767807, -7.73910999 ], [ 113.17709351, -7.73917007 ], [ 113.17785645, -7.73933983 ], [ 113.17814636, -7.73955011 ], [ 113.17826843, -7.73973989 ], [ 113.17854309, -7.74028015 ], [ 113.17862701, -7.74057007 ], [ 113.17883301, -7.74117994 ], [ 113.17916107, -7.74202013 ], [ 113.17920685, -7.74233007 ], [ 113.17933655, -7.74295998 ], [ 113.17976379, -7.74439001 ], [ 113.17951965, -7.74570322 ], [ 113.17891693, -7.74688292 ], [ 113.17870331, -7.74755907 ], [ 113.17858887, -7.74792433 ], [ 113.17760468, -7.7493062 ], [ 113.17733002, -7.74971581 ], [ 113.17709351, -7.74988174 ], [ 113.17694092, -7.7499876 ], [ 113.17662048, -7.75085545 ], [ 113.17658234, -7.7509551 ], [ 113.17627716, -7.75178766 ], [ 113.17588806, -7.75170135 ], [ 113.17527771, -7.75158644 ], [ 113.17502594, -7.7515316 ], [ 113.17462158, -7.75296497 ], [ 113.17449951, -7.75360012 ], [ 113.17434692, -7.75411844 ], [ 113.17433929, -7.75451326 ], [ 113.17368317, -7.75436449 ], [ 113.17381287, -7.75370836 ], [ 113.17393494, -7.75311422 ], [ 113.1740036, -7.75280285 ], [ 113.17237091, -7.75245619 ], [ 113.17147064, -7.75475597 ], [ 113.1710968, -7.75466871 ], [ 113.1704483, -7.75455952 ], [ 113.17002869, -7.75453854 ], [ 113.16986084, -7.75451422 ], [ 113.16966248, -7.75448608 ], [ 113.16902924, -7.75438309 ], [ 113.16820526, -7.75425959 ], [ 113.16722107, -7.75408649 ], [ 113.16687012, -7.75402498 ], [ 113.16611481, -7.7539053 ], [ 113.16561127, -7.75622749 ], [ 113.16537476, -7.75700188 ], [ 113.16531372, -7.75728607 ], [ 113.16481781, -7.75716925 ], [ 113.164711, -7.75759172 ], [ 113.16455841, -7.75823498 ], [ 113.16440582, -7.75887775 ], [ 113.16432953, -7.75919533 ], [ 113.16500854, -7.75933743 ], [ 113.16593933, -7.75953054 ], [ 113.16795349, -7.76141882 ], [ 113.16746521, -7.76329708 ], [ 113.16743469, -7.76341009 ], [ 113.16667938, -7.76592731 ], [ 113.16664886, -7.7660346 ], [ 113.16676331, -7.7661643 ], [ 113.16679382, -7.76633883 ], [ 113.16661835, -7.76711559 ], [ 113.1665802, -7.76729107 ], [ 113.16657257, -7.76740503 ], [ 113.16660309, -7.76749039 ], [ 113.16667175, -7.76763964 ], [ 113.16674042, -7.76778269 ], [ 113.16636658, -7.76852942 ], [ 113.16599274, -7.76926422 ], [ 113.16520691, -7.7708559 ], [ 113.16479492, -7.77077341 ], [ 113.16396332, -7.77053547 ], [ 113.16378784, -7.7704854 ], [ 113.16371918, -7.77045012 ], [ 113.16336823, -7.77034569 ], [ 113.16307831, -7.77089024 ], [ 113.16292572, -7.77151251 ], [ 113.16446686, -7.7718401 ], [ 113.16410065, -7.7732954 ], [ 113.16426086, -7.77335548 ], [ 113.16452789, -7.77345514 ], [ 113.16464996, -7.77356625 ], [ 113.16473389, -7.77362967 ], [ 113.1648407, -7.77372742 ], [ 113.16543579, -7.77393198 ], [ 113.1654129, -7.77401876 ], [ 113.16499329, -7.77545834 ], [ 113.16471863, -7.77641582 ], [ 113.16448975, -7.77721357 ], [ 113.16439056, -7.7775383 ], [ 113.16430664, -7.77786636 ], [ 113.16409302, -7.7785778 ], [ 113.1640625, -7.77870131 ], [ 113.16394043, -7.77913809 ], [ 113.16391754, -7.77922964 ], [ 113.16407776, -7.77927446 ], [ 113.16423035, -7.77931499 ], [ 113.16505432, -7.77955818 ], [ 113.16544342, -7.77965546 ], [ 113.16680908, -7.78000116 ], [ 113.16712952, -7.78008747 ], [ 113.1680603, -7.78033876 ], [ 113.16849518, -7.78045797 ], [ 113.16876221, -7.78053713 ], [ 113.16931152, -7.78070498 ], [ 113.16980743, -7.78085613 ], [ 113.17021942, -7.78095531 ], [ 113.17063141, -7.7810626 ], [ 113.1709671, -7.78113604 ], [ 113.17108917, -7.7811718 ], [ 113.17277527, -7.78167582 ], [ 113.17318726, -7.78179884 ], [ 113.17326355, -7.7818203 ], [ 113.17357635, -7.78190947 ], [ 113.17399597, -7.7820282 ], [ 113.17433167, -7.7821207 ], [ 113.1747818, -7.78225565 ], [ 113.17514801, -7.78234148 ], [ 113.17557526, -7.78244305 ], [ 113.17608643, -7.78257275 ], [ 113.17656708, -7.78271294 ], [ 113.17697144, -7.78283262 ], [ 113.17776489, -7.78305054 ], [ 113.17835999, -7.78321314 ], [ 113.17853546, -7.78325653 ], [ 113.17893982, -7.78337193 ], [ 113.17777252, -7.78645754 ], [ 113.17768097, -7.7866931 ], [ 113.17760468, -7.78688622 ], [ 113.17703247, -7.78841114 ], [ 113.17700195, -7.78848267 ], [ 113.17718506, -7.78850555 ], [ 113.17733765, -7.78859329 ], [ 113.17756653, -7.78883696 ], [ 113.17800903, -7.78911018 ], [ 113.17829132, -7.78924751 ], [ 113.17851257, -7.78935385 ], [ 113.17906189, -7.78948069 ], [ 113.18030548, -7.78991461 ], [ 113.18096924, -7.79014397 ], [ 113.18115997, -7.78943205 ], [ 113.18173218, -7.789536 ], [ 113.18217468, -7.78961706 ], [ 113.18202972, -7.7903657 ], [ 113.18250275, -7.79046392 ], [ 113.18235016, -7.79097986 ], [ 113.18225861, -7.79125261 ], [ 113.18238068, -7.79128456 ], [ 113.18275452, -7.79137421 ], [ 113.18270874, -7.79166603 ], [ 113.18235779, -7.79255676 ], [ 113.18221283, -7.79312563 ], [ 113.18208313, -7.79365635 ], [ 113.18186188, -7.79460955 ], [ 113.18121338, -7.79726696 ], [ 113.18113708, -7.79754925 ], [ 113.18091583, -7.79838657 ], [ 113.1806488, -7.79938602 ], [ 113.18042755, -7.80016756 ], [ 113.18034363, -7.8012743 ], [ 113.18032837, -7.80178642 ], [ 113.18029022, -7.80315304 ], [ 113.17999268, -7.80413103 ], [ 113.17967224, -7.80503416 ], [ 113.17944336, -7.80543232 ], [ 113.17915344, -7.80594683 ], [ 113.17896271, -7.80630684 ], [ 113.17881775, -7.80653286 ], [ 113.17868042, -7.80675936 ], [ 113.17848969, -7.80724859 ], [ 113.17842102, -7.80744505 ], [ 113.17826843, -7.80744171 ], [ 113.17818451, -7.80768824 ], [ 113.17806244, -7.80808115 ], [ 113.17802429, -7.80819893 ], [ 113.17803955, -7.80851126 ], [ 113.177948, -7.80895424 ], [ 113.17797852, -7.80908346 ], [ 113.17832947, -7.80913162 ], [ 113.17827606, -7.80970383 ], [ 113.17829132, -7.80998373 ], [ 113.17900085, -7.81007099 ], [ 113.17977142, -7.81017113 ], [ 113.18167877, -7.81038427 ], [ 113.18151855, -7.81123161 ], [ 113.18247986, -7.81132936 ], [ 113.18247223, -7.81149101 ], [ 113.18241882, -7.81158924 ], [ 113.18226624, -7.81162024 ], [ 113.18221283, -7.81170702 ], [ 113.18218994, -7.81228447 ], [ 113.18215942, -7.81236362 ], [ 113.18188477, -7.81235409 ], [ 113.18151855, -7.81232548 ], [ 113.18112183, -7.81225967 ], [ 113.18095398, -7.81215286 ], [ 113.17957306, -7.81196642 ], [ 113.17949677, -7.81191778 ], [ 113.17917633, -7.81189585 ], [ 113.17893982, -7.8118453 ], [ 113.17862701, -7.81181765 ], [ 113.17854309, -7.81178951 ], [ 113.17838287, -7.81178284 ], [ 113.17808533, -7.81173563 ], [ 113.17800903, -7.81223249 ], [ 113.17790985, -7.81233215 ], [ 113.17655945, -7.81216669 ], [ 113.17644501, -7.81214142 ], [ 113.17555237, -7.81201458 ], [ 113.17484283, -7.81197786 ], [ 113.17444611, -7.81191874 ], [ 113.17401886, -7.81183004 ], [ 113.17352295, -7.81176186 ], [ 113.17324066, -7.81183386 ], [ 113.17284393, -7.81192732 ], [ 113.17276001, -7.81191444 ], [ 113.17247009, -7.81186819 ], [ 113.17208862, -7.81188059 ], [ 113.17167664, -7.81191301 ], [ 113.17118835, -7.81194401 ], [ 113.17076874, -7.81195831 ], [ 113.17037201, -7.81182861 ], [ 113.16976166, -7.81170988 ], [ 113.16916656, -7.81151342 ], [ 113.1692276, -7.81129694 ], [ 113.16933441, -7.81098652 ], [ 113.16938782, -7.81072092 ], [ 113.16954803, -7.81001186 ], [ 113.16955566, -7.8099041 ], [ 113.16958618, -7.80983305 ], [ 113.16936493, -7.80978489 ], [ 113.16924286, -7.80973577 ], [ 113.16873169, -7.80962467 ], [ 113.16820526, -7.80947828 ], [ 113.16772461, -7.80936718 ], [ 113.16744232, -7.80931187 ], [ 113.16692352, -7.80920839 ], [ 113.16674042, -7.80916739 ], [ 113.1665802, -7.8091321 ], [ 113.16612244, -7.80904913 ], [ 113.16571808, -7.8089447 ], [ 113.16548157, -7.80885363 ], [ 113.16490173, -7.80864859 ], [ 113.16468811, -7.80857372 ], [ 113.16403198, -7.80835009 ], [ 113.16333008, -7.80814791 ], [ 113.16267395, -7.80792427 ], [ 113.16213226, -7.80771399 ], [ 113.16145325, -7.80748987 ], [ 113.16088867, -7.80729151 ], [ 113.15996552, -7.80700159 ], [ 113.15975189, -7.80692625 ], [ 113.15852356, -7.80647707 ] ] ] ] } }
]
}
