{
"type": "FeatureCollection",
"name": "Kecamatan Wonomerto",
"crs": { "type": "name", "properties": { "name": "urn:ogc:def:crs:OGC:1.3:CRS84" } },
"features": [
{ "type": "Feature", "properties": { "GID_0": "IDN", "NAME_0": "Indonesia", "GID_1": "IDN.11_1", "NAME_1": "Jawa Timur", "NL_NAME_1": null, "GID_2": "IDN.11.30_1", "NAME_2": "Probolinggo", "NL_NAME_2": null, "GID_3": "IDN.11.30.24_1", "NAME_3": "Wonomerto", "VARNAME_3": null, "NL_NAME_3": null, "TYPE_3": "Kecamatan", "ENGTYPE_3": "Sub-district", "CC_3": "3513210", "HASC_3": null }, "geometry": { "type": "MultiPolygon", "coordinates": [ [ [ [ 113.17355347, -7.84110022 ], [ 113.17359924, -7.84123993 ], [ 113.17394257, -7.84206009 ], [ 113.17418671, -7.84274006 ], [ 113.17415619, -7.84292984 ], [ 113.17411041, -7.84318018 ], [ 113.17417145, -7.84333992 ], [ 113.17429352, -7.84346008 ], [ 113.17447662, -7.84364986 ], [ 113.17453766, -7.84385014 ], [ 113.17450714, -7.84397984 ], [ 113.17440033, -7.84411001 ], [ 113.17411804, -7.84445 ], [ 113.17385101, -7.84514999 ], [ 113.17376709, -7.84514999 ], [ 113.17363739, -7.84514999 ], [ 113.17355347, -7.84524012 ], [ 113.17349243, -7.84541988 ], [ 113.17349243, -7.84562016 ], [ 113.1735611, -7.84583998 ], [ 113.17369843, -7.84609985 ], [ 113.17391968, -7.84630013 ], [ 113.17404938, -7.84646988 ], [ 113.17405701, -7.84661007 ], [ 113.17401123, -7.84681988 ], [ 113.1739502, -7.84705019 ], [ 113.1740036, -7.84716988 ], [ 113.17410278, -7.84727001 ], [ 113.17443085, -7.8475399 ], [ 113.17446899, -7.84770012 ], [ 113.17443085, -7.84785986 ], [ 113.17430115, -7.84824991 ], [ 113.17434692, -7.84847021 ], [ 113.17445374, -7.84859991 ], [ 113.1745224, -7.84863567 ], [ 113.17469025, -7.84873009 ], [ 113.17479706, -7.84888983 ], [ 113.17484283, -7.84906006 ], [ 113.17487335, -7.84950018 ], [ 113.17501831, -7.84970999 ], [ 113.17507935, -7.84989977 ], [ 113.17501831, -7.84997988 ], [ 113.17485809, -7.85004997 ], [ 113.17466736, -7.85007 ], [ 113.17453766, -7.85000992 ], [ 113.17397308, -7.84966993 ], [ 113.17378998, -7.84967995 ], [ 113.17363739, -7.84977007 ], [ 113.17353058, -7.8499198 ], [ 113.17353058, -7.85003996 ], [ 113.17359924, -7.85017014 ], [ 113.17395782, -7.85072994 ], [ 113.17392731, -7.85086012 ], [ 113.17363739, -7.85087013 ], [ 113.17350006, -7.85094976 ], [ 113.17344666, -7.85105991 ], [ 113.17344666, -7.8512001 ], [ 113.17352295, -7.85136986 ], [ 113.17360687, -7.85160017 ], [ 113.1735611, -7.85171986 ], [ 113.17344666, -7.85180998 ], [ 113.17327881, -7.85186005 ], [ 113.17307281, -7.85186005 ], [ 113.17276001, -7.85186005 ], [ 113.17263794, -7.85196018 ], [ 113.17256165, -7.85210991 ], [ 113.17254639, -7.85232019 ], [ 113.17259216, -7.85242987 ], [ 113.17269135, -7.85248995 ], [ 113.17282867, -7.85246992 ], [ 113.17297363, -7.8523798 ], [ 113.17314148, -7.85229015 ], [ 113.17328644, -7.85233021 ], [ 113.17333221, -7.85240984 ], [ 113.17330933, -7.85253 ], [ 113.17317963, -7.85274982 ], [ 113.17312622, -7.85291004 ], [ 113.17302704, -7.85342979 ], [ 113.17294312, -7.85370016 ], [ 113.17297363, -7.85382986 ], [ 113.17305756, -7.85391998 ], [ 113.17318726, -7.85394001 ], [ 113.1733017, -7.85388994 ], [ 113.17350006, -7.85381985 ], [ 113.17353821, -7.85393 ], [ 113.17350769, -7.85411978 ], [ 113.17337799, -7.85441017 ], [ 113.17324066, -7.85452986 ], [ 113.17310333, -7.8545599 ], [ 113.17297363, -7.85449982 ], [ 113.17272949, -7.85438013 ], [ 113.17266846, -7.85434008 ], [ 113.17253113, -7.85425997 ], [ 113.17224884, -7.85419989 ], [ 113.17186737, -7.85415983 ], [ 113.17180634, -7.85421991 ], [ 113.17178345, -7.85429001 ], [ 113.17176056, -7.85441017 ], [ 113.17183685, -7.85452986 ], [ 113.17211914, -7.85462999 ], [ 113.17246246, -7.85470009 ], [ 113.1725235, -7.85480022 ], [ 113.17260742, -7.85488987 ], [ 113.17311859, -7.85514021 ], [ 113.17324066, -7.85521984 ], [ 113.17327881, -7.85531998 ], [ 113.17324829, -7.85542011 ], [ 113.17311859, -7.85555983 ], [ 113.1727829, -7.85581017 ], [ 113.17218781, -7.8561902 ], [ 113.17201996, -7.85632038 ], [ 113.17167664, -7.85657978 ], [ 113.17140961, -7.85647011 ], [ 113.1713562, -7.85642004 ], [ 113.1711731, -7.85629988 ], [ 113.17105865, -7.85629988 ], [ 113.17095184, -7.85636997 ], [ 113.17088318, -7.85651016 ], [ 113.17088318, -7.85662985 ], [ 113.17095184, -7.85680008 ], [ 113.17108917, -7.85698986 ], [ 113.17118835, -7.85716009 ], [ 113.1712265, -7.85734987 ], [ 113.1711731, -7.85748005 ], [ 113.17102051, -7.85761023 ], [ 113.17059326, -7.85790014 ], [ 113.17044067, -7.8578701 ], [ 113.17012787, -7.85777998 ], [ 113.16998291, -7.85784006 ], [ 113.16986084, -7.85796022 ], [ 113.16979218, -7.85815001 ], [ 113.16980743, -7.85833979 ], [ 113.16989136, -7.85858011 ], [ 113.16999817, -7.85867977 ], [ 113.17015839, -7.85874987 ], [ 113.17037964, -7.85887003 ], [ 113.1704483, -7.85898018 ], [ 113.1704483, -7.85912991 ], [ 113.17037201, -7.85931015 ], [ 113.17021179, -7.85969019 ], [ 113.17027283, -7.85981989 ], [ 113.17036438, -7.85990953 ], [ 113.17044067, -7.85998011 ], [ 113.17066193, -7.86020994 ], [ 113.17076111, -7.86042976 ], [ 113.17089081, -7.86070013 ], [ 113.17092896, -7.86077976 ], [ 113.17108917, -7.86099005 ], [ 113.17137146, -7.86132002 ], [ 113.17149353, -7.86144018 ], [ 113.17149353, -7.86153984 ], [ 113.17144012, -7.86168003 ], [ 113.17127991, -7.86191988 ], [ 113.17114258, -7.86202002 ], [ 113.17098236, -7.86205006 ], [ 113.17067719, -7.8620801 ], [ 113.17028046, -7.86212015 ], [ 113.17008209, -7.86206007 ], [ 113.16999817, -7.86193991 ], [ 113.16989136, -7.86160994 ], [ 113.16977692, -7.86140013 ], [ 113.16963959, -7.86131001 ], [ 113.16951752, -7.86131001 ], [ 113.16937256, -7.8613801 ], [ 113.16919708, -7.86152983 ], [ 113.16903687, -7.86176014 ], [ 113.16887665, -7.86211014 ], [ 113.16887665, -7.86233997 ], [ 113.1688385, -7.86249018 ], [ 113.16873169, -7.86262989 ], [ 113.16851044, -7.86290979 ], [ 113.16848755, -7.86307001 ], [ 113.16850281, -7.86352015 ], [ 113.16845703, -7.86370993 ], [ 113.16835785, -7.8638401 ], [ 113.16812897, -7.86399984 ], [ 113.16773987, -7.86424017 ], [ 113.16654205, -7.86477995 ], [ 113.16612244, -7.8648901 ], [ 113.16573334, -7.86493015 ], [ 113.1652832, -7.86490011 ], [ 113.16477203, -7.8648901 ], [ 113.16424561, -7.86486721 ], [ 113.16409302, -7.86486006 ], [ 113.16398621, -7.86482382 ], [ 113.16310883, -7.86453009 ], [ 113.16282654, -7.86450005 ], [ 113.16233063, -7.86456013 ], [ 113.16201782, -7.86464024 ], [ 113.16166687, -7.86478996 ], [ 113.16140747, -7.86488008 ], [ 113.16116333, -7.86487007 ], [ 113.16100311, -7.86479998 ], [ 113.16088104, -7.86468983 ], [ 113.16082001, -7.8645401 ], [ 113.16085052, -7.86433983 ], [ 113.16082764, -7.8641901 ], [ 113.16072845, -7.86406994 ], [ 113.1605072, -7.86393976 ], [ 113.16036224, -7.86393023 ], [ 113.16020203, -7.86396027 ], [ 113.16004944, -7.86398983 ], [ 113.15966797, -7.86415005 ], [ 113.15921783, -7.86429977 ], [ 113.15879822, -7.86436987 ], [ 113.15847778, -7.86433983 ], [ 113.15821838, -7.8642602 ], [ 113.15782166, -7.86413002 ], [ 113.1574707, -7.86408997 ], [ 113.15730286, -7.86415005 ], [ 113.15714264, -7.86428022 ], [ 113.1570282, -7.86447001 ], [ 113.15686798, -7.86464977 ], [ 113.15653229, -7.86490011 ], [ 113.15640259, -7.86492014 ], [ 113.15625, -7.86487007 ], [ 113.15614319, -7.86473989 ], [ 113.15590668, -7.86450005 ], [ 113.1558075, -7.86457014 ], [ 113.15572357, -7.86472988 ], [ 113.15561676, -7.86484003 ], [ 113.15532684, -7.86502981 ], [ 113.1550827, -7.86510992 ], [ 113.15471649, -7.86517 ], [ 113.15399933, -7.86526012 ], [ 113.15312195, -7.86534977 ], [ 113.15257263, -7.86523008 ], [ 113.15234375, -7.86528015 ], [ 113.15219879, -7.8653698 ], [ 113.15193176, -7.86568022 ], [ 113.15181732, -7.86596584 ], [ 113.15174103, -7.86604977 ], [ 113.15164948, -7.86611986 ], [ 113.1516037, -7.86624336 ], [ 113.15145874, -7.8667202 ], [ 113.15135956, -7.86676979 ], [ 113.15119934, -7.86674023 ], [ 113.15054321, -7.86662006 ], [ 113.15029907, -7.86668015 ], [ 113.14952087, -7.86699009 ], [ 113.14933014, -7.86710644 ], [ 113.14923859, -7.86715984 ], [ 113.14833832, -7.86780024 ], [ 113.14801025, -7.86791992 ], [ 113.14775848, -7.86791992 ], [ 113.14756775, -7.86785984 ], [ 113.14739227, -7.86771011 ], [ 113.1472168, -7.86748981 ], [ 113.14704895, -7.86709976 ], [ 113.1468811, -7.86682987 ], [ 113.14674377, -7.86674023 ], [ 113.14643097, -7.86664009 ], [ 113.14617157, -7.86651993 ], [ 113.14588165, -7.86630011 ], [ 113.14550781, -7.86607981 ], [ 113.1452713, -7.86603022 ], [ 113.14512634, -7.86607981 ], [ 113.14499664, -7.86620998 ], [ 113.14485168, -7.86646986 ], [ 113.14467621, -7.86685991 ], [ 113.14453125, -7.86744022 ], [ 113.14430237, -7.8675499 ], [ 113.14378357, -7.86798 ], [ 113.14360809, -7.86791992 ], [ 113.14340973, -7.86788988 ], [ 113.14315796, -7.86791992 ], [ 113.14302063, -7.86790991 ], [ 113.14289093, -7.86781979 ], [ 113.14263916, -7.86769009 ], [ 113.14241791, -7.86766005 ], [ 113.1421814, -7.86769009 ], [ 113.14209747, -7.8677702 ], [ 113.14206696, -7.86787987 ], [ 113.14201355, -7.8681798 ], [ 113.141922, -7.86816978 ], [ 113.14183807, -7.86809015 ], [ 113.14180756, -7.86793995 ], [ 113.14173889, -7.86780977 ], [ 113.14163971, -7.86779022 ], [ 113.14144135, -7.86781979 ], [ 113.14122009, -7.8678298 ], [ 113.14099884, -7.86775017 ], [ 113.14074707, -7.86758995 ], [ 113.14066315, -7.86745977 ], [ 113.14055634, -7.86716986 ], [ 113.14057922, -7.86699009 ], [ 113.14067078, -7.86679983 ], [ 113.14086151, -7.86661005 ], [ 113.14103699, -7.86640978 ], [ 113.14100647, -7.86634016 ], [ 113.14087677, -7.86625004 ], [ 113.14057159, -7.86613989 ], [ 113.14035797, -7.86615992 ], [ 113.13996887, -7.86618996 ], [ 113.13941956, -7.86618996 ], [ 113.13928986, -7.86624002 ], [ 113.1391983, -7.86619997 ], [ 113.13912964, -7.86611986 ], [ 113.13909912, -7.86596012 ], [ 113.13900757, -7.86583996 ], [ 113.13878632, -7.86554003 ], [ 113.13886261, -7.86534977 ], [ 113.13886261, -7.86505985 ], [ 113.13874817, -7.8650198 ], [ 113.13848877, -7.86495018 ], [ 113.13819885, -7.86474991 ], [ 113.13806152, -7.86478996 ], [ 113.13796234, -7.86488008 ], [ 113.13780975, -7.8650198 ], [ 113.13767242, -7.86499977 ], [ 113.13751221, -7.8650198 ], [ 113.13744354, -7.86508989 ], [ 113.13742828, -7.86522007 ], [ 113.13739777, -7.86542988 ], [ 113.13726807, -7.86569977 ], [ 113.13707733, -7.86590004 ], [ 113.13680267, -7.86612988 ], [ 113.13665009, -7.86613989 ], [ 113.13638306, -7.86612988 ], [ 113.1362915, -7.86622 ], [ 113.13627625, -7.86635017 ], [ 113.13625336, -7.86646938 ], [ 113.13623047, -7.86661005 ], [ 113.13610077, -7.86680984 ], [ 113.13594818, -7.86691999 ], [ 113.13574982, -7.8670001 ], [ 113.13549042, -7.86704016 ], [ 113.13516235, -7.86709023 ], [ 113.13459015, -7.86701012 ], [ 113.13436127, -7.86708021 ], [ 113.13421631, -7.86713171 ], [ 113.13407898, -7.86717987 ], [ 113.13375092, -7.86714983 ], [ 113.13340759, -7.86704016 ], [ 113.13316345, -7.86701012 ], [ 113.13265991, -7.86687994 ], [ 113.13220215, -7.86688995 ], [ 113.13213348, -7.86678982 ], [ 113.13208008, -7.86659002 ], [ 113.13201141, -7.86646986 ], [ 113.13186646, -7.86629009 ], [ 113.13175964, -7.8662014 ], [ 113.13182831, -7.8661499 ], [ 113.13200378, -7.86547995 ], [ 113.13214111, -7.86507988 ], [ 113.13217926, -7.86474991 ], [ 113.13214111, -7.86442995 ], [ 113.13210297, -7.8641901 ], [ 113.13208771, -7.86386013 ], [ 113.13200378, -7.86330986 ], [ 113.13195801, -7.86322975 ], [ 113.13191986, -7.86315012 ], [ 113.13175201, -7.86303997 ], [ 113.13141632, -7.86288977 ], [ 113.13128662, -7.8628602 ], [ 113.13111877, -7.86291981 ], [ 113.13101959, -7.86296988 ], [ 113.13088989, -7.86290979 ], [ 113.13072205, -7.86275005 ], [ 113.1306076, -7.86271 ], [ 113.13023376, -7.86253023 ], [ 113.13002014, -7.86247015 ], [ 113.12973785, -7.86244011 ], [ 113.12957001, -7.86248016 ], [ 113.12917328, -7.86178255 ], [ 113.12891388, -7.86133099 ], [ 113.12882996, -7.86118984 ], [ 113.12879181, -7.86109495 ], [ 113.12872314, -7.86091995 ], [ 113.12857819, -7.8604598 ], [ 113.12854004, -7.86023998 ], [ 113.12863159, -7.8600502 ], [ 113.12876129, -7.85993004 ], [ 113.12876129, -7.85983467 ], [ 113.12875366, -7.85934019 ], [ 113.12875366, -7.85889006 ], [ 113.12872314, -7.85845995 ], [ 113.12879181, -7.85795021 ], [ 113.12879181, -7.85778952 ], [ 113.12879181, -7.85753012 ], [ 113.12870789, -7.85680008 ], [ 113.12847137, -7.85598993 ], [ 113.12796021, -7.85534 ], [ 113.12776184, -7.85502005 ], [ 113.12735748, -7.85451984 ], [ 113.12726593, -7.85438156 ], [ 113.1271286, -7.85418987 ], [ 113.12689209, -7.85372019 ], [ 113.12661743, -7.85331011 ], [ 113.12638092, -7.85298395 ], [ 113.126297, -7.85253 ], [ 113.12615204, -7.85234022 ], [ 113.12586212, -7.85198021 ], [ 113.12586975, -7.85164022 ], [ 113.12595367, -7.85149002 ], [ 113.12605286, -7.85119009 ], [ 113.12606812, -7.85093021 ], [ 113.12606812, -7.85067987 ], [ 113.126091, -7.85038996 ], [ 113.12615967, -7.85023022 ], [ 113.12626648, -7.84987068 ], [ 113.126297, -7.84976006 ], [ 113.12628937, -7.84888983 ], [ 113.12638092, -7.84837008 ], [ 113.12637329, -7.84780979 ], [ 113.12638092, -7.84737015 ], [ 113.12638855, -7.84729004 ], [ 113.12641907, -7.84689999 ], [ 113.12635803, -7.84636021 ], [ 113.12624359, -7.8459301 ], [ 113.1261673, -7.84540987 ], [ 113.12602234, -7.84497976 ], [ 113.12593842, -7.84463978 ], [ 113.12583923, -7.84421015 ], [ 113.12576294, -7.84384012 ], [ 113.12570953, -7.84365988 ], [ 113.12561798, -7.84339094 ], [ 113.12532043, -7.84241009 ], [ 113.12525177, -7.84197998 ], [ 113.12521362, -7.84166002 ], [ 113.12523651, -7.84124899 ], [ 113.12552643, -7.84014988 ], [ 113.12568665, -7.83971024 ], [ 113.12589264, -7.83916998 ], [ 113.1259613, -7.8389802 ], [ 113.12605286, -7.83855009 ], [ 113.12612152, -7.83803988 ], [ 113.12612915, -7.8376298 ], [ 113.12608337, -7.83753014 ], [ 113.12604523, -7.83690643 ], [ 113.1260376, -7.83678007 ], [ 113.1260376, -7.83659983 ], [ 113.1261673, -7.83483982 ], [ 113.1261673, -7.83372021 ], [ 113.12615204, -7.83340979 ], [ 113.12610626, -7.83291006 ], [ 113.12610626, -7.83228016 ], [ 113.12606049, -7.83186007 ], [ 113.1259079, -7.83111 ], [ 113.12586975, -7.83063984 ], [ 113.12574768, -7.82982016 ], [ 113.12570953, -7.82921982 ], [ 113.12567139, -7.8289299 ], [ 113.12568665, -7.82849979 ], [ 113.12573242, -7.82799006 ], [ 113.12574005, -7.82753992 ], [ 113.12574768, -7.82722855 ], [ 113.12557983, -7.82725382 ], [ 113.12537384, -7.82727909 ], [ 113.12520599, -7.8271513 ], [ 113.12512207, -7.82694292 ], [ 113.12506866, -7.82674694 ], [ 113.12502289, -7.82647133 ], [ 113.12497711, -7.82632399 ], [ 113.12480927, -7.82626963 ], [ 113.12464142, -7.82633209 ], [ 113.12449646, -7.8264308 ], [ 113.12435913, -7.82649279 ], [ 113.12421417, -7.82656097 ], [ 113.12399292, -7.82667875 ], [ 113.12376404, -7.8266921 ], [ 113.12348175, -7.82665062 ], [ 113.12330627, -7.82667637 ], [ 113.12316895, -7.82677507 ], [ 113.12301636, -7.82689238 ], [ 113.12283325, -7.82707119 ], [ 113.12255096, -7.82710314 ], [ 113.12230682, -7.82709837 ], [ 113.12206268, -7.82705069 ], [ 113.12187195, -7.82700253 ], [ 113.12168121, -7.82711363 ], [ 113.12148285, -7.82720089 ], [ 113.12150574, -7.82736015 ], [ 113.12154388, -7.82755613 ], [ 113.12145233, -7.82776546 ], [ 113.12125397, -7.82793188 ], [ 113.12104034, -7.82806778 ], [ 113.12084198, -7.8283205 ], [ 113.12075043, -7.82852936 ], [ 113.12065887, -7.82876921 ], [ 113.12046814, -7.82898474 ], [ 113.12017822, -7.82919502 ], [ 113.11998749, -7.82932186 ], [ 113.11985016, -7.82922983 ], [ 113.11966705, -7.82918978 ], [ 113.11947632, -7.82912016 ], [ 113.11940765, -7.82904005 ], [ 113.11927795, -7.82896471 ], [ 113.11911774, -7.82893848 ], [ 113.11878967, -7.82879019 ], [ 113.1180191, -7.82845879 ], [ 113.11773682, -7.82853556 ], [ 113.11746216, -7.82842064 ], [ 113.11724854, -7.82818317 ], [ 113.11698914, -7.82799006 ], [ 113.1169281, -7.82795 ], [ 113.11665344, -7.82782984 ], [ 113.1162262, -7.82764006 ], [ 113.11544037, -7.82723999 ], [ 113.11490631, -7.82690001 ], [ 113.11431122, -7.82652998 ], [ 113.11391449, -7.8262887 ], [ 113.11366272, -7.82612991 ], [ 113.11325073, -7.82588005 ], [ 113.1128006, -7.82560015 ], [ 113.11209106, -7.82521009 ], [ 113.11167908, -7.82496977 ], [ 113.11112213, -7.82456017 ], [ 113.11058044, -7.82406998 ], [ 113.11003113, -7.8236599 ], [ 113.10962677, -7.82322979 ], [ 113.10929108, -7.82280016 ], [ 113.10904694, -7.82243013 ], [ 113.10894775, -7.8222599 ], [ 113.10868835, -7.82191992 ], [ 113.10838318, -7.82152987 ], [ 113.10785675, -7.82104015 ], [ 113.1075592, -7.82074165 ], [ 113.10749054, -7.82067299 ], [ 113.10739899, -7.82058001 ], [ 113.10704803, -7.82028008 ], [ 113.10643768, -7.81978989 ], [ 113.10585785, -7.81945992 ], [ 113.10562897, -7.81933022 ], [ 113.10532379, -7.81915998 ], [ 113.10481262, -7.81890011 ], [ 113.10439301, -7.81864977 ], [ 113.10388184, -7.81832981 ], [ 113.10347748, -7.81795979 ], [ 113.10301208, -7.81753016 ], [ 113.10269165, -7.81715012 ], [ 113.10228729, -7.81669998 ], [ 113.10192871, -7.81639004 ], [ 113.1019516, -7.81629992 ], [ 113.10198975, -7.81500006 ], [ 113.10211945, -7.81478977 ], [ 113.10224915, -7.81466007 ], [ 113.10241699, -7.81463003 ], [ 113.10269928, -7.81456995 ], [ 113.1029129, -7.81444979 ], [ 113.10321808, -7.81425953 ], [ 113.10346985, -7.81429768 ], [ 113.10387421, -7.81431484 ], [ 113.10421753, -7.81431293 ], [ 113.10433197, -7.81413841 ], [ 113.10436249, -7.81390762 ], [ 113.10440826, -7.81370974 ], [ 113.10469055, -7.8137269 ], [ 113.10503387, -7.81374407 ], [ 113.10520935, -7.81371498 ], [ 113.10523987, -7.81359529 ], [ 113.10529327, -7.81338501 ], [ 113.10549164, -7.81333685 ], [ 113.10560608, -7.81338406 ], [ 113.10577393, -7.81345797 ], [ 113.10616302, -7.8135314 ], [ 113.10639191, -7.81357718 ], [ 113.10668182, -7.81371689 ], [ 113.10699463, -7.81374359 ], [ 113.10723877, -7.81372356 ], [ 113.10747528, -7.81360006 ], [ 113.10752869, -7.81350136 ], [ 113.10758209, -7.81339264 ], [ 113.10772705, -7.8131752 ], [ 113.10780334, -7.81291151 ], [ 113.10784912, -7.81270409 ], [ 113.10803986, -7.81264162 ], [ 113.10820007, -7.81258917 ], [ 113.10847473, -7.81250334 ], [ 113.10871124, -7.81253147 ], [ 113.10884857, -7.81254816 ], [ 113.10907745, -7.8124156 ], [ 113.10919952, -7.81217003 ], [ 113.10920715, -7.81200075 ], [ 113.10933685, -7.81184006 ], [ 113.10939789, -7.8117671 ], [ 113.10951996, -7.81171942 ], [ 113.10964966, -7.81181288 ], [ 113.11019135, -7.81173468 ], [ 113.11037445, -7.81156445 ], [ 113.11064148, -7.81162882 ], [ 113.11094666, -7.81146717 ], [ 113.11113739, -7.81124973 ], [ 113.11135101, -7.8110981 ], [ 113.11151886, -7.81104088 ], [ 113.11164093, -7.8110404 ], [ 113.11184692, -7.81127453 ], [ 113.11203766, -7.8112359 ], [ 113.11220551, -7.81106567 ], [ 113.11233521, -7.81092405 ], [ 113.11241913, -7.81084967 ], [ 113.11257935, -7.81078005 ], [ 113.11287689, -7.81065989 ], [ 113.11296844, -7.81058979 ], [ 113.11309052, -7.81017208 ], [ 113.11322784, -7.81010056 ], [ 113.11345673, -7.81009007 ], [ 113.11373901, -7.80998468 ], [ 113.11460114, -7.81005573 ], [ 113.11484528, -7.80994081 ], [ 113.11488342, -7.80980349 ], [ 113.1149292, -7.80964947 ], [ 113.1149826, -7.80939484 ], [ 113.11512756, -7.80934429 ], [ 113.11514282, -7.80926991 ], [ 113.11533356, -7.80926132 ], [ 113.11558533, -7.8093071 ], [ 113.11562347, -7.80905008 ], [ 113.11607361, -7.80909014 ], [ 113.1162796, -7.80899 ], [ 113.11708832, -7.80861998 ], [ 113.11714172, -7.80854988 ], [ 113.11715698, -7.80843019 ], [ 113.11721802, -7.80815983 ], [ 113.11727142, -7.80776978 ], [ 113.11734772, -7.80723 ], [ 113.11752319, -7.80690002 ], [ 113.11772919, -7.80669022 ], [ 113.11791229, -7.80656004 ], [ 113.11833954, -7.80639982 ], [ 113.11871338, -7.80629253 ], [ 113.11889648, -7.80624008 ], [ 113.11908722, -7.80618715 ], [ 113.11932373, -7.80611992 ], [ 113.11934662, -7.80599022 ], [ 113.11943054, -7.80572987 ], [ 113.11956787, -7.80553007 ], [ 113.11985016, -7.80522013 ], [ 113.11997986, -7.80502987 ], [ 113.12029266, -7.80464983 ], [ 113.1204071, -7.8045001 ], [ 113.12059784, -7.80426979 ], [ 113.12091064, -7.80408001 ], [ 113.12159729, -7.8039999 ], [ 113.12203217, -7.80385017 ], [ 113.12226105, -7.80360985 ], [ 113.1223526, -7.80342007 ], [ 113.12236023, -7.80327225 ], [ 113.12232208, -7.80296993 ], [ 113.12226868, -7.80262041 ], [ 113.12232971, -7.80247021 ], [ 113.12242889, -7.80237007 ], [ 113.12275696, -7.80232 ], [ 113.12307739, -7.80224991 ], [ 113.12362671, -7.80193996 ], [ 113.1239624, -7.80198193 ], [ 113.12410736, -7.80189991 ], [ 113.12412262, -7.80175018 ], [ 113.12415314, -7.80152893 ], [ 113.12419128, -7.80130005 ], [ 113.12426758, -7.80120993 ], [ 113.12439728, -7.80115986 ], [ 113.12451172, -7.80111122 ], [ 113.12460327, -7.80107021 ], [ 113.12465668, -7.80096006 ], [ 113.12464142, -7.80082989 ], [ 113.12454224, -7.80067015 ], [ 113.12433624, -7.80052996 ], [ 113.12422943, -7.80038023 ], [ 113.12413025, -7.80008984 ], [ 113.12402344, -7.79973984 ], [ 113.12384796, -7.79954004 ], [ 113.12365723, -7.79935789 ], [ 113.1235199, -7.79913998 ], [ 113.12361908, -7.7990799 ], [ 113.12393188, -7.79901981 ], [ 113.1241684, -7.7989502 ], [ 113.12426758, -7.79886007 ], [ 113.12461853, -7.79859018 ], [ 113.12476349, -7.79842997 ], [ 113.12486267, -7.7981801 ], [ 113.125, -7.79794979 ], [ 113.12509918, -7.79779005 ], [ 113.12522125, -7.79769993 ], [ 113.12547302, -7.79752016 ], [ 113.12571716, -7.79721117 ], [ 113.12580109, -7.79709005 ], [ 113.12597656, -7.79694986 ], [ 113.12641144, -7.79668999 ], [ 113.12644196, -7.79662228 ], [ 113.12657928, -7.79628992 ], [ 113.12689209, -7.79610014 ], [ 113.12718964, -7.79615021 ], [ 113.12756348, -7.79629993 ], [ 113.12814331, -7.79629993 ], [ 113.12843323, -7.79633999 ], [ 113.12877655, -7.79639912 ], [ 113.12976837, -7.79658985 ], [ 113.12994385, -7.7965498 ], [ 113.13046265, -7.79643011 ], [ 113.13105011, -7.79624987 ], [ 113.13162231, -7.79603004 ], [ 113.13237, -7.79588985 ], [ 113.13304138, -7.79582977 ], [ 113.13365936, -7.79562998 ], [ 113.13427734, -7.7954402 ], [ 113.13491058, -7.79527998 ], [ 113.13549805, -7.79511976 ], [ 113.13557434, -7.7950983 ], [ 113.13598633, -7.79498005 ], [ 113.13626862, -7.79485989 ], [ 113.13667297, -7.79461145 ], [ 113.13719177, -7.79429007 ], [ 113.13761902, -7.79401016 ], [ 113.13793945, -7.79377985 ], [ 113.13809204, -7.7936101 ], [ 113.13844299, -7.79332018 ], [ 113.13874817, -7.79302979 ], [ 113.13897705, -7.79290009 ], [ 113.13928986, -7.79271984 ], [ 113.13983154, -7.79252005 ], [ 113.1401825, -7.79246998 ], [ 113.14042664, -7.79242992 ], [ 113.14083099, -7.79237986 ], [ 113.14115906, -7.7923398 ], [ 113.14177704, -7.79224014 ], [ 113.14243317, -7.7923398 ], [ 113.14306641, -7.79231977 ], [ 113.14353943, -7.79219007 ], [ 113.14404297, -7.79218006 ], [ 113.14453125, -7.79212999 ], [ 113.14499664, -7.79203987 ], [ 113.14550018, -7.79202986 ], [ 113.14588928, -7.79195976 ], [ 113.14663696, -7.79190016 ], [ 113.14711761, -7.79157019 ], [ 113.14772034, -7.79118013 ], [ 113.14820862, -7.79085016 ], [ 113.14872742, -7.79056978 ], [ 113.14916992, -7.79029989 ], [ 113.14955139, -7.79000998 ], [ 113.14980316, -7.78980017 ], [ 113.14987946, -7.7897644 ], [ 113.15007782, -7.78977871 ], [ 113.15029907, -7.78985786 ], [ 113.15045929, -7.78997755 ], [ 113.15052795, -7.79007435 ], [ 113.15059662, -7.7901144 ], [ 113.1509552, -7.79018116 ], [ 113.15126038, -7.79028845 ], [ 113.15142059, -7.79040241 ], [ 113.15161896, -7.79043579 ], [ 113.1520462, -7.7906456 ], [ 113.1521225, -7.79074574 ], [ 113.15219116, -7.79083967 ], [ 113.15226746, -7.79104567 ], [ 113.1523819, -7.79118824 ], [ 113.15253448, -7.79130793 ], [ 113.15263367, -7.79140997 ], [ 113.15235901, -7.79160023 ], [ 113.1521225, -7.79187012 ], [ 113.15203094, -7.79206991 ], [ 113.15200043, -7.79231977 ], [ 113.1519928, -7.79245996 ], [ 113.15194702, -7.79265022 ], [ 113.15202332, -7.79288006 ], [ 113.15200806, -7.79327011 ], [ 113.15193939, -7.79448986 ], [ 113.15216064, -7.79522514 ], [ 113.15232086, -7.79543972 ], [ 113.15254974, -7.795753 ], [ 113.15248871, -7.79605961 ], [ 113.15222931, -7.79619455 ], [ 113.1523056, -7.79647684 ], [ 113.15247345, -7.79662514 ], [ 113.15222931, -7.79698753 ], [ 113.15200806, -7.79715347 ], [ 113.15203857, -7.79736996 ], [ 113.15209961, -7.79749012 ], [ 113.15223694, -7.79763985 ], [ 113.1523819, -7.7976799 ], [ 113.15263367, -7.79758215 ], [ 113.15306091, -7.79753304 ], [ 113.15346527, -7.79753113 ], [ 113.15362549, -7.79753017 ], [ 113.15380096, -7.79765511 ], [ 113.15394592, -7.79781103 ], [ 113.15395355, -7.79798412 ], [ 113.1537323, -7.79833841 ], [ 113.15357208, -7.79853582 ], [ 113.15346527, -7.79882669 ], [ 113.15346527, -7.79914856 ], [ 113.15357208, -7.79940414 ], [ 113.15361786, -7.79950333 ], [ 113.15373993, -7.79978371 ], [ 113.15363312, -7.80024004 ], [ 113.15355682, -7.80034018 ], [ 113.1534729, -7.80038023 ], [ 113.15332794, -7.80035019 ], [ 113.1532135, -7.80026007 ], [ 113.1530838, -7.80008984 ], [ 113.15287018, -7.79974985 ], [ 113.15277863, -7.79972982 ], [ 113.15274048, -7.79980993 ], [ 113.15271759, -7.80003023 ], [ 113.15296173, -7.80095768 ], [ 113.15304565, -7.80120039 ], [ 113.15323639, -7.80142736 ], [ 113.15328979, -7.80162334 ], [ 113.15330505, -7.80180788 ], [ 113.15370178, -7.80189276 ], [ 113.15419769, -7.80199718 ], [ 113.15460968, -7.80214596 ], [ 113.15563202, -7.80228996 ], [ 113.15628815, -7.80236006 ], [ 113.15711975, -7.80244446 ], [ 113.15818024, -7.80262613 ], [ 113.1592865, -7.80298805 ], [ 113.15925598, -7.80309629 ], [ 113.15847015, -7.80523014 ], [ 113.1582489, -7.80583096 ], [ 113.1581955, -7.80595255 ], [ 113.15851593, -7.80609703 ], [ 113.15852356, -7.80647707 ], [ 113.15975189, -7.80692625 ], [ 113.15996552, -7.80700159 ], [ 113.16088867, -7.80729151 ], [ 113.16145325, -7.80748987 ], [ 113.16213226, -7.80771399 ], [ 113.16267395, -7.80792427 ], [ 113.16333008, -7.80814791 ], [ 113.16403198, -7.80835009 ], [ 113.16468811, -7.80857372 ], [ 113.16490173, -7.80864859 ], [ 113.16548157, -7.80885363 ], [ 113.16571808, -7.8089447 ], [ 113.16612244, -7.80904913 ], [ 113.1665802, -7.8091321 ], [ 113.16674042, -7.80916739 ], [ 113.16692352, -7.80920839 ], [ 113.16744232, -7.80931187 ], [ 113.16772461, -7.80936718 ], [ 113.16820526, -7.80947828 ], [ 113.16873169, -7.80962467 ], [ 113.16924286, -7.80973577 ], [ 113.16936493, -7.80978489 ], [ 113.16958618, -7.80983305 ], [ 113.16955566, -7.8099041 ], [ 113.16954803, -7.81001186 ], [ 113.16938782, -7.81072092 ], [ 113.16933441, -7.81098652 ], [ 113.1692276, -7.81129694 ], [ 113.16916656, -7.81151342 ], [ 113.16976166, -7.81170988 ], [ 113.17037201, -7.81182861 ], [ 113.17076874, -7.81195831 ], [ 113.17118835, -7.81194401 ], [ 113.17167664, -7.81191301 ], [ 113.17208862, -7.81188059 ], [ 113.17247009, -7.81186819 ], [ 113.17276001, -7.81191444 ], [ 113.17284393, -7.81192732 ], [ 113.17324066, -7.81183386 ], [ 113.17352295, -7.81176186 ], [ 113.17401886, -7.81183004 ], [ 113.17444611, -7.81191874 ], [ 113.17484283, -7.81197786 ], [ 113.17555237, -7.81201458 ], [ 113.17644501, -7.81214142 ], [ 113.17655945, -7.81216669 ], [ 113.17790985, -7.81233215 ], [ 113.17800903, -7.81223249 ], [ 113.17808533, -7.81173563 ], [ 113.17838287, -7.81178284 ], [ 113.17854309, -7.81178951 ], [ 113.17862701, -7.81181765 ], [ 113.17893982, -7.8118453 ], [ 113.17917633, -7.81189585 ], [ 113.17949677, -7.81191778 ], [ 113.17957306, -7.81196642 ], [ 113.18095398, -7.81215286 ], [ 113.18112183, -7.81225967 ], [ 113.18151855, -7.81232548 ], [ 113.18188477, -7.81235409 ], [ 113.18215942, -7.81236362 ], [ 113.18218994, -7.81228447 ], [ 113.18221283, -7.81170702 ], [ 113.18226624, -7.81162024 ], [ 113.18241882, -7.81158924 ], [ 113.18247223, -7.81149101 ], [ 113.18247986, -7.81132936 ], [ 113.18248749, -7.81120586 ], [ 113.18257141, -7.81075144 ], [ 113.18341064, -7.81083536 ], [ 113.183815, -7.81086445 ], [ 113.18539429, -7.81104136 ], [ 113.18701935, -7.81122303 ], [ 113.18821716, -7.81140709 ], [ 113.1889267, -7.81152582 ], [ 113.18911743, -7.81155777 ], [ 113.1897583, -7.81167126 ], [ 113.19020081, -7.81174755 ], [ 113.19062042, -7.81181335 ], [ 113.19174194, -7.81195402 ], [ 113.19314575, -7.8121295 ], [ 113.19326019, -7.81212139 ], [ 113.193367, -7.81214619 ], [ 113.19438934, -7.81211996 ], [ 113.19471741, -7.81211805 ], [ 113.19488525, -7.81210327 ], [ 113.19566345, -7.81203604 ], [ 113.19600677, -7.81204939 ], [ 113.1967392, -7.81212854 ], [ 113.19721222, -7.81217241 ], [ 113.19759369, -7.81220675 ], [ 113.19791412, -7.81225443 ], [ 113.19855499, -7.81234694 ], [ 113.19937134, -7.81248808 ], [ 113.20015717, -7.81247759 ], [ 113.20049286, -7.81197166 ], [ 113.20084381, -7.8115592 ], [ 113.20114899, -7.81132936 ], [ 113.20137024, -7.81124735 ], [ 113.20158386, -7.81118441 ], [ 113.2016983, -7.81113815 ], [ 113.20178223, -7.81106234 ], [ 113.20187378, -7.81091595 ], [ 113.20188141, -7.81069422 ], [ 113.20192719, -7.8098526 ], [ 113.20220947, -7.80911875 ], [ 113.20218658, -7.80884218 ], [ 113.20214844, -7.80865908 ], [ 113.20226288, -7.80838394 ], [ 113.20232391, -7.80832386 ], [ 113.20238495, -7.80825663 ], [ 113.20292664, -7.80761576 ], [ 113.20301056, -7.80738974 ], [ 113.20304871, -7.80664682 ], [ 113.20309448, -7.80649471 ], [ 113.20314026, -7.80634785 ], [ 113.20330048, -7.80627203 ], [ 113.20359039, -7.80601072 ], [ 113.20402527, -7.80556679 ], [ 113.20420074, -7.80531359 ], [ 113.20463562, -7.80470991 ], [ 113.2049408, -7.80436182 ], [ 113.20513153, -7.80440474 ], [ 113.205513, -7.80457115 ], [ 113.20587921, -7.8046813 ], [ 113.20605469, -7.80473137 ], [ 113.20627594, -7.80486107 ], [ 113.20668793, -7.80504704 ], [ 113.20681763, -7.80505323 ], [ 113.20680237, -7.80520582 ], [ 113.2066803, -7.8062067 ], [ 113.20663452, -7.80663347 ], [ 113.20713043, -7.80679178 ], [ 113.20718384, -7.80710649 ], [ 113.20720673, -7.80724669 ], [ 113.2069931, -7.80770159 ], [ 113.20639801, -7.8075037 ], [ 113.20627594, -7.80799818 ], [ 113.20659637, -7.80809689 ], [ 113.20683289, -7.80785942 ], [ 113.20713043, -7.80801773 ], [ 113.2069931, -7.80852032 ], [ 113.2064209, -7.80839348 ], [ 113.20622253, -7.80899477 ], [ 113.20585632, -7.80883455 ], [ 113.20566559, -7.80942869 ], [ 113.20540619, -7.80937576 ], [ 113.20498657, -7.81066847 ], [ 113.20477295, -7.81131506 ], [ 113.20515442, -7.81143379 ], [ 113.20506287, -7.8117528 ], [ 113.20503235, -7.81192303 ], [ 113.2046051, -7.81178236 ], [ 113.20410156, -7.8135767 ], [ 113.20428467, -7.81365776 ], [ 113.2045517, -7.81377792 ], [ 113.20442963, -7.81408405 ], [ 113.20514679, -7.81440639 ], [ 113.20526886, -7.81401873 ], [ 113.20607758, -7.81427145 ], [ 113.20655823, -7.81441927 ], [ 113.20649719, -7.81463099 ], [ 113.20657349, -7.81465816 ], [ 113.20685577, -7.81478834 ], [ 113.20737457, -7.81490326 ], [ 113.20745087, -7.81457329 ], [ 113.20779419, -7.81468105 ], [ 113.20802307, -7.81476879 ], [ 113.20800018, -7.81497478 ], [ 113.207901, -7.81528139 ], [ 113.20783997, -7.81548214 ], [ 113.2077713, -7.81558466 ], [ 113.20773315, -7.81568289 ], [ 113.20765686, -7.81583929 ], [ 113.20761871, -7.81592703 ], [ 113.2074585, -7.81607723 ], [ 113.20726776, -7.81631804 ], [ 113.20704651, -7.81645727 ], [ 113.20693207, -7.8168211 ], [ 113.20639801, -7.81726599 ], [ 113.20635986, -7.81733894 ], [ 113.20563507, -7.81866169 ], [ 113.20539856, -7.81998491 ], [ 113.20503235, -7.81993628 ], [ 113.20441437, -7.81984568 ], [ 113.20175171, -7.81965446 ], [ 113.19944763, -7.81817484 ], [ 113.19933319, -7.81832409 ], [ 113.19927216, -7.8184371 ], [ 113.19917297, -7.81862926 ], [ 113.19904327, -7.81886721 ], [ 113.19860077, -7.81968212 ], [ 113.1984024, -7.82005548 ], [ 113.19830322, -7.82022524 ], [ 113.19816589, -7.82048559 ], [ 113.19810486, -7.82059956 ], [ 113.19674683, -7.82327366 ], [ 113.19617462, -7.82305765 ], [ 113.19542694, -7.8227005 ], [ 113.19528961, -7.82276869 ], [ 113.19469452, -7.82331371 ], [ 113.19386292, -7.82281017 ], [ 113.19350433, -7.82241535 ], [ 113.19342041, -7.82252979 ], [ 113.19320679, -7.82271004 ], [ 113.19277954, -7.82310009 ], [ 113.19271088, -7.82326984 ], [ 113.19255829, -7.8239398 ], [ 113.19246674, -7.82414007 ], [ 113.19233704, -7.82425022 ], [ 113.19219208, -7.82429981 ], [ 113.19165039, -7.82440996 ], [ 113.19161224, -7.82454014 ], [ 113.19152832, -7.82512999 ], [ 113.19151306, -7.82535982 ], [ 113.19146729, -7.82561016 ], [ 113.19125366, -7.82638979 ], [ 113.19114685, -7.82651663 ], [ 113.19106293, -7.8266201 ], [ 113.19078064, -7.82685995 ], [ 113.19059753, -7.82694006 ], [ 113.19039154, -7.82695007 ], [ 113.18985748, -7.82691002 ], [ 113.18924713, -7.82683992 ], [ 113.18908691, -7.82682085 ], [ 113.18856812, -7.82675982 ], [ 113.18811035, -7.82672024 ], [ 113.18788147, -7.82660007 ], [ 113.18775177, -7.82643986 ], [ 113.18759918, -7.82623148 ], [ 113.1875, -7.82609987 ], [ 113.18733978, -7.82601976 ], [ 113.18713379, -7.82598019 ], [ 113.18694305, -7.82601023 ], [ 113.18669891, -7.8261199 ], [ 113.18639374, -7.82626009 ], [ 113.18612671, -7.82631016 ], [ 113.1859436, -7.8262701 ], [ 113.1857605, -7.82615995 ], [ 113.18560791, -7.8259902 ], [ 113.18537903, -7.8257699 ], [ 113.18515778, -7.82567978 ], [ 113.18491364, -7.82565022 ], [ 113.18457794, -7.82567978 ], [ 113.18428802, -7.82577991 ], [ 113.18405914, -7.82593012 ], [ 113.18374634, -7.82618999 ], [ 113.18348694, -7.82650995 ], [ 113.1831665, -7.82687998 ], [ 113.1831131, -7.82694006 ], [ 113.18280792, -7.82727003 ], [ 113.18273163, -7.82737255 ], [ 113.18264008, -7.82762861 ], [ 113.1825943, -7.82796049 ], [ 113.18270874, -7.82825708 ], [ 113.18321991, -7.8286624 ], [ 113.18349457, -7.8288269 ], [ 113.18350983, -7.82895565 ], [ 113.18341827, -7.82909679 ], [ 113.18331909, -7.8292284 ], [ 113.18309021, -7.82925749 ], [ 113.18286896, -7.82913399 ], [ 113.18258667, -7.82896948 ], [ 113.18234253, -7.82897091 ], [ 113.18226624, -7.82901859 ], [ 113.18199158, -7.82918692 ], [ 113.18199158, -7.8294425 ], [ 113.18218994, -7.82962847 ], [ 113.18224335, -7.82990026 ], [ 113.18196106, -7.83020306 ], [ 113.18160248, -7.83029127 ], [ 113.18153381, -7.8303299 ], [ 113.18119049, -7.83058977 ], [ 113.18105316, -7.83078003 ], [ 113.18106079, -7.83088017 ], [ 113.18112183, -7.83100986 ], [ 113.18128204, -7.83114004 ], [ 113.18154144, -7.83135986 ], [ 113.18153381, -7.83148003 ], [ 113.18144989, -7.83157015 ], [ 113.18132019, -7.83162022 ], [ 113.18087006, -7.83174992 ], [ 113.18074799, -7.83186007 ], [ 113.18068695, -7.83199978 ], [ 113.18054962, -7.83255005 ], [ 113.18056488, -7.83270884 ], [ 113.18058014, -7.83303022 ], [ 113.18060303, -7.83326006 ], [ 113.18068695, -7.8333602 ], [ 113.18084717, -7.83339977 ], [ 113.18110657, -7.83339977 ], [ 113.18138123, -7.83340979 ], [ 113.18154907, -7.83353996 ], [ 113.18173981, -7.8337698 ], [ 113.18183899, -7.8339901 ], [ 113.18183899, -7.83414984 ], [ 113.18173981, -7.83441019 ], [ 113.18157959, -7.83473015 ], [ 113.18147278, -7.83479977 ], [ 113.18136597, -7.83485556 ], [ 113.18121338, -7.83493996 ], [ 113.18108368, -7.83511019 ], [ 113.18094635, -7.83525991 ], [ 113.18074799, -7.83535004 ], [ 113.1806488, -7.83532 ], [ 113.18054962, -7.83521986 ], [ 113.18049622, -7.83509016 ], [ 113.1805191, -7.83491993 ], [ 113.18061066, -7.83468008 ], [ 113.18079376, -7.83424997 ], [ 113.18071747, -7.83410978 ], [ 113.18058014, -7.8339901 ], [ 113.18041229, -7.83393002 ], [ 113.18025208, -7.83395004 ], [ 113.18009186, -7.83406019 ], [ 113.17984772, -7.83423996 ], [ 113.17961121, -7.83439016 ], [ 113.17946625, -7.83456993 ], [ 113.17933655, -7.83471012 ], [ 113.17922211, -7.83473015 ], [ 113.17907715, -7.83470011 ], [ 113.17897797, -7.83459997 ], [ 113.17884827, -7.83436012 ], [ 113.1785965, -7.83396006 ], [ 113.1783905, -7.83379984 ], [ 113.17810822, -7.83369017 ], [ 113.17780304, -7.8336401 ], [ 113.17769623, -7.83368015 ], [ 113.17768097, -7.83375978 ], [ 113.17769623, -7.83395004 ], [ 113.17781067, -7.83429003 ], [ 113.17791748, -7.8347702 ], [ 113.17783356, -7.8348999 ], [ 113.17768097, -7.83500004 ], [ 113.17739105, -7.83521986 ], [ 113.17653656, -7.83592987 ], [ 113.17632294, -7.83600378 ], [ 113.1758728, -7.83616018 ], [ 113.17565155, -7.83631992 ], [ 113.17550659, -7.83653021 ], [ 113.17542267, -7.83678102 ], [ 113.17539215, -7.83708 ], [ 113.17543793, -7.83756018 ], [ 113.17546844, -7.83798981 ], [ 113.17537689, -7.83822012 ], [ 113.17524719, -7.83839989 ], [ 113.17518616, -7.8384614 ], [ 113.1749115, -7.83871984 ], [ 113.17462921, -7.83890009 ], [ 113.17417908, -7.83912992 ], [ 113.17388153, -7.83931017 ], [ 113.17371368, -7.8394599 ], [ 113.17363739, -7.83963013 ], [ 113.17359161, -7.83987999 ], [ 113.17359161, -7.84022999 ], [ 113.17359161, -7.84061003 ], [ 113.17359161, -7.84071016 ], [ 113.17355347, -7.84110022 ] ] ] ] } }
]
}
