{
"type": "FeatureCollection",
"name": "Kecamatan Lumbang",
"crs": { "type": "name", "properties": { "name": "urn:ogc:def:crs:OGC:1.3:CRS84" } },
"features": [
{ "type": "Feature", "properties": { "GID_0": "IDN", "NAME_0": "Indonesia", "GID_1": "IDN.11_1", "NAME_1": "Jawa Timur", "NL_NAME_1": null, "GID_2": "IDN.11.30_1", "NAME_2": "Probolinggo", "NL_NAME_2": null, "GID_3": "IDN.11.30.13_1", "NAME_3": "Lumbang", "VARNAME_3": null, "NL_NAME_3": null, "TYPE_3": "Kecamatan", "ENGTYPE_3": "Sub-district", "CC_3": "3513220", "HASC_3": null }, "geometry": { "type": "MultiPolygon", "coordinates": [ [ [ [ 113.03423309, -7.8800602 ], [ 113.03392029, -7.88038015 ], [ 113.03349304, -7.88074017 ], [ 113.03321075, -7.88077021 ], [ 113.03298187, -7.88086987 ], [ 113.03263855, -7.88122988 ], [ 113.03243256, -7.88142014 ], [ 113.03233337, -7.88146019 ], [ 113.03218079, -7.88154984 ], [ 113.03195953, -7.88180017 ], [ 113.03173828, -7.88224983 ], [ 113.03160095, -7.88265991 ], [ 113.03146362, -7.8828702 ], [ 113.03109741, -7.88311005 ], [ 113.03066254, -7.8832798 ], [ 113.03041077, -7.88333988 ], [ 113.02989197, -7.88339996 ], [ 113.02967072, -7.88341856 ], [ 113.02954102, -7.88343 ], [ 113.02928925, -7.88348007 ], [ 113.0291214, -7.88357019 ], [ 113.02890015, -7.88373995 ], [ 113.02861023, -7.88398981 ], [ 113.02852631, -7.88406992 ], [ 113.02816772, -7.88421011 ], [ 113.02754211, -7.88414001 ], [ 113.02729797, -7.88410997 ], [ 113.02680969, -7.8842001 ], [ 113.02642059, -7.88430929 ], [ 113.02601624, -7.88442993 ], [ 113.02587128, -7.88448 ], [ 113.02562714, -7.8846302 ], [ 113.02539063, -7.88479996 ], [ 113.02519989, -7.88493013 ], [ 113.02500153, -7.88504982 ], [ 113.02477264, -7.88518 ], [ 113.02458954, -7.88528013 ], [ 113.02445221, -7.88530016 ], [ 113.02419281, -7.88523006 ], [ 113.02394867, -7.88513994 ], [ 113.02365112, -7.88513994 ], [ 113.02346039, -7.88516998 ], [ 113.02311707, -7.88529015 ], [ 113.02300262, -7.88535976 ], [ 113.02279663, -7.88562012 ], [ 113.02262878, -7.88593006 ], [ 113.02249146, -7.88637018 ], [ 113.02233124, -7.88665009 ], [ 113.02211761, -7.88684988 ], [ 113.02205658, -7.88691139 ], [ 113.0218811, -7.88707018 ], [ 113.02150726, -7.88749981 ], [ 113.0214386, -7.88758993 ], [ 113.02111053, -7.88795996 ], [ 113.02098846, -7.88813019 ], [ 113.0207901, -7.88839006 ], [ 113.02056122, -7.88866997 ], [ 113.02041626, -7.8887701 ], [ 113.02005005, -7.8889699 ], [ 113.01991272, -7.88903999 ], [ 113.01970673, -7.88913012 ], [ 113.01947784, -7.88916016 ], [ 113.01934052, -7.88915014 ], [ 113.01924896, -7.88915014 ], [ 113.01908875, -7.88915014 ], [ 113.01891327, -7.88917017 ], [ 113.01873016, -7.88920021 ], [ 113.01850128, -7.88923979 ], [ 113.01821899, -7.88929987 ], [ 113.01795959, -7.88938999 ], [ 113.01782227, -7.88948011 ], [ 113.0177002, -7.88958979 ], [ 113.01760864, -7.88968992 ], [ 113.01750183, -7.88985014 ], [ 113.01735687, -7.89007998 ], [ 113.01725769, -7.89020014 ], [ 113.0170517, -7.89037991 ], [ 113.01689148, -7.89048004 ], [ 113.01636505, -7.89116716 ], [ 113.01583099, -7.89187002 ], [ 113.01503754, -7.89264011 ], [ 113.01448059, -7.89308023 ], [ 113.01377106, -7.89355993 ], [ 113.01364899, -7.89362001 ], [ 113.01300812, -7.89396 ], [ 113.01280975, -7.89404345 ], [ 113.01242828, -7.89419985 ], [ 113.01120758, -7.89469481 ], [ 113.01100159, -7.89478016 ], [ 113.0100174, -7.89518023 ], [ 113.00980377, -7.89518976 ], [ 113.00959778, -7.8952198 ], [ 113.0093689, -7.89526987 ], [ 113.0092392, -7.89535999 ], [ 113.00906372, -7.89554024 ], [ 113.00885773, -7.89577007 ], [ 113.00879669, -7.89584732 ], [ 113.00856018, -7.89603996 ], [ 113.00833893, -7.89616013 ], [ 113.0080719, -7.8962698 ], [ 113.00798035, -7.89627981 ], [ 113.00769043, -7.89624977 ], [ 113.00756073, -7.89621019 ], [ 113.00737762, -7.89618015 ], [ 113.0072937, -7.89620018 ], [ 113.00710297, -7.89630985 ], [ 113.00689697, -7.89674997 ], [ 113.00679016, -7.89708996 ], [ 113.00663757, -7.89730978 ], [ 113.00641632, -7.89757013 ], [ 113.00634766, -7.89764977 ], [ 113.00617981, -7.89784002 ], [ 113.00601959, -7.89801979 ], [ 113.00575256, -7.89820004 ], [ 113.00546265, -7.8983798 ], [ 113.00537109, -7.8984499 ], [ 113.00523376, -7.89864016 ], [ 113.00509644, -7.89891005 ], [ 113.00498199, -7.89908981 ], [ 113.00485992, -7.89928007 ], [ 113.00482941, -7.89936018 ], [ 113.00478363, -7.89960003 ], [ 113.00468445, -7.89985228 ], [ 113.00450134, -7.90015984 ], [ 113.00437927, -7.90028 ], [ 113.00405121, -7.90076017 ], [ 113.00377655, -7.9011302 ], [ 113.00357819, -7.90137005 ], [ 113.00344086, -7.90150976 ], [ 113.00332642, -7.90162945 ], [ 113.00324249, -7.90172005 ], [ 113.00298309, -7.90196991 ], [ 113.0027771, -7.90216017 ], [ 113.0025177, -7.90233994 ], [ 113.00238037, -7.90248013 ], [ 113.00216675, -7.90264988 ], [ 113.00199127, -7.9028101 ], [ 113.00193024, -7.90286016 ], [ 113.00177765, -7.90297985 ], [ 113.00163269, -7.90313005 ], [ 113.00150299, -7.90329981 ], [ 113.00137329, -7.90352011 ], [ 113.00131989, -7.90364647 ], [ 113.00119781, -7.90398979 ], [ 113.00112152, -7.90450001 ], [ 113.00100708, -7.90459442 ], [ 113.00094604, -7.90463257 ], [ 113.00070953, -7.90468502 ], [ 113.00022125, -7.90461111 ], [ 112.99977875, -7.90474558 ], [ 112.99959564, -7.90480328 ], [ 112.99927521, -7.90534687 ], [ 112.998909, -7.90549994 ], [ 112.99880219, -7.90559292 ], [ 112.99853516, -7.90575409 ], [ 112.99824524, -7.90583086 ], [ 112.99814606, -7.90594482 ], [ 112.99795532, -7.90594006 ], [ 112.99795532, -7.90573263 ], [ 112.99745178, -7.90532255 ], [ 112.99725342, -7.90467978 ], [ 112.99703979, -7.9040966 ], [ 112.99668121, -7.90369415 ], [ 112.99626923, -7.90308237 ], [ 112.99578857, -7.90256071 ], [ 112.99521637, -7.90256357 ], [ 112.99461365, -7.90244627 ], [ 112.99416351, -7.90220928 ], [ 112.9936676, -7.90155268 ], [ 112.99317932, -7.90089607 ], [ 112.99288177, -7.90092754 ], [ 112.99217224, -7.90084124 ], [ 112.9912262, -7.90053129 ], [ 112.99113464, -7.90051699 ], [ 112.9907608, -7.90059328 ], [ 112.99029541, -7.90059566 ], [ 112.98969269, -7.90065861 ], [ 112.98927307, -7.90055561 ], [ 112.98834229, -7.90018559 ], [ 112.98826599, -7.90048552 ], [ 112.98767853, -7.90011406 ], [ 112.98668671, -7.89944506 ], [ 112.98577881, -7.89909029 ], [ 112.98620605, -7.89668798 ], [ 112.98569489, -7.89638138 ], [ 112.98534393, -7.89617443 ], [ 112.98133087, -7.89457464 ], [ 112.979599, -7.89474487 ], [ 112.97597504, -7.89497757 ], [ 112.96714783, -7.89462614 ], [ 112.9675293, -7.89418364 ], [ 112.96862793, -7.8928256 ], [ 112.96946716, -7.89173508 ], [ 112.9708252, -7.89048004 ], [ 112.9720459, -7.88915682 ], [ 112.97262573, -7.88851929 ], [ 112.97318268, -7.88791323 ], [ 112.97425842, -7.88650322 ], [ 112.97454834, -7.88646603 ], [ 112.97477722, -7.88637638 ], [ 112.97505951, -7.88622522 ], [ 112.9753952, -7.88594294 ], [ 112.97577667, -7.8855443 ], [ 112.97605896, -7.88508463 ], [ 112.97618866, -7.88494921 ], [ 112.97649384, -7.88457203 ], [ 112.97674561, -7.88428354 ], [ 112.97683716, -7.88420343 ], [ 112.97694397, -7.88409185 ], [ 112.97706604, -7.883986 ], [ 112.97730255, -7.88380194 ], [ 112.97764587, -7.88360929 ], [ 112.97788239, -7.88351202 ], [ 112.97809601, -7.88339472 ], [ 112.97811127, -7.88332224 ], [ 112.97811127, -7.88296223 ], [ 112.97815704, -7.88268328 ], [ 112.97822571, -7.88244057 ], [ 112.97827911, -7.88238096 ], [ 112.97845459, -7.88225412 ], [ 112.97870636, -7.88209867 ], [ 112.97883606, -7.88202047 ], [ 112.97891235, -7.88198519 ], [ 112.98080444, -7.88077688 ], [ 112.9825592, -7.88004351 ], [ 112.98345947, -7.8796711 ], [ 112.9838562, -7.87947798 ], [ 112.9841156, -7.87933016 ], [ 112.98454285, -7.87912893 ], [ 112.9848175, -7.87892246 ], [ 112.98505402, -7.87864733 ], [ 112.98522186, -7.878438 ], [ 112.98537445, -7.87827492 ], [ 112.98562622, -7.87806177 ], [ 112.98583221, -7.87793541 ], [ 112.98603058, -7.87774801 ], [ 112.98613739, -7.87759495 ], [ 112.98620605, -7.87747288 ], [ 112.9862442, -7.87730026 ], [ 112.98626709, -7.87708616 ], [ 112.98632813, -7.87684011 ], [ 112.98638153, -7.87669468 ], [ 112.98656464, -7.87640905 ], [ 112.98685455, -7.87589788 ], [ 112.9870224, -7.8755455 ], [ 112.98725128, -7.87500048 ], [ 112.98735046, -7.87477732 ], [ 112.98749542, -7.8744545 ], [ 112.98767853, -7.87413311 ], [ 112.98780823, -7.87382412 ], [ 112.98786163, -7.87368345 ], [ 112.98791504, -7.87353563 ], [ 112.98802948, -7.87321568 ], [ 112.98809814, -7.87303209 ], [ 112.98815918, -7.87283754 ], [ 112.98829651, -7.87257576 ], [ 112.98848724, -7.87233067 ], [ 112.98867035, -7.87215424 ], [ 112.9888916, -7.87199736 ], [ 112.98927307, -7.87171698 ], [ 112.98960114, -7.87137461 ], [ 112.98983002, -7.87100601 ], [ 112.98985291, -7.87076616 ], [ 112.98980713, -7.87028646 ], [ 112.98980713, -7.87008047 ], [ 112.98987579, -7.86977243 ], [ 112.99000549, -7.86959839 ], [ 112.99023438, -7.86942673 ], [ 112.99038696, -7.86941099 ], [ 112.99082184, -7.86939049 ], [ 112.99147797, -7.86928844 ], [ 112.99185944, -7.86918831 ], [ 112.99212646, -7.8689394 ], [ 112.99230957, -7.86867046 ], [ 112.99260712, -7.86810064 ], [ 112.9927063, -7.86798716 ], [ 112.99304199, -7.86763477 ], [ 112.9932785, -7.86745739 ], [ 112.9934082, -7.8673954 ], [ 112.99365997, -7.86731768 ], [ 112.99410248, -7.8672595 ], [ 112.99443054, -7.86720181 ], [ 112.99466705, -7.86709356 ], [ 112.99492645, -7.86688852 ], [ 112.9955368, -7.86633968 ], [ 112.99568176, -7.86628342 ], [ 112.99607086, -7.86636543 ], [ 112.99633789, -7.86638927 ], [ 112.99653625, -7.86633635 ], [ 112.99668884, -7.86622858 ], [ 112.99675751, -7.86608934 ], [ 112.99674225, -7.86590004 ], [ 112.99674988, -7.86570549 ], [ 112.99679565, -7.86542797 ], [ 112.99681091, -7.86535597 ], [ 112.99688721, -7.86519098 ], [ 112.9969635, -7.86508512 ], [ 112.99707031, -7.86487961 ], [ 112.99740601, -7.86434221 ], [ 112.99755096, -7.86414385 ], [ 112.99783325, -7.86386442 ], [ 112.99794006, -7.86383104 ], [ 112.99808502, -7.86389112 ], [ 112.99814606, -7.86393118 ], [ 112.99822998, -7.8639679 ], [ 112.99832916, -7.86398745 ], [ 112.99863434, -7.86399221 ], [ 112.99890137, -7.86391401 ], [ 112.99913025, -7.8637619 ], [ 112.99927521, -7.86358833 ], [ 112.99965668, -7.86288929 ], [ 112.99992371, -7.86252213 ], [ 113.0, -7.86248159 ], [ 113.00019073, -7.86242294 ], [ 113.00041962, -7.86240625 ], [ 113.00091553, -7.86234665 ], [ 113.00106812, -7.86226559 ], [ 113.0012207, -7.86208677 ], [ 113.00127411, -7.86190748 ], [ 113.0012207, -7.86163664 ], [ 113.00107574, -7.86119843 ], [ 113.00109863, -7.86108065 ], [ 113.00119019, -7.86096811 ], [ 113.00133514, -7.8608861 ], [ 113.00157166, -7.86076498 ], [ 113.00170135, -7.86073112 ], [ 113.00182343, -7.86070681 ], [ 113.00195313, -7.86066151 ], [ 113.00224304, -7.86050224 ], [ 113.00242615, -7.86035252 ], [ 113.00260162, -7.86018038 ], [ 113.00283051, -7.85998535 ], [ 113.00305176, -7.85987473 ], [ 113.00320435, -7.85984421 ], [ 113.00340271, -7.85975313 ], [ 113.00350952, -7.85965872 ], [ 113.00367737, -7.85954046 ], [ 113.00411224, -7.85934258 ], [ 113.00453186, -7.85919094 ], [ 113.0045929, -7.85915232 ], [ 113.00481415, -7.85897732 ], [ 113.00502014, -7.85866308 ], [ 113.00506592, -7.85844517 ], [ 113.00502777, -7.85828066 ], [ 113.00508881, -7.85801172 ], [ 113.00514984, -7.85796213 ], [ 113.00547028, -7.85784578 ], [ 113.00562286, -7.85779428 ], [ 113.00576019, -7.85779667 ], [ 113.006073, -7.857728 ], [ 113.00621796, -7.85762548 ], [ 113.00617981, -7.85742569 ], [ 113.00614929, -7.85733032 ], [ 113.00609589, -7.85709429 ], [ 113.00609589, -7.85702133 ], [ 113.00608826, -7.85690737 ], [ 113.00611877, -7.85681009 ], [ 113.00614929, -7.8566637 ], [ 113.00624847, -7.85651588 ], [ 113.00636292, -7.85642672 ], [ 113.00683594, -7.8561554 ], [ 113.00697327, -7.85599279 ], [ 113.00701904, -7.85535574 ], [ 113.00720978, -7.85500479 ], [ 113.00746155, -7.85474348 ], [ 113.00759125, -7.85459518 ], [ 113.00769043, -7.85433817 ], [ 113.00779724, -7.85419512 ], [ 113.00798035, -7.85408354 ], [ 113.00805664, -7.85403585 ], [ 113.00811768, -7.85399437 ], [ 113.0082016, -7.85396242 ], [ 113.00831604, -7.853971 ], [ 113.00848389, -7.85400152 ], [ 113.00866699, -7.85397291 ], [ 113.00883484, -7.85392237 ], [ 113.0090332, -7.85370779 ], [ 113.00905609, -7.85355902 ], [ 113.00904083, -7.85312271 ], [ 113.00913239, -7.85295248 ], [ 113.00917053, -7.85284472 ], [ 113.00925446, -7.85270119 ], [ 113.00942993, -7.85257006 ], [ 113.01028442, -7.85207891 ], [ 113.01124573, -7.85118484 ], [ 113.01144409, -7.85105371 ], [ 113.01171875, -7.85093069 ], [ 113.01203156, -7.85080528 ], [ 113.01215363, -7.85074186 ], [ 113.01251984, -7.85055113 ], [ 113.01296997, -7.85031462 ], [ 113.013237, -7.85031128 ], [ 113.01360321, -7.85031366 ], [ 113.01389313, -7.85025454 ], [ 113.01393127, -7.85017729 ], [ 113.01396179, -7.84996367 ], [ 113.01377106, -7.84915686 ], [ 113.01370239, -7.84893179 ], [ 113.01373291, -7.84859419 ], [ 113.01390076, -7.84829903 ], [ 113.01403809, -7.84819841 ], [ 113.01415253, -7.84818792 ], [ 113.01438904, -7.84823465 ], [ 113.01461029, -7.84833956 ], [ 113.01495361, -7.84845734 ], [ 113.01526642, -7.84841299 ], [ 113.01552582, -7.84828711 ], [ 113.01568604, -7.84810305 ], [ 113.01586151, -7.84780884 ], [ 113.01638794, -7.84677887 ], [ 113.01681519, -7.84615135 ], [ 113.01698303, -7.84572077 ], [ 113.0170517, -7.84548187 ], [ 113.01771545, -7.84419155 ], [ 113.01794434, -7.84392738 ], [ 113.01818848, -7.84373808 ], [ 113.0186615, -7.84346485 ], [ 113.01895142, -7.8432622 ], [ 113.01953125, -7.84279871 ], [ 113.01968384, -7.84271431 ], [ 113.02017212, -7.84239626 ], [ 113.02048492, -7.84216309 ], [ 113.02127075, -7.84163427 ], [ 113.02159882, -7.84151173 ], [ 113.02193451, -7.84140396 ], [ 113.02256012, -7.84113789 ], [ 113.02272797, -7.84093761 ], [ 113.02272034, -7.8408289 ], [ 113.02261353, -7.84057379 ], [ 113.02249908, -7.8402791 ], [ 113.02248383, -7.84009504 ], [ 113.02243805, -7.83972073 ], [ 113.02253723, -7.83946896 ], [ 113.02267456, -7.83933735 ], [ 113.02283478, -7.83931684 ], [ 113.02318573, -7.83927965 ], [ 113.02328491, -7.83919621 ], [ 113.02339172, -7.8391099 ], [ 113.02362061, -7.83906603 ], [ 113.02387238, -7.83903027 ], [ 113.02417755, -7.83886814 ], [ 113.02420044, -7.83876562 ], [ 113.02420807, -7.83854771 ], [ 113.02430725, -7.83849764 ], [ 113.02490997, -7.83841419 ], [ 113.02509308, -7.83836031 ], [ 113.02519226, -7.83826208 ], [ 113.02519226, -7.83816862 ], [ 113.0251236, -7.83791399 ], [ 113.02503204, -7.83779669 ], [ 113.02475739, -7.83753204 ], [ 113.02462769, -7.83734798 ], [ 113.02462006, -7.83722782 ], [ 113.02468109, -7.8371191 ], [ 113.02481842, -7.83700657 ], [ 113.0250473, -7.83697462 ], [ 113.02584839, -7.83693647 ], [ 113.02625275, -7.83683395 ], [ 113.02633667, -7.83677864 ], [ 113.02663422, -7.83648682 ], [ 113.02682495, -7.83620596 ], [ 113.02707672, -7.83581018 ], [ 113.02739716, -7.83535862 ], [ 113.02748871, -7.83506203 ], [ 113.02750397, -7.83471727 ], [ 113.02745056, -7.83451509 ], [ 113.02727509, -7.83407402 ], [ 113.02734375, -7.83395386 ], [ 113.02741241, -7.83384275 ], [ 113.02764893, -7.83379269 ], [ 113.02840424, -7.83368063 ], [ 113.02870178, -7.83363152 ], [ 113.02898407, -7.83361435 ], [ 113.02909088, -7.83367968 ], [ 113.0295105, -7.83392572 ], [ 113.02980804, -7.83394241 ], [ 113.03037262, -7.83376122 ], [ 113.03086853, -7.83354855 ], [ 113.03091431, -7.83345652 ], [ 113.03090668, -7.8333354 ], [ 113.03079224, -7.83313322 ], [ 113.03063202, -7.83287621 ], [ 113.03059387, -7.83270979 ], [ 113.03065491, -7.8325634 ], [ 113.03083038, -7.83240986 ], [ 113.03116608, -7.83223248 ], [ 113.03134155, -7.83221054 ], [ 113.03179169, -7.83224678 ], [ 113.03199005, -7.83221579 ], [ 113.03279877, -7.83202124 ], [ 113.03294373, -7.83187485 ], [ 113.03323364, -7.83156967 ], [ 113.03340149, -7.83139086 ], [ 113.0333786, -7.83129787 ], [ 113.03328705, -7.83108521 ], [ 113.0329361, -7.83048058 ], [ 113.0329361, -7.83032465 ], [ 113.03295135, -7.83025312 ], [ 113.0329895, -7.83006287 ], [ 113.03308868, -7.82993603 ], [ 113.03323364, -7.82986593 ], [ 113.03333282, -7.82988501 ], [ 113.033638, -7.83004284 ], [ 113.03382111, -7.83010149 ], [ 113.0340271, -7.8301754 ], [ 113.03419495, -7.83020544 ], [ 113.03446198, -7.83017778 ], [ 113.0348053, -7.83005238 ], [ 113.03492737, -7.82992649 ], [ 113.03503418, -7.82967472 ], [ 113.03512573, -7.82955217 ], [ 113.03520966, -7.82954645 ], [ 113.03544617, -7.82962704 ], [ 113.03568268, -7.82962799 ], [ 113.03594208, -7.82952356 ], [ 113.03608704, -7.82939482 ], [ 113.03639984, -7.8291564 ], [ 113.03687286, -7.82889557 ], [ 113.03731537, -7.82863522 ], [ 113.03749084, -7.82853222 ], [ 113.03785706, -7.82849407 ], [ 113.03791809, -7.82841349 ], [ 113.03803253, -7.82821941 ], [ 113.03829193, -7.828125 ], [ 113.03855896, -7.82813263 ], [ 113.03864288, -7.82811832 ], [ 113.03876495, -7.82802677 ], [ 113.03897858, -7.82777786 ], [ 113.03904724, -7.8274703 ], [ 113.03913116, -7.82707787 ], [ 113.03927612, -7.82683706 ], [ 113.03972626, -7.82628393 ], [ 113.03977966, -7.82605743 ], [ 113.03993225, -7.82575035 ], [ 113.03997803, -7.82566738 ], [ 113.04037476, -7.82536793 ], [ 113.04064178, -7.82513571 ], [ 113.04088593, -7.82479954 ], [ 113.0409317, -7.82473278 ], [ 113.041008, -7.82463312 ], [ 113.04105377, -7.82455254 ], [ 113.04116821, -7.82446337 ], [ 113.0412674, -7.82445812 ], [ 113.04153442, -7.82444382 ], [ 113.04204559, -7.8244524 ], [ 113.04227448, -7.8242383 ], [ 113.04265594, -7.82383251 ], [ 113.04290009, -7.82375383 ], [ 113.04325867, -7.82363892 ], [ 113.04350281, -7.82346392 ], [ 113.0438385, -7.82311058 ], [ 113.04400635, -7.82279253 ], [ 113.04405212, -7.82266569 ], [ 113.0440979, -7.82254696 ], [ 113.04418945, -7.82251406 ], [ 113.04445648, -7.82250786 ], [ 113.04483032, -7.8224864 ], [ 113.04506683, -7.82241154 ], [ 113.04525757, -7.82228088 ], [ 113.04534912, -7.82213926 ], [ 113.04534912, -7.82191658 ], [ 113.04528046, -7.82177067 ], [ 113.04525757, -7.82158184 ], [ 113.04534149, -7.82142305 ], [ 113.04554749, -7.82110262 ], [ 113.04547119, -7.82094002 ], [ 113.04524231, -7.82056284 ], [ 113.04520416, -7.82038116 ], [ 113.04524994, -7.82026005 ], [ 113.04541016, -7.82013893 ], [ 113.04573822, -7.82007647 ], [ 113.04597473, -7.81996298 ], [ 113.04618835, -7.81984377 ], [ 113.04642487, -7.81983328 ], [ 113.04666138, -7.8199029 ], [ 113.04708099, -7.82000828 ], [ 113.04723358, -7.81996965 ], [ 113.04734039, -7.81979179 ], [ 113.04754639, -7.81919146 ], [ 113.04790497, -7.8181572 ], [ 113.04805756, -7.81772041 ], [ 113.04840851, -7.81685114 ], [ 113.04828644, -7.81661129 ], [ 113.0478363, -7.81602669 ], [ 113.04746246, -7.81568527 ], [ 113.04745483, -7.81552267 ], [ 113.04750061, -7.81538963 ], [ 113.04808044, -7.81461382 ], [ 113.04808807, -7.8143096 ], [ 113.04806519, -7.81386423 ], [ 113.04826355, -7.81330824 ], [ 113.04829407, -7.81310797 ], [ 113.04824829, -7.81278181 ], [ 113.04814148, -7.81256104 ], [ 113.04799652, -7.81239653 ], [ 113.04756927, -7.81201649 ], [ 113.04749298, -7.81186724 ], [ 113.04750061, -7.81169748 ], [ 113.04759979, -7.81143427 ], [ 113.04776001, -7.81132889 ], [ 113.04795837, -7.81127405 ], [ 113.0482254, -7.81128979 ], [ 113.04856873, -7.81129265 ], [ 113.04882813, -7.81119061 ], [ 113.04904938, -7.8110075 ], [ 113.04922485, -7.81078291 ], [ 113.04933167, -7.81053734 ], [ 113.04942322, -7.81011868 ], [ 113.04942322, -7.81003904 ], [ 113.0497818, -7.80988979 ], [ 113.05010223, -7.80977011 ], [ 113.05032349, -7.8096199 ], [ 113.05052185, -7.80926991 ], [ 113.05059814, -7.80912018 ], [ 113.05075073, -7.80901003 ], [ 113.05084991, -7.80897903 ], [ 113.0511322, -7.80913544 ], [ 113.05123138, -7.80942583 ], [ 113.05132294, -7.8097229 ], [ 113.05123138, -7.80995703 ], [ 113.05118561, -7.81014061 ], [ 113.05117035, -7.81042528 ], [ 113.05123138, -7.81063366 ], [ 113.05132294, -7.81079149 ], [ 113.05157471, -7.81091022 ], [ 113.05178833, -7.81087065 ], [ 113.05190277, -7.81083298 ], [ 113.05210114, -7.81078768 ], [ 113.05253601, -7.81063986 ], [ 113.05323792, -7.81045961 ], [ 113.05355072, -7.81043291 ], [ 113.05388641, -7.81060505 ], [ 113.05406189, -7.81069565 ], [ 113.05436707, -7.81095982 ], [ 113.05448151, -7.81110811 ], [ 113.05496216, -7.81115055 ], [ 113.05536652, -7.81121635 ], [ 113.05581665, -7.81123972 ], [ 113.05596924, -7.81122351 ], [ 113.05609131, -7.8109479 ], [ 113.05625916, -7.81080198 ], [ 113.05658722, -7.81071711 ], [ 113.05684662, -7.81071615 ], [ 113.05692291, -7.81071568 ], [ 113.05729675, -7.81075525 ], [ 113.05754852, -7.81083441 ], [ 113.0581665, -7.81103134 ], [ 113.05857086, -7.81117439 ], [ 113.05876923, -7.8112464 ], [ 113.05895996, -7.81140614 ], [ 113.05928802, -7.81152916 ], [ 113.05953979, -7.81166267 ], [ 113.05977631, -7.81177568 ], [ 113.05993652, -7.81179667 ], [ 113.06013489, -7.8117156 ], [ 113.06054688, -7.81174564 ], [ 113.06070709, -7.8118515 ], [ 113.06084442, -7.81188774 ], [ 113.06092834, -7.81193542 ], [ 113.06096649, -7.81208992 ], [ 113.06121063, -7.81219006 ], [ 113.06130981, -7.81224012 ], [ 113.06144714, -7.81231022 ], [ 113.0617218, -7.81226015 ], [ 113.06194305, -7.81227016 ], [ 113.06198883, -7.8123498 ], [ 113.06220245, -7.81243992 ], [ 113.06237793, -7.81255007 ], [ 113.06257629, -7.81259012 ], [ 113.06295776, -7.81269979 ], [ 113.06333923, -7.81276989 ], [ 113.06388092, -7.81298018 ], [ 113.0639801, -7.81301212 ], [ 113.06417084, -7.81306982 ], [ 113.0643692, -7.81311989 ], [ 113.06466675, -7.81286001 ], [ 113.06487274, -7.81266022 ], [ 113.06494141, -7.81244993 ], [ 113.06507874, -7.81210995 ], [ 113.06546021, -7.81142998 ], [ 113.06561279, -7.81106997 ], [ 113.06568909, -7.81072998 ], [ 113.06587982, -7.80963993 ], [ 113.06591797, -7.80908012 ], [ 113.06593323, -7.80899 ], [ 113.06607819, -7.80842018 ], [ 113.06640625, -7.80770016 ], [ 113.0666275, -7.80725002 ], [ 113.06686401, -7.80662107 ], [ 113.0668869, -7.80655003 ], [ 113.06684113, -7.8063798 ], [ 113.06674957, -7.80597019 ], [ 113.0667572, -7.80583 ], [ 113.06684113, -7.80564022 ], [ 113.06690216, -7.80544996 ], [ 113.0668869, -7.80531979 ], [ 113.06687164, -7.80513 ], [ 113.06685638, -7.8049798 ], [ 113.06684875, -7.80446005 ], [ 113.06690216, -7.80417013 ], [ 113.06699371, -7.80410004 ], [ 113.06725311, -7.80388021 ], [ 113.06738281, -7.80373049 ], [ 113.06745911, -7.80363989 ], [ 113.06755829, -7.80341005 ], [ 113.06755829, -7.80327988 ], [ 113.06761169, -7.80295992 ], [ 113.06780243, -7.80255985 ], [ 113.06788635, -7.80223989 ], [ 113.06809235, -7.80165005 ], [ 113.06816864, -7.80137014 ], [ 113.06813812, -7.80125999 ], [ 113.06813049, -7.80110979 ], [ 113.06814575, -7.80103064 ], [ 113.06816864, -7.80087996 ], [ 113.06828308, -7.80073023 ], [ 113.0684967, -7.80057001 ], [ 113.06861877, -7.80045986 ], [ 113.06903076, -7.80016994 ], [ 113.06929016, -7.80002022 ], [ 113.06938934, -7.80019999 ], [ 113.06958771, -7.80058002 ], [ 113.06967926, -7.80075979 ], [ 113.06983185, -7.80114985 ], [ 113.06997681, -7.80163002 ], [ 113.07010651, -7.80195999 ], [ 113.07008362, -7.80229998 ], [ 113.07009125, -7.80254984 ], [ 113.07016754, -7.80292988 ], [ 113.07032013, -7.8032999 ], [ 113.07044983, -7.80354023 ], [ 113.07071686, -7.80383015 ], [ 113.07106018, -7.80412006 ], [ 113.07137299, -7.80432987 ], [ 113.07167053, -7.8045001 ], [ 113.07196808, -7.8046298 ], [ 113.07241821, -7.80474997 ], [ 113.07280731, -7.80483007 ], [ 113.07321167, -7.80489016 ], [ 113.07342529, -7.80490494 ], [ 113.07350159, -7.80491018 ], [ 113.07362366, -7.8049202 ], [ 113.07407379, -7.80493021 ], [ 113.07443237, -7.80495977 ], [ 113.07491302, -7.80501986 ], [ 113.07530975, -7.80507994 ], [ 113.07565308, -7.80514002 ], [ 113.07608032, -7.80516005 ], [ 113.07649994, -7.80523348 ], [ 113.07682037, -7.80552006 ], [ 113.07692719, -7.80568981 ], [ 113.07720947, -7.80587006 ], [ 113.07740021, -7.80607986 ], [ 113.07762909, -7.80635023 ], [ 113.07785797, -7.80658007 ], [ 113.07797241, -7.80668163 ], [ 113.07833099, -7.80666447 ], [ 113.07866669, -7.8066411 ], [ 113.07907104, -7.80664444 ], [ 113.07940674, -7.80651045 ], [ 113.07958984, -7.80631113 ], [ 113.0796051, -7.80607891 ], [ 113.07964325, -7.80584717 ], [ 113.07981873, -7.80561447 ], [ 113.08009338, -7.80551386 ], [ 113.08029938, -7.80542469 ], [ 113.08046722, -7.80529165 ], [ 113.08052826, -7.80510378 ], [ 113.08052826, -7.80494928 ], [ 113.08054352, -7.80473948 ], [ 113.0806427, -7.80452299 ], [ 113.08078003, -7.80441809 ], [ 113.08097839, -7.80433989 ], [ 113.08111572, -7.80421257 ], [ 113.08137512, -7.80402899 ], [ 113.08157349, -7.80391216 ], [ 113.08205414, -7.80405903 ], [ 113.08240509, -7.80404043 ], [ 113.08252716, -7.80400705 ], [ 113.08267975, -7.80395651 ], [ 113.08261871, -7.80375814 ], [ 113.0825119, -7.80356026 ], [ 113.08245087, -7.80316877 ], [ 113.08253479, -7.80280972 ], [ 113.08276367, -7.80258226 ], [ 113.08303833, -7.80243015 ], [ 113.08322144, -7.80243683 ], [ 113.0834198, -7.80244684 ], [ 113.08362579, -7.80252266 ], [ 113.0838089, -7.8026433 ], [ 113.08396912, -7.80250978 ], [ 113.08400726, -7.80238295 ], [ 113.08397675, -7.80220127 ], [ 113.0840683, -7.80207014 ], [ 113.084198, -7.80194998 ], [ 113.08436584, -7.80189562 ], [ 113.08442688, -7.80173016 ], [ 113.08439636, -7.80164194 ], [ 113.08428955, -7.80162573 ], [ 113.08411407, -7.8016324 ], [ 113.08396912, -7.8015666 ], [ 113.08389282, -7.80139065 ], [ 113.08401489, -7.8011694 ], [ 113.08418274, -7.80094004 ], [ 113.08422089, -7.80077124 ], [ 113.08428955, -7.80024099 ], [ 113.08444214, -7.80000877 ], [ 113.08449554, -7.79975605 ], [ 113.08457184, -7.79937363 ], [ 113.08501434, -7.79904032 ], [ 113.08504486, -7.79873037 ], [ 113.08507538, -7.79829502 ], [ 113.085289, -7.79817009 ], [ 113.08543396, -7.79838181 ], [ 113.08568573, -7.79836941 ], [ 113.08589935, -7.79787731 ], [ 113.08590698, -7.79759598 ], [ 113.08666992, -7.79691362 ], [ 113.08663177, -7.79631233 ], [ 113.08662415, -7.79597044 ], [ 113.08666229, -7.79576063 ], [ 113.08686829, -7.79568005 ], [ 113.08705139, -7.79568148 ], [ 113.08724213, -7.79566383 ], [ 113.0871048, -7.79522848 ], [ 113.08707428, -7.79513502 ], [ 113.08718872, -7.79499102 ], [ 113.08734131, -7.79489994 ], [ 113.08738708, -7.79451036 ], [ 113.08734131, -7.7943778 ], [ 113.08728027, -7.7942071 ], [ 113.08737183, -7.79410982 ], [ 113.08743286, -7.79401016 ], [ 113.08756256, -7.79391003 ], [ 113.08781433, -7.79392862 ], [ 113.0876236, -7.793571 ], [ 113.08757019, -7.79320192 ], [ 113.08772278, -7.79303503 ], [ 113.08797455, -7.79275846 ], [ 113.08821106, -7.7923398 ], [ 113.08816528, -7.7918911 ], [ 113.08830261, -7.79146576 ], [ 113.08847046, -7.7913146 ], [ 113.08855438, -7.79123831 ], [ 113.08885193, -7.79114866 ], [ 113.08908844, -7.79104805 ], [ 113.08930206, -7.79080963 ], [ 113.08948517, -7.79049969 ], [ 113.08968353, -7.79040527 ], [ 113.0898056, -7.79022789 ], [ 113.09004211, -7.79025459 ], [ 113.09022522, -7.79013777 ], [ 113.09033966, -7.79007101 ], [ 113.09048462, -7.79007578 ], [ 113.09062958, -7.79020166 ], [ 113.09085083, -7.79034996 ], [ 113.0909729, -7.7904501 ], [ 113.09107971, -7.7904501 ], [ 113.09129333, -7.79036999 ], [ 113.09146118, -7.7902298 ], [ 113.09162903, -7.78998995 ], [ 113.09169006, -7.78961134 ], [ 113.09170532, -7.7895236 ], [ 113.09166718, -7.78927565 ], [ 113.09197235, -7.789114 ], [ 113.09229279, -7.78901291 ], [ 113.0922699, -7.78857183 ], [ 113.09223938, -7.78806448 ], [ 113.09265137, -7.78788853 ], [ 113.0928421, -7.78786278 ], [ 113.0931015, -7.78780651 ], [ 113.0933609, -7.78774452 ], [ 113.09352875, -7.78782082 ], [ 113.09377289, -7.78788567 ], [ 113.0938797, -7.78778601 ], [ 113.09381104, -7.78756571 ], [ 113.09408569, -7.78742647 ], [ 113.09442139, -7.78730345 ], [ 113.09456635, -7.78720331 ], [ 113.09456635, -7.78709269 ], [ 113.09459686, -7.78689528 ], [ 113.09473419, -7.78669691 ], [ 113.0949173, -7.78670645 ], [ 113.09510803, -7.78679609 ], [ 113.09548187, -7.78662634 ], [ 113.09564209, -7.78649616 ], [ 113.09551239, -7.78625488 ], [ 113.09542084, -7.7860837 ], [ 113.09535217, -7.78582525 ], [ 113.09550476, -7.7857213 ], [ 113.09561157, -7.78573179 ], [ 113.09561157, -7.78560019 ], [ 113.09571838, -7.78551006 ], [ 113.09606934, -7.78520012 ], [ 113.09618378, -7.78496981 ], [ 113.09634399, -7.78468895 ], [ 113.09658051, -7.78469467 ], [ 113.09697723, -7.78457642 ], [ 113.09731293, -7.78431654 ], [ 113.09752655, -7.78397894 ], [ 113.09757233, -7.78391457 ], [ 113.09781647, -7.78369331 ], [ 113.09819031, -7.78343296 ], [ 113.09868622, -7.78305626 ], [ 113.09871674, -7.78295231 ], [ 113.09870148, -7.78287983 ], [ 113.09856415, -7.78266859 ], [ 113.09851837, -7.78221655 ], [ 113.09892273, -7.78199482 ], [ 113.09924316, -7.7820344 ], [ 113.09932709, -7.78204441 ], [ 113.09990692, -7.7817831 ], [ 113.10004425, -7.78165722 ], [ 113.10016632, -7.78154945 ], [ 113.10048676, -7.78135395 ], [ 113.10093689, -7.78113174 ], [ 113.1014328, -7.78110361 ], [ 113.10180664, -7.78086901 ], [ 113.10197449, -7.78067446 ], [ 113.10215759, -7.78057003 ], [ 113.10229492, -7.7805047 ], [ 113.10251617, -7.780478 ], [ 113.10246277, -7.78019381 ], [ 113.10240936, -7.77996111 ], [ 113.10250092, -7.77968931 ], [ 113.10270691, -7.77966261 ], [ 113.10295105, -7.77975178 ], [ 113.10331726, -7.77969837 ], [ 113.10354614, -7.77951622 ], [ 113.10355377, -7.77915001 ], [ 113.10339355, -7.77894831 ], [ 113.10334015, -7.77878046 ], [ 113.10336304, -7.77868986 ], [ 113.10327148, -7.77850962 ], [ 113.10370636, -7.77797747 ], [ 113.10395813, -7.77773428 ], [ 113.10414124, -7.77764559 ], [ 113.10451508, -7.7775383 ], [ 113.10479736, -7.77731848 ], [ 113.1049118, -7.77722311 ], [ 113.1050415, -7.77711391 ], [ 113.10507202, -7.77677011 ], [ 113.10514832, -7.77660131 ], [ 113.10529327, -7.77654028 ], [ 113.10546112, -7.77667522 ], [ 113.1056366, -7.77687025 ], [ 113.10572815, -7.77696753 ], [ 113.10580444, -7.77710295 ], [ 113.10585785, -7.77720785 ], [ 113.10595703, -7.77729797 ], [ 113.10609436, -7.77737236 ], [ 113.10623932, -7.77751493 ], [ 113.10636902, -7.77758932 ], [ 113.10652161, -7.77764893 ], [ 113.10661316, -7.77768612 ], [ 113.10678864, -7.77779055 ], [ 113.10696411, -7.77782726 ], [ 113.10708618, -7.77791739 ], [ 113.10715485, -7.77805233 ], [ 113.10721588, -7.77824783 ], [ 113.10727692, -7.77843571 ], [ 113.10736084, -7.77855587 ], [ 113.10739899, -7.77869892 ], [ 113.10753632, -7.77888632 ], [ 113.10765839, -7.77899122 ], [ 113.10786438, -7.77904415 ], [ 113.10848236, -7.7793498 ], [ 113.10913849, -7.77956009 ], [ 113.10955811, -7.77970982 ], [ 113.11019135, -7.7799201 ], [ 113.11026001, -7.77994347 ], [ 113.11040497, -7.78005505 ], [ 113.11064148, -7.78023481 ], [ 113.1105423, -7.78042459 ], [ 113.1105957, -7.78056049 ], [ 113.11066437, -7.7806325 ], [ 113.11091614, -7.78084183 ], [ 113.11115265, -7.7810154 ], [ 113.11135101, -7.781147 ], [ 113.11171722, -7.7813201 ], [ 113.11196136, -7.78149319 ], [ 113.11227417, -7.78176308 ], [ 113.11254883, -7.78197241 ], [ 113.11238861, -7.78215408 ], [ 113.11230469, -7.782341 ], [ 113.11205292, -7.78249884 ], [ 113.11070251, -7.78295755 ], [ 113.110466, -7.78309727 ], [ 113.11024475, -7.78327322 ], [ 113.11010742, -7.78344011 ], [ 113.10997009, -7.78375053 ], [ 113.10990906, -7.78394365 ], [ 113.10990143, -7.78446198 ], [ 113.10992432, -7.78490162 ], [ 113.10990143, -7.78628016 ], [ 113.10983276, -7.78676987 ], [ 113.10974121, -7.78699017 ], [ 113.10955048, -7.78732014 ], [ 113.10939789, -7.78758764 ], [ 113.10932159, -7.78773022 ], [ 113.10915375, -7.78804016 ], [ 113.10900879, -7.78837013 ], [ 113.10891724, -7.78857517 ], [ 113.10894012, -7.78894281 ], [ 113.10900116, -7.78922558 ], [ 113.10908508, -7.78946638 ], [ 113.10913086, -7.78982019 ], [ 113.10903931, -7.79002094 ], [ 113.10888672, -7.79036999 ], [ 113.10884857, -7.79046011 ], [ 113.1086731, -7.7908802 ], [ 113.10845184, -7.79137993 ], [ 113.1083374, -7.79183006 ], [ 113.10832214, -7.79201984 ], [ 113.10832977, -7.79231977 ], [ 113.10823059, -7.79268742 ], [ 113.10782623, -7.79287004 ], [ 113.10762787, -7.79306412 ], [ 113.10765839, -7.79360628 ], [ 113.10758972, -7.79375696 ], [ 113.10740662, -7.79392052 ], [ 113.10707855, -7.79383802 ], [ 113.10666656, -7.79338217 ], [ 113.10650635, -7.79333496 ], [ 113.10585022, -7.79372454 ], [ 113.1057663, -7.79376984 ], [ 113.10533142, -7.79420996 ], [ 113.10501099, -7.79459 ], [ 113.10484314, -7.79485989 ], [ 113.10475159, -7.79511976 ], [ 113.10466766, -7.79572964 ], [ 113.10463715, -7.7961216 ], [ 113.10466003, -7.79676008 ], [ 113.10460663, -7.79702997 ], [ 113.10456848, -7.79709291 ], [ 113.10452271, -7.797369 ], [ 113.10441589, -7.7975502 ], [ 113.10410309, -7.79768467 ], [ 113.10389709, -7.79775763 ], [ 113.10375214, -7.79779482 ], [ 113.10355377, -7.79780769 ], [ 113.10356903, -7.79798222 ], [ 113.10365295, -7.7982831 ], [ 113.10359955, -7.79848242 ], [ 113.10354614, -7.79862118 ], [ 113.10363007, -7.79877138 ], [ 113.10366058, -7.79887342 ], [ 113.10378265, -7.79901123 ], [ 113.10382843, -7.79909658 ], [ 113.10387421, -7.79916143 ], [ 113.10392761, -7.79933023 ], [ 113.10389709, -7.79943848 ], [ 113.10490417, -7.80001211 ], [ 113.10519409, -7.80025768 ], [ 113.10545349, -7.80055141 ], [ 113.1059494, -7.80089426 ], [ 113.10609436, -7.80099392 ], [ 113.10638428, -7.80116796 ], [ 113.10639191, -7.80147457 ], [ 113.10645294, -7.80154991 ], [ 113.10662842, -7.80167007 ], [ 113.1071167, -7.80192947 ], [ 113.10758972, -7.80219984 ], [ 113.10775757, -7.80233097 ], [ 113.10819244, -7.8025732 ], [ 113.1085434, -7.80278826 ], [ 113.10889435, -7.80300283 ], [ 113.1092453, -7.80326462 ], [ 113.10949707, -7.80344009 ], [ 113.10980225, -7.80394983 ], [ 113.11003113, -7.80435991 ], [ 113.11022186, -7.80466986 ], [ 113.11042023, -7.80495977 ], [ 113.11058044, -7.80515003 ], [ 113.1107254, -7.80524635 ], [ 113.11087799, -7.80542612 ], [ 113.11116791, -7.80577803 ], [ 113.11152649, -7.80619049 ], [ 113.11196899, -7.80646133 ], [ 113.11254883, -7.80697584 ], [ 113.11312866, -7.80724621 ], [ 113.11341095, -7.80773401 ], [ 113.11380768, -7.80795813 ], [ 113.11460876, -7.80842495 ], [ 113.11488342, -7.80857897 ], [ 113.11508942, -7.80880022 ], [ 113.115242, -7.80893993 ], [ 113.11558533, -7.8093071 ], [ 113.11533356, -7.80926132 ], [ 113.11514282, -7.80926991 ], [ 113.11512756, -7.80934429 ], [ 113.1149826, -7.80939484 ], [ 113.1149292, -7.80964947 ], [ 113.11488342, -7.80980349 ], [ 113.11484528, -7.80994081 ], [ 113.11460114, -7.81005573 ], [ 113.11373901, -7.80998468 ], [ 113.11345673, -7.81009007 ], [ 113.11322784, -7.81010056 ], [ 113.11309052, -7.81017208 ], [ 113.11296844, -7.81058979 ], [ 113.11287689, -7.81065989 ], [ 113.11257935, -7.81078005 ], [ 113.11241913, -7.81084967 ], [ 113.11233521, -7.81092405 ], [ 113.11220551, -7.81106567 ], [ 113.11203766, -7.8112359 ], [ 113.11184692, -7.81127453 ], [ 113.11164093, -7.8110404 ], [ 113.11151886, -7.81104088 ], [ 113.11135101, -7.8110981 ], [ 113.11113739, -7.81124973 ], [ 113.11094666, -7.81146717 ], [ 113.11064148, -7.81162882 ], [ 113.11037445, -7.81156445 ], [ 113.11019135, -7.81173468 ], [ 113.10964966, -7.81181288 ], [ 113.10951996, -7.81171942 ], [ 113.10939789, -7.8117671 ], [ 113.10933685, -7.81184006 ], [ 113.10920715, -7.81200075 ], [ 113.10919952, -7.81217003 ], [ 113.10907745, -7.8124156 ], [ 113.10884857, -7.81254816 ], [ 113.10871124, -7.81253147 ], [ 113.10847473, -7.81250334 ], [ 113.10820007, -7.81258917 ], [ 113.10803986, -7.81264162 ], [ 113.10784912, -7.81270409 ], [ 113.10780334, -7.81291151 ], [ 113.10772705, -7.8131752 ], [ 113.10758209, -7.81339264 ], [ 113.10752869, -7.81350136 ], [ 113.10747528, -7.81360006 ], [ 113.10723877, -7.81372356 ], [ 113.10699463, -7.81374359 ], [ 113.10668182, -7.81371689 ], [ 113.10639191, -7.81357718 ], [ 113.10616302, -7.8135314 ], [ 113.10577393, -7.81345797 ], [ 113.10560608, -7.81338406 ], [ 113.10549164, -7.81333685 ], [ 113.10529327, -7.81338501 ], [ 113.10523987, -7.81359529 ], [ 113.10520935, -7.81371498 ], [ 113.10503387, -7.81374407 ], [ 113.10469055, -7.8137269 ], [ 113.10440826, -7.81370974 ], [ 113.10436249, -7.81390762 ], [ 113.10433197, -7.81413841 ], [ 113.10421753, -7.81431293 ], [ 113.10387421, -7.81431484 ], [ 113.10346985, -7.81429768 ], [ 113.10321808, -7.81425953 ], [ 113.1029129, -7.81444979 ], [ 113.10269928, -7.81456995 ], [ 113.10241699, -7.81463003 ], [ 113.10224915, -7.81466007 ], [ 113.10211945, -7.81478977 ], [ 113.10198975, -7.81500006 ], [ 113.1019516, -7.81629992 ], [ 113.10192871, -7.81639004 ], [ 113.10228729, -7.81669998 ], [ 113.10269165, -7.81715012 ], [ 113.10301208, -7.81753016 ], [ 113.10347748, -7.81795979 ], [ 113.10388184, -7.81832981 ], [ 113.10439301, -7.81864977 ], [ 113.10481262, -7.81890011 ], [ 113.10532379, -7.81915998 ], [ 113.10562897, -7.81933022 ], [ 113.10585785, -7.81945992 ], [ 113.10643768, -7.81978989 ], [ 113.10704803, -7.82028008 ], [ 113.10739899, -7.82058001 ], [ 113.10749054, -7.82067299 ], [ 113.1075592, -7.82074165 ], [ 113.10785675, -7.82104015 ], [ 113.10838318, -7.82152987 ], [ 113.10868835, -7.82191992 ], [ 113.10894775, -7.8222599 ], [ 113.10904694, -7.82243013 ], [ 113.10929108, -7.82280016 ], [ 113.10962677, -7.82322979 ], [ 113.11003113, -7.8236599 ], [ 113.11058044, -7.82406998 ], [ 113.11112213, -7.82456017 ], [ 113.11167908, -7.82496977 ], [ 113.11209106, -7.82521009 ], [ 113.1128006, -7.82560015 ], [ 113.11325073, -7.82588005 ], [ 113.11366272, -7.82612991 ], [ 113.11391449, -7.8262887 ], [ 113.11431122, -7.82652998 ], [ 113.11490631, -7.82690001 ], [ 113.11544037, -7.82723999 ], [ 113.1162262, -7.82764006 ], [ 113.11665344, -7.82782984 ], [ 113.1169281, -7.82795 ], [ 113.11698914, -7.82799006 ], [ 113.11724854, -7.82818317 ], [ 113.11746216, -7.82842064 ], [ 113.11773682, -7.82853556 ], [ 113.1180191, -7.82845879 ], [ 113.11878967, -7.82879019 ], [ 113.11911774, -7.82893848 ], [ 113.11927795, -7.82896471 ], [ 113.11940765, -7.82904005 ], [ 113.11947632, -7.82912016 ], [ 113.11966705, -7.82918978 ], [ 113.11985016, -7.82922983 ], [ 113.11998749, -7.82932186 ], [ 113.12017822, -7.82919502 ], [ 113.12046814, -7.82898474 ], [ 113.12065887, -7.82876921 ], [ 113.12075043, -7.82852936 ], [ 113.12084198, -7.8283205 ], [ 113.12104034, -7.82806778 ], [ 113.12125397, -7.82793188 ], [ 113.12145233, -7.82776546 ], [ 113.12154388, -7.82755613 ], [ 113.12150574, -7.82736015 ], [ 113.12148285, -7.82720089 ], [ 113.12168121, -7.82711363 ], [ 113.12187195, -7.82700253 ], [ 113.12206268, -7.82705069 ], [ 113.12230682, -7.82709837 ], [ 113.12255096, -7.82710314 ], [ 113.12283325, -7.82707119 ], [ 113.12301636, -7.82689238 ], [ 113.12316895, -7.82677507 ], [ 113.12330627, -7.82667637 ], [ 113.12348175, -7.82665062 ], [ 113.12376404, -7.8266921 ], [ 113.12399292, -7.82667875 ], [ 113.12421417, -7.82656097 ], [ 113.12435913, -7.82649279 ], [ 113.12449646, -7.8264308 ], [ 113.12464142, -7.82633209 ], [ 113.12480927, -7.82626963 ], [ 113.12497711, -7.82632399 ], [ 113.12502289, -7.82647133 ], [ 113.12506866, -7.82674694 ], [ 113.12512207, -7.82694292 ], [ 113.12520599, -7.8271513 ], [ 113.12537384, -7.82727909 ], [ 113.12557983, -7.82725382 ], [ 113.12574768, -7.82722855 ], [ 113.12574005, -7.82753992 ], [ 113.12573242, -7.82799006 ], [ 113.12568665, -7.82849979 ], [ 113.12567139, -7.8289299 ], [ 113.12570953, -7.82921982 ], [ 113.12574768, -7.82982016 ], [ 113.12586975, -7.83063984 ], [ 113.1259079, -7.83111 ], [ 113.12606049, -7.83186007 ], [ 113.12610626, -7.83228016 ], [ 113.12610626, -7.83291006 ], [ 113.12615204, -7.83340979 ], [ 113.1261673, -7.83372021 ], [ 113.1261673, -7.83483982 ], [ 113.1260376, -7.83659983 ], [ 113.1260376, -7.83678007 ], [ 113.12604523, -7.83690643 ], [ 113.12608337, -7.83753014 ], [ 113.12612915, -7.8376298 ], [ 113.12612152, -7.83803988 ], [ 113.12605286, -7.83855009 ], [ 113.1259613, -7.8389802 ], [ 113.12589264, -7.83916998 ], [ 113.12568665, -7.83971024 ], [ 113.12552643, -7.84014988 ], [ 113.12523651, -7.84124899 ], [ 113.12521362, -7.84166002 ], [ 113.12525177, -7.84197998 ], [ 113.12532043, -7.84241009 ], [ 113.12561798, -7.84339094 ], [ 113.12570953, -7.84365988 ], [ 113.12576294, -7.84384012 ], [ 113.12583923, -7.84421015 ], [ 113.12593842, -7.84463978 ], [ 113.12602234, -7.84497976 ], [ 113.1261673, -7.84540987 ], [ 113.12624359, -7.8459301 ], [ 113.12635803, -7.84636021 ], [ 113.12641907, -7.84689999 ], [ 113.12638855, -7.84729004 ], [ 113.12638092, -7.84737015 ], [ 113.12637329, -7.84780979 ], [ 113.12638092, -7.84837008 ], [ 113.12628937, -7.84888983 ], [ 113.126297, -7.84976006 ], [ 113.12626648, -7.84987068 ], [ 113.12615967, -7.85023022 ], [ 113.126091, -7.85038996 ], [ 113.12606812, -7.85067987 ], [ 113.12606812, -7.85093021 ], [ 113.12605286, -7.85119009 ], [ 113.12595367, -7.85149002 ], [ 113.12586975, -7.85164022 ], [ 113.12561035, -7.85156012 ], [ 113.12536621, -7.85146999 ], [ 113.12528229, -7.85145998 ], [ 113.12515259, -7.85152006 ], [ 113.125, -7.85172987 ], [ 113.12493896, -7.85181999 ], [ 113.12483215, -7.85201979 ], [ 113.12478638, -7.85219002 ], [ 113.12476349, -7.85259008 ], [ 113.12473297, -7.8527298 ], [ 113.12467194, -7.85290003 ], [ 113.12454224, -7.85311985 ], [ 113.1242981, -7.85346985 ], [ 113.12419128, -7.85386992 ], [ 113.12412262, -7.85399008 ], [ 113.12404633, -7.85404015 ], [ 113.123909, -7.85410023 ], [ 113.12307739, -7.85434008 ], [ 113.12277985, -7.8544302 ], [ 113.12226868, -7.85458994 ], [ 113.12207794, -7.85468006 ], [ 113.1219101, -7.85479021 ], [ 113.12158203, -7.8550601 ], [ 113.12142181, -7.85529995 ], [ 113.12130737, -7.85545015 ], [ 113.12109375, -7.85562992 ], [ 113.12101746, -7.85564756 ], [ 113.12088776, -7.85567999 ], [ 113.12081146, -7.85569 ], [ 113.12017822, -7.85558987 ], [ 113.11997223, -7.85555983 ], [ 113.11978912, -7.8555398 ], [ 113.11937714, -7.85567999 ], [ 113.11897278, -7.85589981 ], [ 113.11881256, -7.85600996 ], [ 113.11872101, -7.85612011 ], [ 113.1186676, -7.85643005 ], [ 113.11863708, -7.85667992 ], [ 113.11859894, -7.85684013 ], [ 113.11849213, -7.85699987 ], [ 113.11831665, -7.85712004 ], [ 113.11811829, -7.85716009 ], [ 113.11798859, -7.85715008 ], [ 113.11778259, -7.85722017 ], [ 113.11766815, -7.85726023 ], [ 113.11740112, -7.85741997 ], [ 113.11714172, -7.85762978 ], [ 113.11698914, -7.85782003 ], [ 113.1169281, -7.85801983 ], [ 113.11691284, -7.85812998 ], [ 113.11672211, -7.85821009 ], [ 113.11652374, -7.85830021 ], [ 113.11612701, -7.85846996 ], [ 113.11589813, -7.85853004 ], [ 113.1155777, -7.85846996 ], [ 113.11537933, -7.85844994 ], [ 113.11524963, -7.85845852 ], [ 113.11508179, -7.85846996 ], [ 113.11464691, -7.85838985 ], [ 113.11435699, -7.85819006 ], [ 113.1140976, -7.85800982 ], [ 113.11382294, -7.85796022 ], [ 113.11351013, -7.85801983 ], [ 113.11318207, -7.85824013 ], [ 113.11296082, -7.8585 ], [ 113.11283875, -7.85861015 ], [ 113.11276245, -7.85864639 ], [ 113.11260223, -7.85871983 ], [ 113.11206818, -7.85860014 ], [ 113.11170959, -7.85851002 ], [ 113.11147308, -7.85863018 ], [ 113.11045074, -7.85885 ], [ 113.10958099, -7.85898018 ], [ 113.10942841, -7.85903978 ], [ 113.10923767, -7.85933018 ], [ 113.10900879, -7.85953999 ], [ 113.10868073, -7.85972977 ], [ 113.10838318, -7.85980988 ], [ 113.10823822, -7.8598299 ], [ 113.10806274, -7.85972023 ], [ 113.10787201, -7.8594799 ], [ 113.10781097, -7.8592701 ], [ 113.10777283, -7.85909986 ], [ 113.1076889, -7.85898018 ], [ 113.10758972, -7.85894012 ], [ 113.1072464, -7.85926008 ], [ 113.10659027, -7.8593998 ], [ 113.10645294, -7.85938978 ], [ 113.10614777, -7.85948658 ], [ 113.10582733, -7.85959005 ], [ 113.10569763, -7.85962009 ], [ 113.10561371, -7.85956001 ], [ 113.10549927, -7.85931015 ], [ 113.10533905, -7.85896015 ], [ 113.10497284, -7.85916996 ], [ 113.10478973, -7.85921001 ], [ 113.10475159, -7.85901022 ], [ 113.10459137, -7.85888004 ], [ 113.10411835, -7.85871983 ], [ 113.10402679, -7.85870981 ], [ 113.10391235, -7.85880995 ], [ 113.10385132, -7.85902023 ], [ 113.10384369, -7.85911989 ], [ 113.10375214, -7.85921001 ], [ 113.10365295, -7.85923004 ], [ 113.1035614, -7.85917997 ], [ 113.10340881, -7.85896015 ], [ 113.10327148, -7.85875988 ], [ 113.1029129, -7.85903978 ], [ 113.10276794, -7.85913992 ], [ 113.10256958, -7.85914993 ], [ 113.10220337, -7.85903978 ], [ 113.10198975, -7.85899019 ], [ 113.10183716, -7.85901022 ], [ 113.10166168, -7.85913992 ], [ 113.10108948, -7.85945988 ], [ 113.10088348, -7.85958004 ], [ 113.10063171, -7.8599 ], [ 113.10059357, -7.86004019 ], [ 113.10059357, -7.86021996 ], [ 113.10051727, -7.86035013 ], [ 113.10041046, -7.86044979 ], [ 113.10015106, -7.86048985 ], [ 113.09989929, -7.86051989 ], [ 113.09957123, -7.86063004 ], [ 113.09931946, -7.86041021 ], [ 113.09914398, -7.86026621 ], [ 113.09906769, -7.86023998 ], [ 113.09899139, -7.86025 ], [ 113.09889221, -7.8604002 ], [ 113.09882355, -7.86051989 ], [ 113.09868622, -7.86058998 ], [ 113.09851837, -7.86061001 ], [ 113.09838104, -7.86046982 ], [ 113.09824371, -7.86028004 ], [ 113.09810638, -7.86018991 ], [ 113.09796906, -7.8601799 ], [ 113.097435, -7.86057138 ], [ 113.09736633, -7.86062002 ], [ 113.09705353, -7.86092997 ], [ 113.09618378, -7.86090994 ], [ 113.09603882, -7.86090994 ], [ 113.09590149, -7.86099005 ], [ 113.09580231, -7.86114979 ], [ 113.09573364, -7.86124992 ], [ 113.09559631, -7.86129379 ], [ 113.0954895, -7.86129999 ], [ 113.09541321, -7.86128998 ], [ 113.09520721, -7.86104012 ], [ 113.0951004, -7.86090994 ], [ 113.0949707, -7.86084986 ], [ 113.09475708, -7.86084986 ], [ 113.09461212, -7.86091995 ], [ 113.09439087, -7.86107016 ], [ 113.09426117, -7.86110306 ], [ 113.09400177, -7.86116982 ], [ 113.09365082, -7.86133003 ], [ 113.09338379, -7.86154985 ], [ 113.09320068, -7.86168003 ], [ 113.09298706, -7.86178017 ], [ 113.092453, -7.86187983 ], [ 113.09207153, -7.8618598 ], [ 113.09163666, -7.86179018 ], [ 113.09143066, -7.86182022 ], [ 113.09082794, -7.86199999 ], [ 113.09013367, -7.86210012 ], [ 113.08927155, -7.86226988 ], [ 113.08818817, -7.8625598 ], [ 113.08740997, -7.86282015 ], [ 113.08670807, -7.86308002 ], [ 113.08634186, -7.86316013 ], [ 113.08592987, -7.86318016 ], [ 113.08512115, -7.86308002 ], [ 113.08390045, -7.86319017 ], [ 113.08349609, -7.86328459 ], [ 113.08238983, -7.86171627 ], [ 113.08205414, -7.8617034 ], [ 113.08180237, -7.86177349 ], [ 113.08161163, -7.86202717 ], [ 113.08131409, -7.86205149 ], [ 113.08078003, -7.86198521 ], [ 113.08039093, -7.86203289 ], [ 113.08003235, -7.86228752 ], [ 113.07929993, -7.86254406 ], [ 113.07875824, -7.8627305 ], [ 113.07830811, -7.86269808 ], [ 113.07797241, -7.86272287 ], [ 113.07775116, -7.86275148 ], [ 113.07733154, -7.86280632 ], [ 113.07706451, -7.86310625 ], [ 113.07672882, -7.86314249 ], [ 113.07627106, -7.86329412 ], [ 113.07563782, -7.86342335 ], [ 113.07549286, -7.86363077 ], [ 113.07528687, -7.86391926 ], [ 113.07475281, -7.86414003 ], [ 113.07463074, -7.86422968 ], [ 113.07401276, -7.86443663 ], [ 113.07368469, -7.86423731 ], [ 113.07254028, -7.86355162 ], [ 113.07199097, -7.86342525 ], [ 113.07165527, -7.86290884 ], [ 113.07128143, -7.86246347 ], [ 113.07100677, -7.8623414 ], [ 113.07080078, -7.86227274 ], [ 113.07035828, -7.86211824 ], [ 113.07019806, -7.86204958 ], [ 113.06985474, -7.86189938 ], [ 113.06795502, -7.86106825 ], [ 113.06743622, -7.86074495 ], [ 113.0668335, -7.86036968 ], [ 113.06674957, -7.86032009 ], [ 113.0665741, -7.86030912 ], [ 113.06642914, -7.86024475 ], [ 113.06609344, -7.86006975 ], [ 113.06533051, -7.85966873 ], [ 113.06517029, -7.85999823 ], [ 113.06482697, -7.86044407 ], [ 113.06443024, -7.86096144 ], [ 113.06427002, -7.8611989 ], [ 113.06415558, -7.86133242 ], [ 113.06393433, -7.86151361 ], [ 113.06378937, -7.86169958 ], [ 113.063591, -7.86193848 ], [ 113.0634079, -7.86214256 ], [ 113.06316376, -7.86240435 ], [ 113.06291962, -7.86274195 ], [ 113.06272125, -7.86298323 ], [ 113.06252289, -7.86289167 ], [ 113.06193542, -7.86295748 ], [ 113.06179047, -7.86301231 ], [ 113.061203, -7.86295223 ], [ 113.06034088, -7.8629303 ], [ 113.05936432, -7.86286497 ], [ 113.05819702, -7.86260605 ], [ 113.05805969, -7.86253548 ], [ 113.05757141, -7.86228037 ], [ 113.0570755, -7.86203051 ], [ 113.05696106, -7.86196899 ], [ 113.05632782, -7.86178017 ], [ 113.05599213, -7.86136246 ], [ 113.05583191, -7.86098003 ], [ 113.05529022, -7.86085176 ], [ 113.05473328, -7.86072016 ], [ 113.05416107, -7.86066008 ], [ 113.05329895, -7.86041021 ], [ 113.05283356, -7.8602376 ], [ 113.05268097, -7.86018705 ], [ 113.05223846, -7.86007023 ], [ 113.05178833, -7.86000013 ], [ 113.05136108, -7.85994005 ], [ 113.0511322, -7.8598752 ], [ 113.05104065, -7.85984993 ], [ 113.05084991, -7.85979986 ], [ 113.0504837, -7.85969019 ], [ 113.0501709, -7.85958004 ], [ 113.04971313, -7.85942984 ], [ 113.04915619, -7.8592701 ], [ 113.04886627, -7.85919428 ], [ 113.04860687, -7.85912991 ], [ 113.04812622, -7.85896111 ], [ 113.04798126, -7.85891008 ], [ 113.04760742, -7.8586998 ], [ 113.04725647, -7.85851002 ], [ 113.04698181, -7.85833979 ], [ 113.04691315, -7.85830402 ], [ 113.04649353, -7.85808992 ], [ 113.04631042, -7.85798979 ], [ 113.04579926, -7.85776997 ], [ 113.04573059, -7.85774326 ], [ 113.04525757, -7.8575654 ], [ 113.04473877, -7.8573699 ], [ 113.04392242, -7.85705996 ], [ 113.04302216, -7.85671997 ], [ 113.04260254, -7.85655928 ], [ 113.04247284, -7.85649014 ], [ 113.0423584, -7.85645008 ], [ 113.04193878, -7.85627985 ], [ 113.04174805, -7.85619497 ], [ 113.04161835, -7.85613585 ], [ 113.04154205, -7.85613775 ], [ 113.04094696, -7.8558898 ], [ 113.04071808, -7.85587978 ], [ 113.0404129, -7.85593987 ], [ 113.04010773, -7.85598993 ], [ 113.03978729, -7.85607004 ], [ 113.03948975, -7.8561902 ], [ 113.03923798, -7.85626984 ], [ 113.03900909, -7.85653019 ], [ 113.03894806, -7.85658979 ], [ 113.03878784, -7.8566761 ], [ 113.03845215, -7.85685492 ], [ 113.03826904, -7.85694981 ], [ 113.03794098, -7.85713005 ], [ 113.03787994, -7.85718012 ], [ 113.03743744, -7.85777998 ], [ 113.03726196, -7.85797024 ], [ 113.03691864, -7.85815001 ], [ 113.03656006, -7.8583498 ], [ 113.03617096, -7.85855007 ], [ 113.0355835, -7.85893011 ], [ 113.03562164, -7.85913992 ], [ 113.03569794, -7.85936022 ], [ 113.03572083, -7.85949993 ], [ 113.03565979, -7.85979986 ], [ 113.0356369, -7.85988998 ], [ 113.03560638, -7.86004019 ], [ 113.03559113, -7.86016989 ], [ 113.0355835, -7.86029005 ], [ 113.03556824, -7.8604002 ], [ 113.03552246, -7.86051989 ], [ 113.03549957, -7.86066008 ], [ 113.03547668, -7.86077976 ], [ 113.03546906, -7.86097002 ], [ 113.03556061, -7.86111021 ], [ 113.0358429, -7.86142015 ], [ 113.03607941, -7.86159992 ], [ 113.03617096, -7.86168003 ], [ 113.03678894, -7.86218977 ], [ 113.03720093, -7.86253023 ], [ 113.03716278, -7.86269999 ], [ 113.03694916, -7.86320353 ], [ 113.03691864, -7.86326981 ], [ 113.03677368, -7.86369991 ], [ 113.03678131, -7.86390018 ], [ 113.03684235, -7.86399984 ], [ 113.03701782, -7.86410999 ], [ 113.037117, -7.86409998 ], [ 113.03739929, -7.86393023 ], [ 113.03768158, -7.86370993 ], [ 113.03797913, -7.86353016 ], [ 113.03813934, -7.86338997 ], [ 113.03825378, -7.86327982 ], [ 113.03845215, -7.86308002 ], [ 113.03849792, -7.86299992 ], [ 113.03864288, -7.86285019 ], [ 113.03881836, -7.86288977 ], [ 113.0390625, -7.86306 ], [ 113.03917694, -7.86313009 ], [ 113.03885651, -7.86421204 ], [ 113.03970337, -7.86526299 ], [ 113.03974915, -7.86539698 ], [ 113.04016876, -7.8653698 ], [ 113.0405426, -7.86519194 ], [ 113.04088593, -7.86492205 ], [ 113.04109955, -7.86472034 ], [ 113.04129791, -7.86464834 ], [ 113.04121399, -7.86483431 ], [ 113.04118347, -7.86491013 ], [ 113.04106903, -7.86523008 ], [ 113.04097748, -7.86550999 ], [ 113.04090881, -7.86571407 ], [ 113.04078674, -7.86605978 ], [ 113.0407486, -7.86619997 ], [ 113.0407486, -7.8666501 ], [ 113.04065704, -7.8670001 ], [ 113.04052734, -7.86737013 ], [ 113.04042053, -7.86779022 ], [ 113.04036713, -7.86799002 ], [ 113.04029846, -7.86821985 ], [ 113.04013062, -7.86851978 ], [ 113.03993225, -7.86878014 ], [ 113.03967285, -7.86915016 ], [ 113.03952789, -7.86941004 ], [ 113.03917694, -7.8698802 ], [ 113.03910065, -7.87001991 ], [ 113.03894806, -7.8702898 ], [ 113.03881836, -7.87060022 ], [ 113.0386734, -7.87100983 ], [ 113.03858948, -7.87128019 ], [ 113.03851318, -7.87149 ], [ 113.03846741, -7.87160015 ], [ 113.03842163, -7.87173986 ], [ 113.03826141, -7.87204981 ], [ 113.03810883, -7.87224007 ], [ 113.03801727, -7.87232018 ], [ 113.03803253, -7.87250662 ], [ 113.03807068, -7.8726902 ], [ 113.03807068, -7.87284994 ], [ 113.03803253, -7.8730998 ], [ 113.03793335, -7.87343979 ], [ 113.03790283, -7.87369013 ], [ 113.03791046, -7.87380981 ], [ 113.03800201, -7.87395 ], [ 113.03811646, -7.87413979 ], [ 113.03809357, -7.87439013 ], [ 113.03800201, -7.87463999 ], [ 113.03794098, -7.87474871 ], [ 113.03780365, -7.87501001 ], [ 113.03765869, -7.87517977 ], [ 113.03759003, -7.87522984 ], [ 113.03723907, -7.87538004 ], [ 113.0370636, -7.87547016 ], [ 113.03688812, -7.87565994 ], [ 113.03677368, -7.8758502 ], [ 113.03665161, -7.87606001 ], [ 113.03646088, -7.87627983 ], [ 113.03636169, -7.87643003 ], [ 113.03616333, -7.87696981 ], [ 113.03611755, -7.87706995 ], [ 113.03582764, -7.87772989 ], [ 113.03555298, -7.8783102 ], [ 113.03552246, -7.87837982 ], [ 113.03514862, -7.87886 ], [ 113.03479004, -7.87933016 ], [ 113.03423309, -7.8800602 ] ] ] ] } }
]
}
