{
"type": "FeatureCollection",
"name": "Kecamatan Kraksaan",
"crs": { "type": "name", "properties": { "name": "urn:ogc:def:crs:OGC:1.3:CRS84" } },
"features": [
{ "type": "Feature", "properties": { "GID_0": "IDN", "NAME_0": "Indonesia", "GID_1": "IDN.11_1", "NAME_1": "Jawa Timur", "NL_NAME_1": null, "GID_2": "IDN.11.30_1", "NAME_2": "Probolinggo", "NL_NAME_2": null, "GID_3": "IDN.11.30.8_1", "NAME_3": "Kraksaan", "VARNAME_3": null, "NL_NAME_3": null, "TYPE_3": "Kecamatan", "ENGTYPE_3": "Sub-district", "CC_3": "3513150", "HASC_3": null }, "geometry": { "type": "MultiPolygon", "coordinates": [ [ [ [ 113.42865753, -7.77354002 ], [ 113.42874146, -7.77323008 ], [ 113.42861176, -7.77320099 ], [ 113.42841339, -7.77316999 ], [ 113.4281311, -7.77316999 ], [ 113.42771149, -7.77320004 ], [ 113.42711639, -7.77334023 ], [ 113.42693329, -7.77336979 ], [ 113.42649078, -7.77341986 ], [ 113.42635345, -7.77344561 ], [ 113.42555237, -7.7736001 ], [ 113.42471313, -7.77370977 ], [ 113.42391205, -7.77386999 ], [ 113.42346954, -7.77403212 ], [ 113.42339325, -7.77405977 ], [ 113.42259216, -7.77489996 ], [ 113.42234802, -7.77514267 ], [ 113.42227173, -7.77521992 ], [ 113.42192841, -7.77553988 ], [ 113.42092896, -7.77654982 ], [ 113.42008972, -7.77739 ], [ 113.41905212, -7.77844 ], [ 113.41803741, -7.77950001 ], [ 113.41766357, -7.77987003 ], [ 113.41732025, -7.7802 ], [ 113.41649628, -7.78105021 ], [ 113.41589355, -7.78094006 ], [ 113.41581726, -7.78093481 ], [ 113.41545868, -7.78091002 ], [ 113.41506195, -7.78072977 ], [ 113.41471863, -7.78053999 ], [ 113.4145813, -7.78045988 ], [ 113.41426849, -7.78022003 ], [ 113.41404724, -7.78002882 ], [ 113.4139328, -7.77993011 ], [ 113.41349792, -7.77961016 ], [ 113.41325378, -7.77946997 ], [ 113.41294861, -7.7794199 ], [ 113.41269684, -7.77939987 ], [ 113.41242218, -7.77940989 ], [ 113.412323, -7.77944994 ], [ 113.41223145, -7.77959013 ], [ 113.41208649, -7.77993011 ], [ 113.41181183, -7.78060007 ], [ 113.41162872, -7.78099012 ], [ 113.41152191, -7.78122902 ], [ 113.41143036, -7.78142977 ], [ 113.41130829, -7.78167915 ], [ 113.41104126, -7.78223991 ], [ 113.4108429, -7.78270006 ], [ 113.41079712, -7.78289986 ], [ 113.41075897, -7.78318024 ], [ 113.41062164, -7.78392982 ], [ 113.41056824, -7.78452015 ], [ 113.4105835, -7.78496981 ], [ 113.41053009, -7.78522015 ], [ 113.41031647, -7.78543997 ], [ 113.41007233, -7.78564978 ], [ 113.40968323, -7.78582001 ], [ 113.40927887, -7.78597021 ], [ 113.40904999, -7.78599024 ], [ 113.40892792, -7.78600979 ], [ 113.40886688, -7.7858901 ], [ 113.40875244, -7.78567982 ], [ 113.40844727, -7.78509998 ], [ 113.40808105, -7.78429985 ], [ 113.40772247, -7.78349018 ], [ 113.40751648, -7.78290987 ], [ 113.40737915, -7.78247023 ], [ 113.40721893, -7.78198004 ], [ 113.4072113, -7.78185987 ], [ 113.40724945, -7.78178978 ], [ 113.40731812, -7.78176022 ], [ 113.40746307, -7.78169012 ], [ 113.40775299, -7.78157997 ], [ 113.40805817, -7.78147984 ], [ 113.40836334, -7.78136015 ], [ 113.40852356, -7.78130007 ], [ 113.40859985, -7.78127003 ], [ 113.40885162, -7.7810998 ], [ 113.40911102, -7.78087997 ], [ 113.4093399, -7.78049994 ], [ 113.40950775, -7.78013992 ], [ 113.40953827, -7.77993011 ], [ 113.40988159, -7.7792902 ], [ 113.41004181, -7.77884007 ], [ 113.41007996, -7.77868986 ], [ 113.41017914, -7.77847004 ], [ 113.41026306, -7.7782979 ], [ 113.41033173, -7.77815008 ], [ 113.41030121, -7.77776003 ], [ 113.41024017, -7.77735996 ], [ 113.41010284, -7.77705002 ], [ 113.40962219, -7.7767601 ], [ 113.40914917, -7.77658987 ], [ 113.40849304, -7.77645016 ], [ 113.4079895, -7.77635002 ], [ 113.40743256, -7.7760601 ], [ 113.40712738, -7.77576017 ], [ 113.4069519, -7.77537012 ], [ 113.40650177, -7.77476978 ], [ 113.40635681, -7.77464008 ], [ 113.40613556, -7.77442741 ], [ 113.40605164, -7.77435017 ], [ 113.40599823, -7.77391005 ], [ 113.40596771, -7.77358198 ], [ 113.40593719, -7.77334976 ], [ 113.40592194, -7.7730298 ], [ 113.4059906, -7.77285004 ], [ 113.40611267, -7.77264977 ], [ 113.40619659, -7.77253008 ], [ 113.40654755, -7.77223015 ], [ 113.40693665, -7.77185011 ], [ 113.40727997, -7.77187014 ], [ 113.40760803, -7.77096987 ], [ 113.40738678, -7.77080011 ], [ 113.40747833, -7.77057981 ], [ 113.40791321, -7.76949978 ], [ 113.40853882, -7.76960993 ], [ 113.40860748, -7.76933002 ], [ 113.40828705, -7.76914978 ], [ 113.40843964, -7.76748991 ], [ 113.40878296, -7.76756001 ], [ 113.40876007, -7.76725006 ], [ 113.40876007, -7.76714373 ], [ 113.40881348, -7.76675987 ], [ 113.40885162, -7.76654005 ], [ 113.40850067, -7.7665 ], [ 113.40811157, -7.7664299 ], [ 113.40756226, -7.76643991 ], [ 113.40705872, -7.76641989 ], [ 113.40696716, -7.7664299 ], [ 113.40647125, -7.76645994 ], [ 113.40633392, -7.76650238 ], [ 113.40589905, -7.76664019 ], [ 113.40572357, -7.7667098 ], [ 113.40548706, -7.76680994 ], [ 113.40535736, -7.76686001 ], [ 113.40500641, -7.76703215 ], [ 113.40485382, -7.7671051 ], [ 113.40473938, -7.76715994 ], [ 113.40381622, -7.76769018 ], [ 113.402771, -7.76837015 ], [ 113.40202332, -7.76884985 ], [ 113.40155792, -7.76927996 ], [ 113.40110779, -7.76975012 ], [ 113.40067291, -7.77043009 ], [ 113.40019226, -7.77107 ], [ 113.40013885, -7.77112007 ], [ 113.3996582, -7.77172995 ], [ 113.39923096, -7.77225018 ], [ 113.39916229, -7.77232981 ], [ 113.39914703, -7.77256012 ], [ 113.3990097, -7.7730298 ], [ 113.3989563, -7.77318001 ], [ 113.39900208, -7.77361012 ], [ 113.39901733, -7.77378988 ], [ 113.39904022, -7.77390003 ], [ 113.39904785, -7.77400017 ], [ 113.39906311, -7.77408981 ], [ 113.3990097, -7.77419662 ], [ 113.39906311, -7.77455997 ], [ 113.39917755, -7.77495003 ], [ 113.39929962, -7.77553988 ], [ 113.39929962, -7.77598 ], [ 113.39929962, -7.77610016 ], [ 113.3992691, -7.77724981 ], [ 113.39926147, -7.77732992 ], [ 113.39923859, -7.77752018 ], [ 113.39910889, -7.77847004 ], [ 113.39878082, -7.77909994 ], [ 113.3983078, -7.78000021 ], [ 113.39798737, -7.78013992 ], [ 113.39752197, -7.78034019 ], [ 113.39697266, -7.78048992 ], [ 113.39607239, -7.78072977 ], [ 113.39511108, -7.78091002 ], [ 113.39408112, -7.78113985 ], [ 113.3931427, -7.78136015 ], [ 113.39237213, -7.78157997 ], [ 113.39192963, -7.78177977 ], [ 113.39083099, -7.78266001 ], [ 113.39073181, -7.78272343 ], [ 113.39057159, -7.78283024 ], [ 113.39008331, -7.78323984 ], [ 113.38961792, -7.78360987 ], [ 113.38912964, -7.78399992 ], [ 113.3883667, -7.78459978 ], [ 113.38813019, -7.78479004 ], [ 113.38757324, -7.7852602 ], [ 113.3864975, -7.78614998 ], [ 113.3862381, -7.78628016 ], [ 113.3861084, -7.78629017 ], [ 113.38574982, -7.78626013 ], [ 113.38522339, -7.78613997 ], [ 113.38464355, -7.78599024 ], [ 113.38379669, -7.78586006 ], [ 113.38316345, -7.78583002 ], [ 113.38259125, -7.78580999 ], [ 113.38230896, -7.78575993 ], [ 113.38207245, -7.78571367 ], [ 113.38195038, -7.78568983 ], [ 113.38182068, -7.78565788 ], [ 113.38169098, -7.78562737 ], [ 113.38124847, -7.78552008 ], [ 113.38046265, -7.78529978 ], [ 113.38024902, -7.78524113 ], [ 113.37992096, -7.78515005 ], [ 113.37968445, -7.78503418 ], [ 113.37953186, -7.78495979 ], [ 113.3794632, -7.78493023 ], [ 113.37924194, -7.78482008 ], [ 113.3793869, -7.78460979 ], [ 113.37947845, -7.78432989 ], [ 113.37963104, -7.78385019 ], [ 113.37983704, -7.78353977 ], [ 113.38031006, -7.7832098 ], [ 113.38085175, -7.78285885 ], [ 113.38127136, -7.78254986 ], [ 113.3815918, -7.78224993 ], [ 113.38181305, -7.7818799 ], [ 113.38207245, -7.78146791 ], [ 113.38224792, -7.7811799 ], [ 113.38233185, -7.78101683 ], [ 113.38259888, -7.78050995 ], [ 113.38283539, -7.78009033 ], [ 113.38301086, -7.7797699 ], [ 113.3830719, -7.77962637 ], [ 113.38317108, -7.77940989 ], [ 113.38330078, -7.77905989 ], [ 113.38342285, -7.77875996 ], [ 113.383461, -7.77839994 ], [ 113.38352203, -7.77802992 ], [ 113.38365936, -7.77779007 ], [ 113.38394165, -7.7775898 ], [ 113.38435364, -7.77739 ], [ 113.38459778, -7.77716017 ], [ 113.38497925, -7.77667999 ], [ 113.38515472, -7.77637482 ], [ 113.38520813, -7.77626991 ], [ 113.38538361, -7.77568007 ], [ 113.38544464, -7.77539062 ], [ 113.38555145, -7.77489996 ], [ 113.38567352, -7.77436352 ], [ 113.38569641, -7.77423 ], [ 113.38587952, -7.77390003 ], [ 113.38612366, -7.77370024 ], [ 113.38643646, -7.77343988 ], [ 113.38661194, -7.77321005 ], [ 113.3867569, -7.77291679 ], [ 113.38684845, -7.77271986 ], [ 113.38694763, -7.77247 ], [ 113.38704681, -7.77223492 ], [ 113.38709259, -7.77213001 ], [ 113.38716888, -7.7718401 ], [ 113.38717651, -7.77176094 ], [ 113.38717651, -7.77157021 ], [ 113.38715363, -7.77103996 ], [ 113.38704681, -7.77032995 ], [ 113.38697052, -7.76938009 ], [ 113.38697815, -7.76875019 ], [ 113.38707733, -7.76857996 ], [ 113.38739777, -7.76827002 ], [ 113.38757324, -7.76813269 ], [ 113.38772583, -7.76801014 ], [ 113.38784027, -7.76791573 ], [ 113.38807678, -7.76772022 ], [ 113.38851166, -7.76739979 ], [ 113.38860321, -7.76731062 ], [ 113.38889313, -7.76703978 ], [ 113.38923645, -7.76681995 ], [ 113.38922119, -7.76660013 ], [ 113.3891983, -7.76634979 ], [ 113.38921356, -7.76610994 ], [ 113.38922119, -7.76597977 ], [ 113.38935852, -7.7647562 ], [ 113.38941193, -7.76427984 ], [ 113.3894577, -7.76401567 ], [ 113.38951874, -7.76364994 ], [ 113.3895874, -7.76351023 ], [ 113.38964081, -7.76328993 ], [ 113.39042664, -7.76315022 ], [ 113.39112091, -7.76304007 ], [ 113.39157867, -7.76294994 ], [ 113.39190674, -7.76288986 ], [ 113.39203644, -7.76286983 ], [ 113.39322662, -7.76264 ], [ 113.39331818, -7.76262999 ], [ 113.39395142, -7.76252985 ], [ 113.39405823, -7.76250982 ], [ 113.39420319, -7.76247978 ], [ 113.39428711, -7.76246023 ], [ 113.39453125, -7.76239014 ], [ 113.39482117, -7.76233006 ], [ 113.39515686, -7.76226997 ], [ 113.39620209, -7.76207018 ], [ 113.39642334, -7.76203012 ], [ 113.39659882, -7.7620101 ], [ 113.39658356, -7.76184988 ], [ 113.3966217, -7.76160002 ], [ 113.39675903, -7.76059008 ], [ 113.39685822, -7.75970984 ], [ 113.39698792, -7.75817013 ], [ 113.39704132, -7.75743008 ], [ 113.39711761, -7.75630999 ], [ 113.3971405, -7.75594997 ], [ 113.3972168, -7.75542021 ], [ 113.39729309, -7.75510979 ], [ 113.39733124, -7.75504017 ], [ 113.39746094, -7.75459003 ], [ 113.39755249, -7.75450993 ], [ 113.39746094, -7.75433016 ], [ 113.39749908, -7.75388622 ], [ 113.39755249, -7.75324106 ], [ 113.39756012, -7.75314999 ], [ 113.39756012, -7.75301981 ], [ 113.39745331, -7.75288868 ], [ 113.39731598, -7.752388 ], [ 113.39665222, -7.75209284 ], [ 113.39598846, -7.75143862 ], [ 113.39550018, -7.74976778 ], [ 113.39526367, -7.74902773 ], [ 113.39533997, -7.74853992 ], [ 113.39556122, -7.74772978 ], [ 113.39565277, -7.74752998 ], [ 113.39563751, -7.74738216 ], [ 113.39560699, -7.74695015 ], [ 113.3955307, -7.74673986 ], [ 113.39499664, -7.74678993 ], [ 113.3948288, -7.74652004 ], [ 113.39492035, -7.74644995 ], [ 113.3948822, -7.74625015 ], [ 113.39463806, -7.74569607 ], [ 113.39431763, -7.74496984 ], [ 113.39421082, -7.74467993 ], [ 113.39444733, -7.74458981 ], [ 113.39492798, -7.74454021 ], [ 113.39486694, -7.74439001 ], [ 113.39477539, -7.74403858 ], [ 113.39431763, -7.74231005 ], [ 113.39411926, -7.7416501 ], [ 113.39350891, -7.74014997 ], [ 113.39333344, -7.73974991 ], [ 113.39286041, -7.73869991 ], [ 113.39321899, -7.73827982 ], [ 113.3934021, -7.73813009 ], [ 113.39354706, -7.73807001 ], [ 113.39367676, -7.73807001 ], [ 113.39420319, -7.73837996 ], [ 113.39453888, -7.73859978 ], [ 113.39478302, -7.73870993 ], [ 113.39497375, -7.73873997 ], [ 113.39518738, -7.73870993 ], [ 113.39549255, -7.73855019 ], [ 113.39575958, -7.73835993 ], [ 113.3959198, -7.73830986 ], [ 113.39660645, -7.73819017 ], [ 113.39716339, -7.73814011 ], [ 113.39750671, -7.73815012 ], [ 113.39775848, -7.73823023 ], [ 113.39807129, -7.73844004 ], [ 113.39845276, -7.73883009 ], [ 113.39872742, -7.73923016 ], [ 113.39891052, -7.73952007 ], [ 113.39942169, -7.73994017 ], [ 113.40014648, -7.74026012 ], [ 113.40061188, -7.74044991 ], [ 113.40080261, -7.74049997 ], [ 113.40196991, -7.74053001 ], [ 113.40219879, -7.74053001 ], [ 113.40245819, -7.74044991 ], [ 113.40280914, -7.7402401 ], [ 113.4032135, -7.73990011 ], [ 113.40367889, -7.73943996 ], [ 113.4041214, -7.73892021 ], [ 113.40432739, -7.73866987 ], [ 113.40527344, -7.73803997 ], [ 113.40583801, -7.73767996 ], [ 113.4061203, -7.73744011 ], [ 113.40624237, -7.73726988 ], [ 113.40628052, -7.7362299 ], [ 113.40631104, -7.73600006 ], [ 113.40756989, -7.73598003 ], [ 113.40869141, -7.73577023 ], [ 113.40895844, -7.73570013 ], [ 113.40917969, -7.73555994 ], [ 113.40939331, -7.73534012 ], [ 113.40953064, -7.73515987 ], [ 113.40961456, -7.73513079 ], [ 113.40986633, -7.73504019 ], [ 113.41042328, -7.7348299 ], [ 113.41152954, -7.73446989 ], [ 113.41184235, -7.73442984 ], [ 113.41272736, -7.73459005 ], [ 113.41313171, -7.73467016 ], [ 113.41385651, -7.73463011 ], [ 113.41464233, -7.73450994 ], [ 113.41496277, -7.73450994 ], [ 113.41516113, -7.73457003 ], [ 113.41577911, -7.7348299 ], [ 113.41648102, -7.73503017 ], [ 113.41671753, -7.73510981 ], [ 113.41687775, -7.73511982 ], [ 113.41694641, -7.7350502 ], [ 113.41697693, -7.73493004 ], [ 113.41694641, -7.73472023 ], [ 113.41681671, -7.73459005 ], [ 113.41644287, -7.7343998 ], [ 113.41578674, -7.73425007 ], [ 113.4156189, -7.73418999 ], [ 113.415802, -7.73395014 ], [ 113.41615295, -7.7339201 ], [ 113.4164505, -7.73378992 ], [ 113.41678619, -7.73374987 ], [ 113.41706848, -7.73375988 ], [ 113.41716766, -7.73381996 ], [ 113.41729736, -7.73395014 ], [ 113.41786194, -7.73408985 ], [ 113.41828918, -7.73416996 ], [ 113.41837311, -7.73418999 ], [ 113.41873169, -7.73428011 ], [ 113.41902161, -7.7342968 ], [ 113.41941833, -7.73432016 ], [ 113.41992188, -7.73433018 ], [ 113.42126465, -7.73449278 ], [ 113.42214966, -7.73460007 ], [ 113.42307281, -7.73471022 ], [ 113.42371368, -7.73478985 ], [ 113.42427826, -7.73481989 ], [ 113.42619324, -7.73514986 ], [ 113.42758179, -7.73536015 ], [ 113.42848206, -7.73546982 ], [ 113.42929077, -7.73541021 ], [ 113.42945862, -7.73541021 ], [ 113.42961884, -7.73541021 ], [ 113.43060303, -7.73544979 ], [ 113.43096924, -7.73547983 ], [ 113.43112183, -7.73543978 ], [ 113.4312973, -7.73527002 ], [ 113.43138123, -7.73507977 ], [ 113.43144226, -7.73483992 ], [ 113.43190002, -7.73432016 ], [ 113.43228912, -7.73396015 ], [ 113.43247223, -7.73383999 ], [ 113.43261719, -7.73380995 ], [ 113.4328537, -7.73383999 ], [ 113.43379211, -7.73405981 ], [ 113.43395233, -7.73410988 ], [ 113.43408203, -7.73425007 ], [ 113.43421936, -7.73444986 ], [ 113.43431091, -7.73451996 ], [ 113.43491364, -7.73414993 ], [ 113.4352417, -7.73394012 ], [ 113.43556976, -7.73380995 ], [ 113.43583679, -7.73375988 ], [ 113.43628693, -7.73387003 ], [ 113.43683624, -7.73397017 ], [ 113.43726349, -7.73414993 ], [ 113.43744659, -7.73423004 ], [ 113.43776703, -7.73416996 ], [ 113.43802643, -7.73409986 ], [ 113.43859863, -7.7342 ], [ 113.43882751, -7.73424006 ], [ 113.43895721, -7.73397017 ], [ 113.43904114, -7.73372984 ], [ 113.43920898, -7.7335 ], [ 113.43949127, -7.73323011 ], [ 113.44008636, -7.73288012 ], [ 113.44135284, -7.73203993 ], [ 113.44177246, -7.73178005 ], [ 113.44199371, -7.73169994 ], [ 113.44284821, -7.73178005 ], [ 113.44302368, -7.73177004 ], [ 113.44317627, -7.73169994 ], [ 113.44342804, -7.73144007 ], [ 113.4434967, -7.73107004 ], [ 113.44354248, -7.73089981 ], [ 113.44403839, -7.73045015 ], [ 113.44445801, -7.73012018 ], [ 113.44493103, -7.72987986 ], [ 113.44567871, -7.72945976 ], [ 113.44593811, -7.72931004 ], [ 113.44615173, -7.72925997 ], [ 113.44641876, -7.72933006 ], [ 113.4465332, -7.7293601 ], [ 113.44745636, -7.72849989 ], [ 113.44785309, -7.72813988 ], [ 113.44803619, -7.72801018 ], [ 113.44822693, -7.7279501 ], [ 113.44848633, -7.72802019 ], [ 113.44864655, -7.7280798 ], [ 113.4487915, -7.72806978 ], [ 113.44889069, -7.72798014 ], [ 113.44920349, -7.72733021 ], [ 113.44940186, -7.72686005 ], [ 113.44954681, -7.72664022 ], [ 113.44979095, -7.7263999 ], [ 113.44995117, -7.72630978 ], [ 113.45031738, -7.72635984 ], [ 113.45046234, -7.72636986 ], [ 113.45056915, -7.72631979 ], [ 113.450737, -7.72580004 ], [ 113.45079803, -7.72563982 ], [ 113.45091248, -7.72551012 ], [ 113.45111084, -7.72539997 ], [ 113.45127869, -7.72535992 ], [ 113.45142365, -7.72549009 ], [ 113.45173645, -7.72572994 ], [ 113.45194244, -7.72581005 ], [ 113.45217896, -7.72585011 ], [ 113.4526062, -7.72572994 ], [ 113.45350647, -7.72519016 ], [ 113.45371246, -7.72509003 ], [ 113.45397186, -7.72503996 ], [ 113.45441437, -7.72503233 ], [ 113.4545517, -7.72502995 ], [ 113.45464325, -7.7249999 ], [ 113.45510864, -7.72470999 ], [ 113.45546722, -7.72448015 ], [ 113.45585632, -7.72426748 ], [ 113.45678711, -7.72375011 ], [ 113.45715332, -7.72352982 ], [ 113.45744324, -7.72329998 ], [ 113.45748138, -7.72306013 ], [ 113.45790863, -7.72267008 ], [ 113.45834351, -7.72240019 ], [ 113.46025848, -7.72121 ], [ 113.46066284, -7.72094011 ], [ 113.46114349, -7.72047997 ], [ 113.46153259, -7.72343016 ], [ 113.46147919, -7.72392988 ], [ 113.46141052, -7.72412014 ], [ 113.46131134, -7.72432995 ], [ 113.46130371, -7.72454023 ], [ 113.46125031, -7.72510004 ], [ 113.46112061, -7.72559023 ], [ 113.46111298, -7.72573996 ], [ 113.46124268, -7.72578001 ], [ 113.46134186, -7.72584009 ], [ 113.46131897, -7.72599983 ], [ 113.46121979, -7.72623014 ], [ 113.46038055, -7.7262001 ], [ 113.46002197, -7.72716379 ], [ 113.45992279, -7.72744989 ], [ 113.4596405, -7.72842979 ], [ 113.45964813, -7.72866964 ], [ 113.45964813, -7.72881794 ], [ 113.45967102, -7.7297802 ], [ 113.45968628, -7.73054981 ], [ 113.45987701, -7.73137999 ], [ 113.45993042, -7.73190641 ], [ 113.45995331, -7.73207998 ], [ 113.45981598, -7.73267603 ], [ 113.46014404, -7.73276281 ], [ 113.4602356, -7.73277807 ], [ 113.46031952, -7.73305941 ], [ 113.460495, -7.73313665 ], [ 113.46047974, -7.73327732 ], [ 113.46030426, -7.73323154 ], [ 113.46021271, -7.73321629 ], [ 113.46016693, -7.73351383 ], [ 113.46024323, -7.73356056 ], [ 113.46022797, -7.73404551 ], [ 113.46022034, -7.73438978 ], [ 113.46029663, -7.73454618 ], [ 113.46047211, -7.73462343 ], [ 113.46070862, -7.734622 ], [ 113.46090698, -7.73471451 ], [ 113.46114349, -7.73479128 ], [ 113.46144104, -7.73502445 ], [ 113.46173096, -7.73525763 ], [ 113.4618988, -7.73525667 ], [ 113.46198273, -7.7353344 ], [ 113.46232605, -7.73536348 ], [ 113.46237183, -7.73573875 ], [ 113.46207428, -7.73574066 ], [ 113.46135712, -7.73572922 ], [ 113.46127319, -7.73572969 ], [ 113.46113586, -7.73555851 ], [ 113.46100616, -7.73555899 ], [ 113.46102142, -7.73571539 ], [ 113.46105957, -7.73585606 ], [ 113.46092987, -7.735888 ], [ 113.46096039, -7.73599768 ], [ 113.46109009, -7.73602819 ], [ 113.46117401, -7.73665333 ], [ 113.46138, -7.73714781 ], [ 113.4624176, -7.73638344 ], [ 113.46473694, -7.73467016 ], [ 113.46482086, -7.73463011 ], [ 113.46489716, -7.7346034 ], [ 113.46507263, -7.73446941 ], [ 113.46529388, -7.73432112 ], [ 113.46539307, -7.73423338 ], [ 113.46546173, -7.7341733 ], [ 113.4655838, -7.73451853 ], [ 113.46562195, -7.73469687 ], [ 113.4656601, -7.73486471 ], [ 113.46569824, -7.73504257 ], [ 113.46570587, -7.73514748 ], [ 113.4657135, -7.73530483 ], [ 113.46572113, -7.73546219 ], [ 113.46585846, -7.73573446 ], [ 113.46594238, -7.73587036 ], [ 113.46605682, -7.73599577 ], [ 113.46607971, -7.73613167 ], [ 113.46601868, -7.7362895 ], [ 113.46601105, -7.73646832 ], [ 113.46601868, -7.73662567 ], [ 113.46602631, -7.73671722 ], [ 113.46614838, -7.73687983 ], [ 113.46633148, -7.73705006 ], [ 113.46631622, -7.73715019 ], [ 113.46624756, -7.73744011 ], [ 113.46627045, -7.73776007 ], [ 113.46640015, -7.73845005 ], [ 113.46656799, -7.73906994 ], [ 113.46682739, -7.73980999 ], [ 113.46762085, -7.74186993 ], [ 113.46768188, -7.74221992 ], [ 113.46778107, -7.74281979 ], [ 113.46806335, -7.74299002 ], [ 113.46823883, -7.74302006 ], [ 113.46826935, -7.74315977 ], [ 113.46829224, -7.74324989 ], [ 113.46855927, -7.74447012 ], [ 113.46907806, -7.74705982 ], [ 113.46929169, -7.74797916 ], [ 113.46974945, -7.75 ], [ 113.469841, -7.75041771 ], [ 113.46997833, -7.75095463 ], [ 113.47003937, -7.75121021 ], [ 113.47009277, -7.75141001 ], [ 113.47015381, -7.75163984 ], [ 113.4702301, -7.75194311 ], [ 113.47057343, -7.75328016 ], [ 113.47061157, -7.75338984 ], [ 113.47065735, -7.75355005 ], [ 113.47052765, -7.7535882 ], [ 113.47036743, -7.75360966 ], [ 113.4702301, -7.75361061 ], [ 113.47008514, -7.75365782 ], [ 113.46992493, -7.75366783 ], [ 113.46970367, -7.75365973 ], [ 113.46959686, -7.75368071 ], [ 113.4693985, -7.75361204 ], [ 113.46901703, -7.75364161 ], [ 113.46871185, -7.75356865 ], [ 113.46844482, -7.75361919 ], [ 113.46763611, -7.75362396 ], [ 113.46640778, -7.75354576 ], [ 113.46573639, -7.75357819 ], [ 113.46565247, -7.75353622 ], [ 113.46472931, -7.75361252 ], [ 113.46472931, -7.75345612 ], [ 113.46408844, -7.75343132 ], [ 113.46368408, -7.75338078 ], [ 113.46354675, -7.75336361 ], [ 113.46338654, -7.75334644 ], [ 113.46266174, -7.7532692 ], [ 113.46220398, -7.75328588 ], [ 113.46195984, -7.75327301 ], [ 113.46160126, -7.75323248 ], [ 113.46131897, -7.75322008 ], [ 113.46115112, -7.75313568 ], [ 113.46103668, -7.75307989 ], [ 113.46084595, -7.75298119 ], [ 113.46063232, -7.75295401 ], [ 113.46035004, -7.75295544 ], [ 113.46002197, -7.7528863 ], [ 113.45946503, -7.75283241 ], [ 113.45916748, -7.75283432 ], [ 113.45892334, -7.75287819 ], [ 113.4584198, -7.75278997 ], [ 113.45836639, -7.75284004 ], [ 113.45825958, -7.75297022 ], [ 113.45800018, -7.75314999 ], [ 113.45768738, -7.75328016 ], [ 113.45688629, -7.75351 ], [ 113.45677185, -7.75354004 ], [ 113.45630646, -7.75367022 ], [ 113.45612335, -7.75379992 ], [ 113.45607758, -7.75404978 ], [ 113.4560318, -7.75424004 ], [ 113.45604706, -7.75446987 ], [ 113.4560318, -7.7547102 ], [ 113.45606995, -7.75494003 ], [ 113.45626831, -7.75547981 ], [ 113.45628357, -7.75568008 ], [ 113.45626831, -7.75609016 ], [ 113.45623016, -7.75634003 ], [ 113.45626068, -7.75643015 ], [ 113.4562912, -7.75653982 ], [ 113.45632935, -7.75678015 ], [ 113.45674896, -7.75763988 ], [ 113.45728302, -7.75814009 ], [ 113.45774841, -7.75846004 ], [ 113.45819092, -7.75868988 ], [ 113.45848083, -7.75880003 ], [ 113.45896149, -7.75921249 ], [ 113.45903778, -7.7592802 ], [ 113.45925903, -7.75943995 ], [ 113.45966339, -7.75950575 ], [ 113.45986176, -7.75954008 ], [ 113.46018982, -7.75989008 ], [ 113.46031189, -7.76000786 ], [ 113.46040344, -7.76008987 ], [ 113.46070099, -7.76023006 ], [ 113.46086121, -7.7603302 ], [ 113.46102905, -7.76050997 ], [ 113.46131897, -7.76046991 ], [ 113.46144104, -7.76046991 ], [ 113.46166229, -7.76057005 ], [ 113.46195221, -7.76083994 ], [ 113.46240234, -7.76154232 ], [ 113.46256256, -7.76177979 ], [ 113.46276855, -7.76212978 ], [ 113.46278381, -7.76227617 ], [ 113.46282196, -7.76255989 ], [ 113.46305847, -7.76277018 ], [ 113.46320343, -7.76288986 ], [ 113.46331024, -7.76321983 ], [ 113.46331024, -7.76330662 ], [ 113.46331024, -7.76340008 ], [ 113.46325684, -7.76358986 ], [ 113.46369171, -7.76386976 ], [ 113.46382904, -7.76395988 ], [ 113.46391296, -7.76410007 ], [ 113.46389771, -7.7643199 ], [ 113.46382904, -7.76462984 ], [ 113.46385956, -7.76485014 ], [ 113.46392059, -7.76499844 ], [ 113.46396637, -7.76512003 ], [ 113.46401215, -7.76556015 ], [ 113.46399689, -7.76572323 ], [ 113.46398163, -7.76592016 ], [ 113.46395111, -7.76613998 ], [ 113.46398926, -7.76628017 ], [ 113.46411896, -7.76644993 ], [ 113.46478271, -7.76652002 ], [ 113.46492767, -7.76656008 ], [ 113.46505737, -7.76666355 ], [ 113.46524048, -7.76680994 ], [ 113.46536255, -7.76690006 ], [ 113.46559143, -7.76678991 ], [ 113.46575165, -7.76668978 ], [ 113.46594238, -7.76666021 ], [ 113.46614075, -7.76671982 ], [ 113.466362, -7.76686001 ], [ 113.46672058, -7.76725006 ], [ 113.4668808, -7.76753998 ], [ 113.46697235, -7.76779985 ], [ 113.46697235, -7.76811981 ], [ 113.46694183, -7.76846981 ], [ 113.46716309, -7.7684598 ], [ 113.46727753, -7.76849985 ], [ 113.46781158, -7.7688899 ], [ 113.4683075, -7.76927996 ], [ 113.4686203, -7.76953983 ], [ 113.46896362, -7.7700901 ], [ 113.4691391, -7.77045012 ], [ 113.4694519, -7.77105999 ], [ 113.46961212, -7.77151012 ], [ 113.46961975, -7.77158165 ], [ 113.46964264, -7.77168989 ], [ 113.46965027, -7.77177 ], [ 113.46971893, -7.77201986 ], [ 113.46977234, -7.77220011 ], [ 113.46965027, -7.77271986 ], [ 113.46964264, -7.77285004 ], [ 113.46968842, -7.77294016 ], [ 113.46981049, -7.7729702 ], [ 113.46999359, -7.77296019 ], [ 113.47013092, -7.77301979 ], [ 113.47019958, -7.7730999 ], [ 113.47013855, -7.77383995 ], [ 113.47003937, -7.77418995 ], [ 113.46997833, -7.77467012 ], [ 113.46994019, -7.77479982 ], [ 113.46974945, -7.77487993 ], [ 113.46961975, -7.77493 ], [ 113.46954346, -7.7750001 ], [ 113.46954346, -7.77511024 ], [ 113.47006989, -7.77574015 ], [ 113.47048187, -7.77619982 ], [ 113.47064972, -7.77632999 ], [ 113.47077942, -7.77637005 ], [ 113.47094727, -7.77629995 ], [ 113.47106934, -7.77616978 ], [ 113.47133636, -7.77549982 ], [ 113.47148132, -7.77513981 ], [ 113.47158813, -7.77496004 ], [ 113.47167969, -7.77488995 ], [ 113.47186279, -7.77493 ], [ 113.47206879, -7.77505016 ], [ 113.47228241, -7.77525997 ], [ 113.4723587, -7.77541018 ], [ 113.4723587, -7.77559996 ], [ 113.472229, -7.77605009 ], [ 113.47212219, -7.77628994 ], [ 113.47203064, -7.77658987 ], [ 113.47187042, -7.77687979 ], [ 113.47168732, -7.77719021 ], [ 113.47158051, -7.77752018 ], [ 113.47154999, -7.77778006 ], [ 113.47158051, -7.7779398 ], [ 113.47171783, -7.77811003 ], [ 113.47190857, -7.77822018 ], [ 113.47216797, -7.77826023 ], [ 113.47241211, -7.77823019 ], [ 113.47257233, -7.77817011 ], [ 113.47264099, -7.77820015 ], [ 113.47270203, -7.77839994 ], [ 113.47276306, -7.77862978 ], [ 113.47283173, -7.77886009 ], [ 113.47283173, -7.77903986 ], [ 113.47264862, -7.77937984 ], [ 113.47257233, -7.77955008 ], [ 113.47265625, -7.77972984 ], [ 113.47271729, -7.77988005 ], [ 113.47276306, -7.7799902 ], [ 113.47255707, -7.78032017 ], [ 113.47245789, -7.78047991 ], [ 113.47241974, -7.78065014 ], [ 113.4724884, -7.78080988 ], [ 113.47276306, -7.78103018 ], [ 113.4726181, -7.78126001 ], [ 113.47241211, -7.78148985 ], [ 113.47212219, -7.78171015 ], [ 113.47155762, -7.78196001 ], [ 113.4708786, -7.78218985 ], [ 113.47036743, -7.78228998 ], [ 113.46984863, -7.78236008 ], [ 113.46941376, -7.78239012 ], [ 113.46907806, -7.78243017 ], [ 113.46875763, -7.78241014 ], [ 113.46846008, -7.78231001 ], [ 113.46831512, -7.78215885 ], [ 113.46824646, -7.78209019 ], [ 113.46798706, -7.78138018 ], [ 113.4679184, -7.78108978 ], [ 113.46785736, -7.78078985 ], [ 113.46770477, -7.78014517 ], [ 113.46752167, -7.78008986 ], [ 113.46733093, -7.77996016 ], [ 113.46704102, -7.77968979 ], [ 113.46617889, -7.77938986 ], [ 113.46566772, -7.77942991 ], [ 113.46565247, -7.77921009 ], [ 113.4655304, -7.77916002 ], [ 113.46530151, -7.77907991 ], [ 113.46482849, -7.77887011 ], [ 113.46386719, -7.77841997 ], [ 113.46295929, -7.77795458 ], [ 113.46279144, -7.77787018 ], [ 113.46261597, -7.77777243 ], [ 113.46253967, -7.77767992 ], [ 113.46250916, -7.77792835 ], [ 113.46251678, -7.77823734 ], [ 113.46238708, -7.7782383 ], [ 113.46196747, -7.77815676 ], [ 113.46125031, -7.77796459 ], [ 113.46050262, -7.77781487 ], [ 113.45950317, -7.77751207 ], [ 113.45940399, -7.77738667 ], [ 113.45935822, -7.77713442 ], [ 113.4593277, -7.77699471 ], [ 113.45922089, -7.77684116 ], [ 113.45906067, -7.77684212 ], [ 113.45889282, -7.77674484 ], [ 113.45875549, -7.77660561 ], [ 113.45848846, -7.77653694 ], [ 113.45841217, -7.77654362 ], [ 113.45827484, -7.77655506 ], [ 113.45813751, -7.77656698 ], [ 113.45768738, -7.77658367 ], [ 113.45705414, -7.7764473 ], [ 113.45657349, -7.77642202 ], [ 113.45580292, -7.77648258 ], [ 113.4551239, -7.77654219 ], [ 113.45489502, -7.77655077 ], [ 113.45466614, -7.77655888 ], [ 113.45405579, -7.77657652 ], [ 113.45370483, -7.7764945 ], [ 113.45350647, -7.77642536 ], [ 113.45314026, -7.77621746 ], [ 113.45293427, -7.77616262 ], [ 113.45248413, -7.77610922 ], [ 113.45198059, -7.77607107 ], [ 113.45178986, -7.77605724 ], [ 113.45179749, -7.77462721 ], [ 113.45184326, -7.77416229 ], [ 113.45178223, -7.77404594 ], [ 113.45162201, -7.77373981 ], [ 113.45137024, -7.77328014 ], [ 113.45108795, -7.77270985 ], [ 113.45095825, -7.77244997 ], [ 113.45001984, -7.77231979 ], [ 113.44924164, -7.77220011 ], [ 113.4485321, -7.77207994 ], [ 113.44776917, -7.77195978 ], [ 113.44724274, -7.77189302 ], [ 113.44650269, -7.77180004 ], [ 113.44586182, -7.77169228 ], [ 113.44545746, -7.77163982 ], [ 113.44537354, -7.77162981 ], [ 113.44535065, -7.77169991 ], [ 113.44535065, -7.77190018 ], [ 113.4450531, -7.7719717 ], [ 113.44464874, -7.77203131 ], [ 113.44425201, -7.77203369 ], [ 113.44354248, -7.77211428 ], [ 113.44311523, -7.77205944 ], [ 113.44306183, -7.77236557 ], [ 113.44299316, -7.77306414 ], [ 113.44339752, -7.77326441 ], [ 113.44334412, -7.77362871 ], [ 113.44321442, -7.77426577 ], [ 113.44309235, -7.77498341 ], [ 113.44309998, -7.77510548 ], [ 113.44297791, -7.77539015 ], [ 113.44261932, -7.77688122 ], [ 113.44204712, -7.77710772 ], [ 113.44195557, -7.77730942 ], [ 113.44174194, -7.77688885 ], [ 113.44160461, -7.77683067 ], [ 113.4414978, -7.77685356 ], [ 113.44139862, -7.77677965 ], [ 113.44133759, -7.77662468 ], [ 113.44113159, -7.77650738 ], [ 113.44091034, -7.77650881 ], [ 113.44081116, -7.77654648 ], [ 113.44059753, -7.77674007 ], [ 113.44043732, -7.77672625 ], [ 113.4404068, -7.77664518 ], [ 113.44033051, -7.77654171 ], [ 113.44010925, -7.77651358 ], [ 113.43997955, -7.77640343 ], [ 113.439888, -7.77615929 ], [ 113.44015503, -7.77549171 ], [ 113.44012451, -7.77538109 ], [ 113.43985748, -7.77527905 ], [ 113.43966675, -7.77528 ], [ 113.43940735, -7.77528667 ], [ 113.43927002, -7.77529001 ], [ 113.43917847, -7.77530527 ], [ 113.43891907, -7.77523279 ], [ 113.43871307, -7.77514505 ], [ 113.43848419, -7.77490187 ], [ 113.43843842, -7.77476931 ], [ 113.43823242, -7.77466679 ], [ 113.43810272, -7.7746892 ], [ 113.43802643, -7.77464008 ], [ 113.43801117, -7.7745285 ], [ 113.43787384, -7.77449989 ], [ 113.43727875, -7.7743721 ], [ 113.43718719, -7.77436924 ], [ 113.43696594, -7.77436209 ], [ 113.43666077, -7.77431774 ], [ 113.43614197, -7.77424002 ], [ 113.43598938, -7.77415991 ], [ 113.43588257, -7.77410269 ], [ 113.43570709, -7.77408028 ], [ 113.43550873, -7.77415085 ], [ 113.43541718, -7.77413845 ], [ 113.43516541, -7.7741065 ], [ 113.43509674, -7.77440786 ], [ 113.43505859, -7.77447748 ], [ 113.43465424, -7.7744565 ], [ 113.43450165, -7.77448273 ], [ 113.43431091, -7.77451611 ], [ 113.43408966, -7.77430964 ], [ 113.43391418, -7.77437973 ], [ 113.43362427, -7.77448559 ], [ 113.43351746, -7.77450943 ], [ 113.43334961, -7.77459192 ], [ 113.43322754, -7.77461481 ], [ 113.43295288, -7.77453566 ], [ 113.43286133, -7.77438593 ], [ 113.43262482, -7.77429485 ], [ 113.43244934, -7.77422619 ], [ 113.43228149, -7.77426195 ], [ 113.43186188, -7.77425289 ], [ 113.43172455, -7.77418423 ], [ 113.43154144, -7.77415514 ], [ 113.43148804, -7.77426767 ], [ 113.43117523, -7.77417564 ], [ 113.43101501, -7.77400351 ], [ 113.43022919, -7.77381897 ], [ 113.42878723, -7.77356339 ], [ 113.42865753, -7.77354002 ] ] ] ] } }
]
}
